{
"type": "FeatureCollection",
"name": "geo_31_介護老人福祉施設",
"crs": { "type": "name", "properties": { "name": "urn:ogc:def:crs:OGC:1.3:CRS84" } },
"features": [
{ "type": "Feature", "properties": { "内容": "気高あすなろ【介護老人福祉施設】鳥取県鳥取市気高町八幡２６８", "url": "https://www.kaigokensaku.mhlw.go.jp/31/index.php?action_kouhyou_detail_004_kani=true&JigyosyoCd=3171300035-00&ServiceCd=510&Type=search", "url2": "http://t-asunaro.or.jp/" }, "geometry": { "type": "Point", "coordinates": [ 134.040356, 35.5105715 ] } },
{ "type": "Feature", "properties": { "内容": "社会福祉法人あすなろ会　白兎あすなろ【介護老人福祉施設】鳥取県鳥取市白兎８番地", "url": "https://www.kaigokensaku.mhlw.go.jp/31/index.php?action_kouhyou_detail_004_kani=true&JigyosyoCd=3170100030-00&ServiceCd=510&Type=search", "url2": "http://www.t-asunaro.or.jp/" }, "geometry": { "type": "Point", "coordinates": [ 134.1195123, 35.5251082 ] } },
{ "type": "Feature", "properties": { "内容": "美和あすなろ【介護老人福祉施設】鳥取県鳥取市赤子田４５１", "url": "https://www.kaigokensaku.mhlw.go.jp/31/index.php?action_kouhyou_detail_004_kani=true&JigyosyoCd=3170100063-00&ServiceCd=510&Type=search", "url2": "http://t-asunaro.or.jp/index.shtml" }, "geometry": { "type": "Point", "coordinates": [ 134.200614, 35.4316337 ] } },
{ "type": "Feature", "properties": { "内容": "特別養護老人ホーム若葉台【介護老人福祉施設】鳥取県鳥取市若葉台南４丁目２番２７号", "url": "https://www.kaigokensaku.mhlw.go.jp/31/index.php?action_kouhyou_detail_004_kani=true&JigyosyoCd=3170100220-00&ServiceCd=510&Type=search", "url2": "http://www.tottorifukushikai.jp" }, "geometry": { "type": "Point", "coordinates": [ 134.269154100000037, 35.4451282 ] } },
{ "type": "Feature", "properties": { "内容": "介護老人福祉施設新いなば幸朋苑【介護老人福祉施設】鳥取県鳥取市浜坂222-1", "url": "https://www.kaigokensaku.mhlw.go.jp/31/index.php?action_kouhyou_detail_004_kani=true&JigyosyoCd=3170100550-00&ServiceCd=510&Type=search", "url2": "http://www.kohoen.jp" }, "geometry": { "type": "Point", "coordinates": [ 134.226897, 35.524602 ] } },
{ "type": "Feature", "properties": { "内容": "介護老人福祉施設　にしまち幸朋苑【介護老人福祉施設】鳥取県鳥取市西町5丁目108", "url": "https://www.kaigokensaku.mhlw.go.jp/31/index.php?action_kouhyou_detail_004_kani=true&JigyosyoCd=3170102523-00&ServiceCd=510&Type=search", "url2": "http://www.kohoen.jp" }, "geometry": { "type": "Point", "coordinates": [ 134.232991500000026, 35.5068124 ] } },
{ "type": "Feature", "properties": { "内容": "健推庵こくふ【介護老人福祉施設】鳥取県鳥取市国府町新通り2丁目202", "url": "https://www.kaigokensaku.mhlw.go.jp/31/index.php?action_kouhyou_detail_004_kani=true&JigyosyoCd=3170103216-00&ServiceCd=510&Type=search", "url2": "http://kensuikai.net/tokuyo_info.html" }, "geometry": { "type": "Point", "coordinates": [ 134.253915300000017, 35.4816821 ] } },
{ "type": "Feature", "properties": { "内容": "河原あすなろ【介護老人福祉施設】鳥取県鳥取市河原町今在家842番地", "url": "https://www.kaigokensaku.mhlw.go.jp/31/index.php?action_kouhyou_detail_004_kani=true&JigyosyoCd=3171200037-00&ServiceCd=510&Type=search", "url2": "http://t-asunaro.or.jp/" }, "geometry": { "type": "Point", "coordinates": [ 134.217035099999947, 35.4009157 ] } },
{ "type": "Feature", "properties": { "内容": "いこいの杜【介護老人福祉施設】鳥取県鳥取市湖山町西3丁目113－1", "url": "https://www.kaigokensaku.mhlw.go.jp/31/index.php?action_kouhyou_detail_004_kani=true&JigyosyoCd=3170101913-00&ServiceCd=510&Type=search", "url2": "http://www.tottori-kousei.jp/gaiyou.html" }, "geometry": { "type": "Point", "coordinates": [ 134.153915218912374, 35.5246041054423 ] } },
{ "type": "Feature", "properties": { "内容": "特別養護老人ホーム　はまゆう【介護老人福祉施設】鳥取県鳥取市服部204番地1", "url": "https://www.kaigokensaku.mhlw.go.jp/31/index.php?action_kouhyou_detail_004_kani=true&JigyosyoCd=3170102416-00&ServiceCd=510&Type=search", "url2": "http://www.hamayu.or.jp/" }, "geometry": { "type": "Point", "coordinates": [ 134.205284300000017, 35.4748852 ] } },
{ "type": "Feature", "properties": { "内容": "特別養護老人ホーム　のでらはまゆう【介護老人福祉施設】鳥取県鳥取市野寺67番地", "url": "https://www.kaigokensaku.mhlw.go.jp/31/index.php?action_kouhyou_detail_004_kani=true&JigyosyoCd=3170103133-00&ServiceCd=510&Type=search", "url2": "http:/www.hamayu.or.jp/" }, "geometry": { "type": "Point", "coordinates": [ 134.204531699999961, 35.4720744 ] } },
{ "type": "Feature", "properties": { "内容": "高草あすなろ【介護老人福祉施設】鳥取県鳥取市大桷３３０番地", "url": "https://www.kaigokensaku.mhlw.go.jp/31/index.php?action_kouhyou_detail_004_kani=true&JigyosyoCd=3170100071-00&ServiceCd=510&Type=search", "url2": "http://www.t-asunaro.or.jp/" }, "geometry": { "type": "Point", "coordinates": [ 134.181483500000013, 35.4909798 ] } },
{ "type": "Feature", "properties": { "内容": "高草あすなろ【介護老人福祉施設】鳥取県鳥取市大桷３３０番地", "url": "https://www.kaigokensaku.mhlw.go.jp/31/index.php?action_kouhyou_detail_004_kani=true&JigyosyoCd=3170102903-00&ServiceCd=510&Type=search", "url2": "http://www.t-asunaro.or.jp/" }, "geometry": { "type": "Point", "coordinates": [ 134.181483500000013, 35.4909798 ] } },
{ "type": "Feature", "properties": { "内容": "特別養護老人ホームなりすな【介護老人福祉施設】青谷町善田27-1", "url": "https://www.kaigokensaku.mhlw.go.jp/31/index.php?action_kouhyou_detail_004_kani=true&JigyosyoCd=3170102937-00&ServiceCd=510&Type=search", "url2": "https://www.tottori-aofuku.jp" }, "geometry": { "type": "Point", "coordinates": [ 133.9974681, 35.5116258 ] } },
{ "type": "Feature", "properties": { "内容": "ふしの白寿苑【介護老人福祉施設】鳥取県鳥取市伏野1771-36", "url": "https://www.kaigokensaku.mhlw.go.jp/31/index.php?action_kouhyou_detail_004_kani=true&JigyosyoCd=3170101301-00&ServiceCd=510&Type=search", "url2": "http://www.tottori-kousei.jp/" }, "geometry": { "type": "Point", "coordinates": [ 134.147653207901158, 35.522985115090535 ] } },
{ "type": "Feature", "properties": { "内容": "特別養護老人ホームなりすな【介護老人福祉施設】鳥取県鳥取市青谷町善田２７－１", "url": "https://www.kaigokensaku.mhlw.go.jp/31/index.php?action_kouhyou_detail_004_kani=true&JigyosyoCd=3171300100-00&ServiceCd=510&Type=search", "url2": "https：//www.tottori-aofuku.jp" }, "geometry": { "type": "Point", "coordinates": [ 133.9974681, 35.5116258 ] } },
{ "type": "Feature", "properties": { "内容": "介護老人福祉施設　よなご幸朋苑【介護老人福祉施設】鳥取県米子市上後藤　３丁目７番１号", "url": "https://www.kaigokensaku.mhlw.go.jp/31/index.php?action_kouhyou_detail_004_kani=true&JigyosyoCd=3170200046-00&ServiceCd=510&Type=search", "url2": "http://www.kohoen.jp" }, "geometry": { "type": "Point", "coordinates": [ 133.319128099999944, 35.4475612 ] } },
{ "type": "Feature", "properties": { "内容": "介護老人福祉施設　なんぶ幸朋苑【介護老人福祉施設】鳥取県米子市石井1238番地", "url": "https://www.kaigokensaku.mhlw.go.jp/31/index.php?action_kouhyou_detail_004_kani=true&JigyosyoCd=3170200053-00&ServiceCd=510&Type=search", "url2": "http://www.kohoen.jp" }, "geometry": { "type": "Point", "coordinates": [ 133.35145250000005, 35.4022552 ] } },
{ "type": "Feature", "properties": { "内容": "介護老人福祉施設ピースポート【介護老人福祉施設】鳥取県米子市大崎1511番地1", "url": "https://www.kaigokensaku.mhlw.go.jp/31/index.php?action_kouhyou_detail_004_kani=true&JigyosyoCd=3170200301-00&ServiceCd=510&Type=search", "url2": "http://www.hospitown.or.jp/" }, "geometry": { "type": "Point", "coordinates": [ 133.2530832, 35.4736494 ] } },
{ "type": "Feature", "properties": { "内容": "皆生みどり苑【介護老人福祉施設】鳥取県米子市皆生新田2丁目3-1", "url": "https://www.kaigokensaku.mhlw.go.jp/31/index.php?action_kouhyou_detail_004_kani=true&JigyosyoCd=3170201374-00&ServiceCd=510&Type=search", "url2": "https://www.tottori-kousei.jp/k-midori.html" }, "geometry": { "type": "Point", "coordinates": [ 133.367633599999976, 35.4514591 ] } },
{ "type": "Feature", "properties": { "内容": "介護老人福祉施設　きんかい幸朋苑【介護老人福祉施設】鳥取県米子市錦海町3丁目5番15号", "url": "https://www.kaigokensaku.mhlw.go.jp/31/index.php?action_kouhyou_detail_004_kani=true&JigyosyoCd=3170201580-00&ServiceCd=510&Type=search", "url2": "http://www.kohoen.jp" }, "geometry": { "type": "Point", "coordinates": [ 133.3193933, 35.4183366 ] } },
{ "type": "Feature", "properties": { "内容": "ユニット型介護老人福祉施設なんぶ幸朋苑【介護老人福祉施設】鳥取県米子市石井1238番地", "url": "https://www.kaigokensaku.mhlw.go.jp/31/index.php?action_kouhyou_detail_004_kani=true&JigyosyoCd=3170203370-00&ServiceCd=510&Type=search", "url2": "http://www.kohoen.jp" }, "geometry": { "type": "Point", "coordinates": [ 133.3514888, 35.4022804 ] } },
{ "type": "Feature", "properties": { "内容": "介護老人福祉施設　博愛苑【介護老人福祉施設】鳥取県米子市一部555番地", "url": "https://www.kaigokensaku.mhlw.go.jp/31/index.php?action_kouhyou_detail_004_kani=true&JigyosyoCd=3170200178-00&ServiceCd=510&Type=search", "url2": "http://www.hakuaikai-smile.jp/" }, "geometry": { "type": "Point", "coordinates": [ 133.396926099999973, 35.4068362 ] } },
{ "type": "Feature", "properties": { "内容": "特別養護老人ホーム　いずみの苑【介護老人福祉施設】鳥取県米子市淀江町淀江1075番地", "url": "https://www.kaigokensaku.mhlw.go.jp/31/index.php?action_kouhyou_detail_004_kani=true&JigyosyoCd=3171500287-00&ServiceCd=510&Type=search", "url2": "https://www.izuminosono.or.jp" }, "geometry": { "type": "Point", "coordinates": [ 133.433632100000068, 35.4573423 ] } },
{ "type": "Feature", "properties": { "内容": "倉吉スターロイヤル【介護老人福祉施設】鳥取県倉吉市福守町433", "url": "https://www.kaigokensaku.mhlw.go.jp/31/index.php?action_kouhyou_detail_004_kani=true&JigyosyoCd=3170300044-00&ServiceCd=510&Type=search", "url2": "https://minorifukusikai.com/" }, "geometry": { "type": "Point", "coordinates": [ 133.8052298, 35.4358725 ] } },
{ "type": "Feature", "properties": { "内容": "ル・ソラリオン【介護老人福祉施設】鳥取県倉吉市山根５５番地３", "url": "https://www.kaigokensaku.mhlw.go.jp/31/index.php?action_kouhyou_detail_004_kani=true&JigyosyoCd=3170300036-00&ServiceCd=510&Type=search", "url2": "https://www.med-wel.jp/" }, "geometry": { "type": "Point", "coordinates": [ 133.858574500000032, 35.4525693 ] } },
{ "type": "Feature", "properties": { "内容": "ユニット型　ル・ソラリオン【介護老人福祉施設】鳥取県倉吉市山根55番地3", "url": "https://www.kaigokensaku.mhlw.go.jp/31/index.php?action_kouhyou_detail_004_kani=true&JigyosyoCd=3170300903-00&ServiceCd=510&Type=search", "url2": "https://www.med‐wel.jp" }, "geometry": { "type": "Point", "coordinates": [ 133.858574500000032, 35.4525693 ] } },
{ "type": "Feature", "properties": { "内容": "介護老人福祉施設　さかい幸朋苑【介護老人福祉施設】鳥取県境港市誠道町2083番地", "url": "https://www.kaigokensaku.mhlw.go.jp/31/index.php?action_kouhyou_detail_004_kani=true&JigyosyoCd=3170400018-00&ServiceCd=510&Type=search", "url2": "http://www.kohoen.jp" }, "geometry": { "type": "Point", "coordinates": [ 133.23531980000007, 35.5185576 ] } },
{ "type": "Feature", "properties": { "内容": "介護老人福祉施設　新さかい幸朋苑【介護老人福祉施設】鳥取県境港市上道町2053番地1", "url": "https://www.kaigokensaku.mhlw.go.jp/31/index.php?action_kouhyou_detail_004_kani=true&JigyosyoCd=3170400281-00&ServiceCd=510&Type=search", "url2": "http://www.kohoen.jp" }, "geometry": { "type": "Point", "coordinates": [ 133.239699500000029, 35.5425775 ] } },
{ "type": "Feature", "properties": { "内容": "岩井あすなろ【介護老人福祉施設】鳥取県岩美郡岩美町宇治１０３４", "url": "https://www.kaigokensaku.mhlw.go.jp/31/index.php?action_kouhyou_detail_004_kani=true&JigyosyoCd=3171100039-00&ServiceCd=510&Type=search", "url2": "http://www.t-asunaro.or.jp" }, "geometry": { "type": "Point", "coordinates": [ 134.360779500000035, 35.557615 ] } },
{ "type": "Feature", "properties": { "内容": "岩井あすなろ【介護老人福祉施設】鳥取県岩美郡岩美町宇治１０３４", "url": "https://www.kaigokensaku.mhlw.go.jp/31/index.php?action_kouhyou_detail_004_kani=true&JigyosyoCd=3171100161-00&ServiceCd=510&Type=search", "url2": "http://www.t-asunaro.or.jp" }, "geometry": { "type": "Point", "coordinates": [ 134.360779500000035, 35.557615 ] } },
{ "type": "Feature", "properties": { "内容": "わかさ・あすなろ【介護老人福祉施設】鳥取県八頭郡若桜町若桜１２３８", "url": "https://www.kaigokensaku.mhlw.go.jp/31/index.php?action_kouhyou_detail_004_kani=true&JigyosyoCd=3171200128-00&ServiceCd=510&Type=search", "url2": "http//:www.t-asunaro.or.jp" }, "geometry": { "type": "Point", "coordinates": [ 134.3933336, 35.3476801 ] } },
{ "type": "Feature", "properties": { "内容": "智頭町立智頭心和苑【介護老人福祉施設】鳥取県八頭郡智頭町大字智頭１８７５番地", "url": "https://www.kaigokensaku.mhlw.go.jp/31/index.php?action_kouhyou_detail_004_kani=true&JigyosyoCd=3171200201-00&ServiceCd=510&Type=search", "url2": null }, "geometry": { "type": "Point", "coordinates": [ 134.224106900000038, 35.2635228 ] } },
{ "type": "Feature", "properties": { "内容": "特別養護老人ホームすこやか【介護老人福祉施設】鳥取県八頭郡八頭町宮谷１７４番地１", "url": "https://www.kaigokensaku.mhlw.go.jp/31/index.php?action_kouhyou_detail_004_kani=true&JigyosyoCd=3171200284-00&ServiceCd=510&Type=search", "url2": "https://swc-yazu.studio.site/" }, "geometry": { "type": "Point", "coordinates": [ 134.256464400000027, 35.4130265 ] } },
{ "type": "Feature", "properties": { "内容": "三朝温泉三喜苑　介護老人福祉施設【介護老人福祉施設】鳥取県東伯郡三朝町横手３９６番地", "url": "https://www.kaigokensaku.mhlw.go.jp/31/index.php?action_kouhyou_detail_004_kani=true&JigyosyoCd=3171400025-00&ServiceCd=510&Type=search", "url2": "http://www.sankien.jp" }, "geometry": { "type": "Point", "coordinates": [ 133.877104799999984, 35.4105021 ] } },
{ "type": "Feature", "properties": { "内容": "湯梨浜はごろも苑【介護老人福祉施設】鳥取県東伯郡湯梨浜町上浅津４０７", "url": "https://www.kaigokensaku.mhlw.go.jp/31/index.php?action_kouhyou_detail_004_kani=true&JigyosyoCd=3171401056-00&ServiceCd=510&Type=search", "url2": "https://www.tottori-kousei.jp/hagoromo.html" }, "geometry": { "type": "Point", "coordinates": [ 133.878758586508155, 35.478782704981448 ] } },
{ "type": "Feature", "properties": { "内容": "介護老人福祉施設　みどり園【介護老人福祉施設】鳥取県東伯郡琴浦町八橋1937番地", "url": "https://www.kaigokensaku.mhlw.go.jp/31/index.php?action_kouhyou_detail_004_kani=true&JigyosyoCd=3171400033-00&ServiceCd=510&Type=search", "url2": "http://hp1.tcbnet.ne.jp/~midori/" }, "geometry": { "type": "Point", "coordinates": [ 133.664696820762657, 35.502418880968683 ] } },
{ "type": "Feature", "properties": { "内容": "介護老人福祉施設　百寿苑【介護老人福祉施設】鳥取県東伯郡琴浦町赤碕１０６１－３", "url": "https://www.kaigokensaku.mhlw.go.jp/31/index.php?action_kouhyou_detail_004_kani=true&JigyosyoCd=3171400041-00&ServiceCd=510&Type=search", "url2": "http://www.hyakujyuen.jp/" }, "geometry": { "type": "Point", "coordinates": [ 133.6320078, 35.5174898 ] } },
{ "type": "Feature", "properties": { "内容": "介護老人福祉施設ル・ソラリオン名和【介護老人福祉施設】鳥取県西伯郡大山町西坪５２０番地１", "url": "https://www.kaigokensaku.mhlw.go.jp/31/index.php?action_kouhyou_detail_004_kani=true&JigyosyoCd=3171500170-00&ServiceCd=510&Type=search", "url2": "https://www.med-wel.jp" }, "geometry": { "type": "Point", "coordinates": [ 133.501083599999987, 35.5143925 ] } },
{ "type": "Feature", "properties": { "内容": "特別養護老人ホーム　大山やすらぎの里【介護老人福祉施設】鳥取県西伯郡大山町唐王２０８", "url": "https://www.kaigokensaku.mhlw.go.jp/31/index.php?action_kouhyou_detail_004_kani=true&JigyosyoCd=3171500527-00&ServiceCd=510&Type=search", "url2": "https://keiaikai-daisen.com" }, "geometry": { "type": "Point", "coordinates": [ 133.454600593917831, 35.48074840000028 ] } },
{ "type": "Feature", "properties": { "内容": "特別養護老人ホーム　ゆうらく【介護老人福祉施設】鳥取県西伯郡南部町落合480", "url": "https://www.kaigokensaku.mhlw.go.jp/31/index.php?action_kouhyou_detail_004_kani=true&JigyosyoCd=3171500485-00&ServiceCd=510&Type=search", "url2": "yuraku-houki.net" }, "geometry": { "type": "Point", "coordinates": [ 133.332396712303193, 35.335248290529549 ] } },
{ "type": "Feature", "properties": { "内容": "特別養護老人ホーム　ことぶき【介護老人福祉施設】鳥取県西伯郡伯耆町長山１６１番地１", "url": "https://www.kaigokensaku.mhlw.go.jp/31/index.php?action_kouhyou_detail_004_kani=true&JigyosyoCd=3171600202-00&ServiceCd=510&Type=search", "url2": null }, "geometry": { "type": "Point", "coordinates": [ 133.434921300000042, 35.3509842 ] } },
{ "type": "Feature", "properties": { "内容": "特別養護老人ホーム　あかねの郷【介護老人福祉施設】鳥取県日野郡日南町下石見２３１５番地", "url": "https://www.kaigokensaku.mhlw.go.jp/31/index.php?action_kouhyou_detail_004_kani=true&JigyosyoCd=3171600277-00&ServiceCd=510&Type=search", "url2": "http://www.n-akane.jp" }, "geometry": { "type": "Point", "coordinates": [ 133.330239900000038, 35.1521569 ] } },
{ "type": "Feature", "properties": { "内容": "特別養護老人ホームあいご【介護老人福祉施設】鳥取県日野郡日野町根雨７３０番地", "url": "https://www.kaigokensaku.mhlw.go.jp/31/index.php?action_kouhyou_detail_004_kani=true&JigyosyoCd=3171600319-00&ServiceCd=510&Type=search", "url2": "http://www.nissyoukai.net/" }, "geometry": { "type": "Point", "coordinates": [ 133.440289711010308, 35.236221419821582 ] } },
{ "type": "Feature", "properties": { "内容": "特別養護老人ホーム江美の郷【介護老人福祉施設】鳥取県日野郡江府町大字久連７番地", "url": "https://www.kaigokensaku.mhlw.go.jp/31/index.php?action_kouhyou_detail_004_kani=true&JigyosyoCd=3171600046-00&ServiceCd=510&Type=search", "url2": "http://www.syoujin.or.jp" }, "geometry": { "type": "Point", "coordinates": [ 133.483059, 35.281851 ] } }
]
}
