{
"type": "FeatureCollection",
"name": "geo_31_専修学校",
"crs": { "type": "name", "properties": { "name": "urn:ogc:def:crs:EPSG::6668" } },
"features": [
{ "type": "Feature", "properties": { "P29_001": "31201", "P29_002": "H131210000019", "P29_003": "16016", "P29_004": "鳥取県立鳥取看護専門学校", "P29_005": "鳥取県鳥取市江津260", "P29_006": "2", "P29_007": "0", "P29_008": "00", "P29_009": null }, "geometry": { "type": "Point", "coordinates": [ 134.211086275816541, 35.522544447533988 ] } },
{ "type": "Feature", "properties": { "P29_001": "31203", "P29_002": "H131210000028", "P29_003": "16016", "P29_004": "鳥取県立倉吉総合看護専門学校", "P29_005": "鳥取県倉吉市南昭和町15", "P29_006": "2", "P29_007": "0", "P29_008": "00", "P29_009": null }, "geometry": { "type": "Point", "coordinates": [ 133.842104472677676, 35.434492567887098 ] } },
{ "type": "Feature", "properties": { "P29_001": "31201", "P29_002": "H131210000037", "P29_003": "16016", "P29_004": "鳥取県立歯科衛生専門学校", "P29_005": "鳥取県鳥取市吉方温泉3-751-5", "P29_006": "2", "P29_007": "0", "P29_008": "00", "P29_009": null }, "geometry": { "type": "Point", "coordinates": [ 134.233666469082124, 35.491620856833116 ] } },
{ "type": "Feature", "properties": { "P29_001": "31203", "P29_002": "H131210000046", "P29_003": "16016", "P29_004": "鳥取県立農業大学校", "P29_005": "鳥取県倉吉市関金町大鳥居1238", "P29_006": "2", "P29_007": "0", "P29_008": "00", "P29_009": null }, "geometry": { "type": "Point", "coordinates": [ 133.756996774467495, 35.380278049464245 ] } },
{ "type": "Feature", "properties": { "P29_001": "31201", "P29_002": "H131310000017", "P29_003": "16016", "P29_004": "鳥取県理容美容専門学校", "P29_005": "鳥取県鳥取市南吉方1-71-3", "P29_006": "4", "P29_007": "0", "P29_008": "00", "P29_009": null }, "geometry": { "type": "Point", "coordinates": [ 134.232190640672115, 35.490304058200785 ] } },
{ "type": "Feature", "properties": { "P29_001": "31201", "P29_002": "H131310000026", "P29_003": "16016", "P29_004": "鳥取県東部医師会附属鳥取看護高等専修学校", "P29_005": "鳥取県鳥取市富安1-27", "P29_006": "4", "P29_007": "0", "P29_008": "00", "P29_009": null }, "geometry": { "type": "Point", "coordinates": [ 134.227846849800699, 35.48749830869221 ] } },
{ "type": "Feature", "properties": { "P29_001": "31202", "P29_002": "H131310000035", "P29_003": "16016", "P29_004": "若葉学習会専修学校", "P29_005": "鳥取県米子市錦町2-261", "P29_006": "4", "P29_007": "0", "P29_008": "00", "P29_009": null }, "geometry": { "type": "Point", "coordinates": [ 133.329613258178767, 35.436861890167471 ] } },
{ "type": "Feature", "properties": { "P29_001": "31203", "P29_002": "H131310000044", "P29_003": "16016", "P29_004": "倉吉女子洋裁専修学校", "P29_005": "鳥取県倉吉市西町2705", "P29_006": "4", "P29_007": "0", "P29_008": "00", "P29_009": null }, "geometry": { "type": "Point", "coordinates": [ 133.82024360527376, 35.431986431710079 ] } },
{ "type": "Feature", "properties": { "P29_001": "31202", "P29_002": "H131310000053", "P29_003": "16016", "P29_004": "米子ファッションビジネス学園", "P29_005": "鳥取県米子市久米町239", "P29_006": "4", "P29_007": "0", "P29_008": "00", "P29_009": null }, "geometry": { "type": "Point", "coordinates": [ 133.325808542689714, 35.423108468758933 ] } },
{ "type": "Feature", "properties": { "P29_001": "31201", "P29_002": "H131310000062", "P29_003": "16016", "P29_004": "鳥取歯科技工専門学校", "P29_005": "鳥取県鳥取市富安2-84", "P29_006": "4", "P29_007": "0", "P29_008": "00", "P29_009": null }, "geometry": { "type": "Point", "coordinates": [ 134.229135217122604, 35.490060266056425 ] } },
{ "type": "Feature", "properties": { "P29_001": "31202", "P29_002": "H131310000071", "P29_003": "16016", "P29_004": "米子文化服装専門学校", "P29_005": "鳥取県米子市錦町1-156", "P29_006": "4", "P29_007": "0", "P29_008": "00", "P29_009": null }, "geometry": { "type": "Point", "coordinates": [ 133.332933474835215, 35.434749040023704 ] } },
{ "type": "Feature", "properties": { "P29_001": "31202", "P29_002": "H131310000099", "P29_003": "16016", "P29_004": "日本海情報ビジネス専門学校", "P29_005": "鳥取県米子市道笑町2-227", "P29_006": "4", "P29_007": "0", "P29_008": "00", "P29_009": null }, "geometry": { "type": "Point", "coordinates": [ 133.336958455427407, 35.425811209663877 ] } },
{ "type": "Feature", "properties": { "P29_001": "31202", "P29_002": "H131310000106", "P29_003": "16016", "P29_004": "ＹＭＣＡ米子医療福祉専門学校", "P29_005": "鳥取県米子市錦海町3-3-2", "P29_006": "4", "P29_007": "0", "P29_008": "00", "P29_009": null }, "geometry": { "type": "Point", "coordinates": [ 133.32037027293822, 35.418975999335714 ] } },
{ "type": "Feature", "properties": { "P29_001": "31201", "P29_002": "H131310000115", "P29_003": "16016", "P29_004": "鳥取社会福祉専門学校", "P29_005": "鳥取県鳥取市気高町日光969-1", "P29_006": "4", "P29_007": "0", "P29_008": "00", "P29_009": null }, "geometry": { "type": "Point", "coordinates": [ 134.063038616609646, 35.518016016892638 ] } },
{ "type": "Feature", "properties": { "P29_001": "31201", "P29_002": "H131310000124", "P29_003": "16016", "P29_004": "あすなろ予備校", "P29_005": "鳥取県鳥取市永楽温泉町385", "P29_006": "4", "P29_007": "0", "P29_008": "00", "P29_009": null }, "geometry": { "type": "Point", "coordinates": [ 134.229210568149739, 35.493661973228321 ] } },
{ "type": "Feature", "properties": { "P29_001": "31202", "P29_002": "H131310000142", "P29_003": "16016", "P29_004": "独立行政法人国立病院機構米子医療センター附属看護学校", "P29_005": "鳥取県米子市車尾4-17-2", "P29_006": "0", "P29_007": "0", "P29_008": "00", "P29_009": null }, "geometry": { "type": "Point", "coordinates": [ 133.359788168793216, 35.435136730069893 ] } },
{ "type": "Feature", "properties": { "P29_001": "31372", "P29_002": "H131310000151", "P29_003": "16016", "P29_004": "中央高等学園専修学校", "P29_005": "鳥取県東伯郡北栄町由良宿818-8", "P29_006": "4", "P29_007": "0", "P29_008": "00", "P29_009": null }, "geometry": { "type": "Point", "coordinates": [ 133.753215317484546, 35.491196077787656 ] } },
{ "type": "Feature", "properties": { "P29_001": "31201", "P29_002": "H131310000160", "P29_003": "16016", "P29_004": "あすなろ高等専修学校", "P29_005": "鳥取県鳥取市湖山町西2-228-1", "P29_006": "4", "P29_007": "0", "P29_008": "00", "P29_009": null }, "geometry": { "type": "Point", "coordinates": [ 134.158092927151813, 35.52199843890709 ] } },
{ "type": "Feature", "properties": { "P29_001": "31201", "P29_002": "H131310000179", "P29_003": "16016", "P29_004": "鳥取市医療看護専門学校", "P29_005": "鳥取県鳥取市東品治町103-2", "P29_006": "4", "P29_007": "0", "P29_008": "00", "P29_009": null }, "geometry": { "type": "Point", "coordinates": [ 134.227681600124441, 35.493723361328513 ] } },
{ "type": "Feature", "properties": { "P29_001": "31201", "P29_002": "H131310000188", "P29_003": "16016", "P29_004": "専修学校鳥取予備校", "P29_005": "鳥取県鳥取市幸町26-9", "P29_006": "4", "P29_007": "0", "P29_008": "00", "P29_009": null }, "geometry": { "type": "Point", "coordinates": [ 134.221364045479334, 35.494863252158297 ] } }
]
}
