{
"type": "FeatureCollection",
"name": "geo_31_居宅介護支援",
"crs": { "type": "name", "properties": { "name": "urn:ogc:def:crs:OGC:1.3:CRS84" } },
"features": [
{ "type": "Feature", "properties": { "内容": "医療法人　橋本外科医院【居宅介護支援】鳥取県鳥取市大杙２０４－３", "url": "https://www.kaigokensaku.mhlw.go.jp/31/index.php?action_kouhyou_detail_004_kani=true&JigyosyoCd=3170100568-00&ServiceCd=430&Type=search", "url2": "kyotaku@hashimotogeka.link" }, "geometry": { "type": "Point", "coordinates": [ 134.24781859999996, 35.484579 ] } },
{ "type": "Feature", "properties": { "内容": "株式会社メディコープとっとり鹿野居宅介護支援事業所【居宅介護支援】鳥取市鹿野町今市242鹿野温泉病院内", "url": "https://www.kaigokensaku.mhlw.go.jp/31/index.php?action_kouhyou_detail_004_kani=true&JigyosyoCd=3170103521-00&ServiceCd=430&Type=search", "url2": "http://mcp.mcoop-tottori.jp/" }, "geometry": { "type": "Point", "coordinates": [ 134.050384200000053, 35.4620942 ] } },
{ "type": "Feature", "properties": { "内容": "株式会社メディコープとっとり居宅介護支援事業所【居宅介護支援】鳥取県鳥取市末広温泉町203番地レインボーセンター4Ｆ", "url": "https://www.kaigokensaku.mhlw.go.jp/31/index.php?action_kouhyou_detail_004_kani=true&JigyosyoCd=3170101996-00&ServiceCd=430&Type=search", "url2": "http://mcp.mcoop-tottori.jp/services/kyotaku-mcp.html" }, "geometry": { "type": "Point", "coordinates": [ 134.230297599999972, 35.496011 ] } },
{ "type": "Feature", "properties": { "内容": "居宅介護支援事業所　まさたみの郷【居宅介護支援】鳥取県鳥取市杉崎596番地", "url": "https://www.kaigokensaku.mhlw.go.jp/31/index.php?action_kouhyou_detail_004_kani=true&JigyosyoCd=3170100741-00&ServiceCd=430&Type=search", "url2": null }, "geometry": { "type": "Point", "coordinates": [ 134.2481636, 35.4644758 ] } },
{ "type": "Feature", "properties": { "内容": "ケアプランセンターもみじ庵【居宅介護支援】鳥取県鳥取市美萩野一丁目70番地", "url": "https://www.kaigokensaku.mhlw.go.jp/31/index.php?action_kouhyou_detail_004_kani=true&JigyosyoCd=3170101475-00&ServiceCd=430&Type=search", "url2": "https://momijian.wixsite.com/momijian" }, "geometry": { "type": "Point", "coordinates": [ 134.142166362944067, 35.523765525606997 ] } },
{ "type": "Feature", "properties": { "内容": "居宅介護支援事業所ふたば【居宅介護支援】鳥取県鳥取市国府町稲葉丘３丁目３０３", "url": "https://www.kaigokensaku.mhlw.go.jp/31/index.php?action_kouhyou_detail_004_kani=true&JigyosyoCd=3151180209-00&ServiceCd=430&Type=search", "url2": null }, "geometry": { "type": "Point", "coordinates": [ 134.262137, 35.4839403 ] } },
{ "type": "Feature", "properties": { "内容": "居宅介護支援事業所かけはし【居宅介護支援】鳥取県鳥取市大杙208-1", "url": "https://www.kaigokensaku.mhlw.go.jp/31/index.php?action_kouhyou_detail_004_kani=true&JigyosyoCd=3170104289-00&ServiceCd=430&Type=search", "url2": "https://you-plus.jp/" }, "geometry": { "type": "Point", "coordinates": [ 134.2476687, 35.4835597 ] } },
{ "type": "Feature", "properties": { "内容": "静和会居宅介護支援事業所【居宅介護支援】鳥取県鳥取市千代水4丁目43番地", "url": "https://www.kaigokensaku.mhlw.go.jp/31/index.php?action_kouhyou_detail_004_kani=true&JigyosyoCd=3170104321-00&ServiceCd=430&Type=search", "url2": null }, "geometry": { "type": "Point", "coordinates": [ 134.1951019, 35.515851 ] } },
{ "type": "Feature", "properties": { "内容": "居宅介護支援事業所　ナースくる【居宅介護支援】鳥取県鳥取市大覚寺150-87", "url": "https://www.kaigokensaku.mhlw.go.jp/31/index.php?action_kouhyou_detail_004_kani=true&JigyosyoCd=3160190124-00&ServiceCd=430&Type=search", "url2": "https://t-bang.jp/" }, "geometry": { "type": "Point", "coordinates": [ 134.232321812268424, 35.481119370052646 ] } },
{ "type": "Feature", "properties": { "内容": "ニチイケアセンター鳥取駅南【居宅介護支援】鳥取県鳥取市的場2丁目86-1タウンアローズ86　102号室", "url": "https://www.kaigokensaku.mhlw.go.jp/31/index.php?action_kouhyou_detail_004_kani=true&JigyosyoCd=3170100121-00&ServiceCd=430&Type=search", "url2": "http://www.nichiigakkan.co.jp" }, "geometry": { "type": "Point", "coordinates": [ 134.230910940987741, 35.473259834262414 ] } },
{ "type": "Feature", "properties": { "内容": "ハピネ居宅介護支援センター雲山【居宅介護支援】鳥取県鳥取市興南町１２４", "url": "https://www.kaigokensaku.mhlw.go.jp/31/index.php?action_kouhyou_detail_004_kani=true&JigyosyoCd=3170101848-00&ServiceCd=430&Type=search", "url2": null }, "geometry": { "type": "Point", "coordinates": [ 134.231839400000013, 35.4864454 ] } },
{ "type": "Feature", "properties": { "内容": "ライフプランきずな【居宅介護支援】鳥取県鳥取市興南町１１３番地２自然堂第一ビル（２階）", "url": "https://www.kaigokensaku.mhlw.go.jp/31/index.php?action_kouhyou_detail_004_kani=true&JigyosyoCd=3170104370-00&ServiceCd=430&Type=search", "url2": "https://kizuna123.co.jp/" }, "geometry": { "type": "Point", "coordinates": [ 134.2321863, 35.4857867 ] } },
{ "type": "Feature", "properties": { "内容": "居宅介護支援センター　ル・サンテリオン鹿野【居宅介護支援】鳥取県鳥取市鹿野町今市８０番地", "url": "https://www.kaigokensaku.mhlw.go.jp/31/index.php?action_kouhyou_detail_004_kani=true&JigyosyoCd=3151380205-00&ServiceCd=430&Type=search", "url2": "https://www.med-wel.jp/shikano" }, "geometry": { "type": "Point", "coordinates": [ 134.050270400000045, 35.4607305 ] } },
{ "type": "Feature", "properties": { "内容": "あすなろ西ケアプランセンター【居宅介護支援】鳥取県鳥取市松原２５３番地１", "url": "https://www.kaigokensaku.mhlw.go.jp/31/index.php?action_kouhyou_detail_004_kani=true&JigyosyoCd=3170100022-00&ServiceCd=430&Type=search", "url2": "http://www.t-asunaro.or.jp/" }, "geometry": { "type": "Point", "coordinates": [ 134.13380126181201, 35.492533155149339 ] } },
{ "type": "Feature", "properties": { "内容": "居宅介護支援事業所みやこ苑【居宅介護支援】鳥取県鳥取市三津1072番地307", "url": "https://www.kaigokensaku.mhlw.go.jp/31/index.php?action_kouhyou_detail_004_kani=true&JigyosyoCd=3170100212-00&ServiceCd=430&Type=search", "url2": "http://www.miyakoen.jp/" }, "geometry": { "type": "Point", "coordinates": [ 134.154028700000026, 35.521642 ] } },
{ "type": "Feature", "properties": { "内容": "ケアプランセンターいなば幸朋苑【居宅介護支援】鳥取県鳥取市浜坂228-1", "url": "https://www.kaigokensaku.mhlw.go.jp/31/index.php?action_kouhyou_detail_004_kani=true&JigyosyoCd=3170100576-00&ServiceCd=430&Type=search", "url2": "http://www.kohoen.jp" }, "geometry": { "type": "Point", "coordinates": [ 134.214120699999967, 35.5189441 ] } },
{ "type": "Feature", "properties": { "内容": "鳥取市社協東部ケアマネセンター【居宅介護支援】鳥取県鳥取市国府町糸谷15-1", "url": "https://www.kaigokensaku.mhlw.go.jp/31/index.php?action_kouhyou_detail_004_kani=true&JigyosyoCd=3170101038-00&ServiceCd=430&Type=search", "url2": "https://www.tottoricity-syakyo.or.jp" }, "geometry": { "type": "Point", "coordinates": [ 134.295990500000016, 35.4644566 ] } },
{ "type": "Feature", "properties": { "内容": "鳥取市社協南部ケアマネセンター【居宅介護支援】鳥取県鳥取市用瀬町別府96番地2", "url": "https://www.kaigokensaku.mhlw.go.jp/31/index.php?action_kouhyou_detail_004_kani=true&JigyosyoCd=3170101111-00&ServiceCd=430&Type=search", "url2": "https://www.tottoricity-syakyo.or.jp" }, "geometry": { "type": "Point", "coordinates": [ 134.1986056, 35.341349600000015 ] } },
{ "type": "Feature", "properties": { "内容": "鳥取市社協西部ケアマネセンター【居宅介護支援】鳥取県鳥取市青谷町露谷53-5青谷町老人福祉センター", "url": "https://www.kaigokensaku.mhlw.go.jp/31/index.php?action_kouhyou_detail_004_kani=true&JigyosyoCd=3170101178-00&ServiceCd=430&Type=search", "url2": "http://www.tottoricity-syakyo.or.jp" }, "geometry": { "type": "Point", "coordinates": [ 133.996685, 35.511097399999983 ] } },
{ "type": "Feature", "properties": { "内容": "居宅介護支援事業所　風紋館【居宅介護支援】鳥取県鳥取市立川町5丁目312番地1", "url": "https://www.kaigokensaku.mhlw.go.jp/31/index.php?action_kouhyou_detail_004_kani=true&JigyosyoCd=3170101277-00&ServiceCd=430&Type=search", "url2": "http://huumonkan.jp/" }, "geometry": { "type": "Point", "coordinates": [ 134.2416273, 35.4902505 ] } },
{ "type": "Feature", "properties": { "内容": "あすなろ東ケアプランセンター【居宅介護支援】鳥取県鳥取市的場１丁目１１鳥取市介護老人保健施設やすらぎ", "url": "https://www.kaigokensaku.mhlw.go.jp/31/index.php?action_kouhyou_detail_004_kani=true&JigyosyoCd=3170101525-00&ServiceCd=430&Type=search", "url2": "https://t-asunaro.jp/" }, "geometry": { "type": "Point", "coordinates": [ 134.23458119999998, 35.4737636 ] } },
{ "type": "Feature", "properties": { "内容": "居宅介護支援事業所　きゅうだい【居宅介護支援】鳥取県鳥取市古海６９３番地１", "url": "https://www.kaigokensaku.mhlw.go.jp/31/index.php?action_kouhyou_detail_004_kani=true&JigyosyoCd=3170101723-00&ServiceCd=430&Type=search", "url2": "http://www.kyudai.co.jp" }, "geometry": { "type": "Point", "coordinates": [ 134.207669399999986, 35.5001628 ] } },
{ "type": "Feature", "properties": { "内容": "なないろ居宅介護支援センター【居宅介護支援】鳥取県鳥取市二階町二丁目219", "url": "https://www.kaigokensaku.mhlw.go.jp/31/index.php?action_kouhyou_detail_004_kani=true&JigyosyoCd=3170102408-00&ServiceCd=430&Type=search", "url2": null }, "geometry": { "type": "Point", "coordinates": [ 134.231477125794981, 35.500754113228474 ] } },
{ "type": "Feature", "properties": { "内容": "居宅介護支援事業所あらいぶ【居宅介護支援】鳥取県鳥取市若葉台北６丁目１番９号", "url": "https://www.kaigokensaku.mhlw.go.jp/31/index.php?action_kouhyou_detail_004_kani=true&JigyosyoCd=3170102465-00&ServiceCd=430&Type=search", "url2": "https://advan-wakaba.com/" }, "geometry": { "type": "Point", "coordinates": [ 134.256026768174166, 35.447755578995974 ] } },
{ "type": "Feature", "properties": { "内容": "居宅介護支援事業所つむぎ【居宅介護支援】鳥取県鳥取市川端3丁目117", "url": "https://www.kaigokensaku.mhlw.go.jp/31/index.php?action_kouhyou_detail_004_kani=true&JigyosyoCd=3170102739-00&ServiceCd=430&Type=search", "url2": "http://www.o-tsumugi.com" }, "geometry": { "type": "Point", "coordinates": [ 134.228809699999971, 35.5013685 ] } },
{ "type": "Feature", "properties": { "内容": "さとに居宅介護支援事業所【居宅介護支援】鳥取県鳥取市里仁54番地2", "url": "https://www.kaigokensaku.mhlw.go.jp/31/index.php?action_kouhyou_detail_004_kani=true&JigyosyoCd=3170102895-00&ServiceCd=430&Type=search", "url2": "http://www.satoni-denen-clinic.jp/" }, "geometry": { "type": "Point", "coordinates": [ 134.193846, 35.5027621 ] } },
{ "type": "Feature", "properties": { "内容": "居宅介護支援事業所なりすな【居宅介護支援】鳥取県鳥取市青谷町青谷善田27番地１", "url": "https://www.kaigokensaku.mhlw.go.jp/31/index.php?action_kouhyou_detail_004_kani=true&JigyosyoCd=3170103158-00&ServiceCd=430&Type=search", "url2": "https://www.tottori-aofuku.jp/" }, "geometry": { "type": "Point", "coordinates": [ 133.997482815660874, 35.511405342995509 ] } },
{ "type": "Feature", "properties": { "内容": "居宅介護支援事業所「まめ助」【居宅介護支援】鳥取県鳥取市扇町176番地", "url": "https://www.kaigokensaku.mhlw.go.jp/31/index.php?action_kouhyou_detail_004_kani=true&JigyosyoCd=3170103679-00&ServiceCd=430&Type=search", "url2": "http://stationclinic.com" }, "geometry": { "type": "Point", "coordinates": [ 134.223695499999963, 35.4930752 ] } },
{ "type": "Feature", "properties": { "内容": "鳥取県看護協会居宅介護支援事業所【居宅介護支援】鳥取県鳥取市江津318番地1", "url": "https://www.kaigokensaku.mhlw.go.jp/31/index.php?action_kouhyou_detail_004_kani=true&JigyosyoCd=3170104057-00&ServiceCd=430&Type=search", "url2": "https://www.tottori-kangokyokai.or.jp" }, "geometry": { "type": "Point", "coordinates": [ 134.21393470000001, 35.5231248 ] } },
{ "type": "Feature", "properties": { "内容": "居宅介護支援センターくろーばー【居宅介護支援】鳥取県鳥取市賀露町北2丁目10-23", "url": "https://www.kaigokensaku.mhlw.go.jp/31/index.php?action_kouhyou_detail_004_kani=true&JigyosyoCd=3170104271-00&ServiceCd=430&Type=search", "url2": null }, "geometry": { "type": "Point", "coordinates": [ 134.1890057, 35.533958900000016 ] } },
{ "type": "Feature", "properties": { "内容": "鳥取高齢者介護支援センター　はまゆう【居宅介護支援】鳥取県鳥取市服部204-1", "url": "https://www.kaigokensaku.mhlw.go.jp/31/index.php?action_kouhyou_detail_004_kani=true&JigyosyoCd=3170100139-00&ServiceCd=430&Type=search", "url2": "http://www.hamayu.or.jp/" }, "geometry": { "type": "Point", "coordinates": [ 134.205284300000017, 35.4748852 ] } },
{ "type": "Feature", "properties": { "内容": "鳥取福祉会居宅介護支援センター【居宅介護支援】鳥取県鳥取市的場２丁目１番地", "url": "https://www.kaigokensaku.mhlw.go.jp/31/index.php?action_kouhyou_detail_004_kani=true&JigyosyoCd=3170100352-00&ServiceCd=430&Type=search", "url2": "http://www.tottorifukushikai.jp" }, "geometry": { "type": "Point", "coordinates": [ 134.232092162565579, 35.475504203203194 ] } },
{ "type": "Feature", "properties": { "内容": "居宅介護支援事業所ひまわり鳥取【居宅介護支援】鳥取県鳥取市桂木784番地", "url": "https://www.kaigokensaku.mhlw.go.jp/31/index.php?action_kouhyou_detail_004_kani=true&JigyosyoCd=3170101202-00&ServiceCd=430&Type=search", "url2": "http://www.siseikai.com/" }, "geometry": { "type": "Point", "coordinates": [ 134.252588400000036, 35.458046 ] } },
{ "type": "Feature", "properties": { "内容": "ふしの白寿苑居宅介護支援事業所【居宅介護支援】鳥取県鳥取市伏野1771-36", "url": "https://www.kaigokensaku.mhlw.go.jp/31/index.php?action_kouhyou_detail_004_kani=true&JigyosyoCd=3170102002-00&ServiceCd=430&Type=search", "url2": "http://www.tottori-kousei.jp/" }, "geometry": { "type": "Point", "coordinates": [ 134.14773912090152, 35.523007213085776 ] } },
{ "type": "Feature", "properties": { "内容": "居宅介護支援事業所　さくら【居宅介護支援】鳥取県鳥取市西品治635-1", "url": "https://www.kaigokensaku.mhlw.go.jp/31/index.php?action_kouhyou_detail_004_kani=true&JigyosyoCd=3170103539-00&ServiceCd=430&Type=search", "url2": null }, "geometry": { "type": "Point", "coordinates": [ 134.220986900000071, 35.5096093 ] } },
{ "type": "Feature", "properties": { "内容": "ケアプランセンター寄り添い【居宅介護支援】鳥取市大杙229-16", "url": "https://www.kaigokensaku.mhlw.go.jp/31/index.php?action_kouhyou_detail_004_kani=true&JigyosyoCd=3170104396-00&ServiceCd=430&Type=search", "url2": "tomonowaーtottri.com" }, "geometry": { "type": "Point", "coordinates": [ 134.2496228, 35.4829593 ] } },
{ "type": "Feature", "properties": { "内容": "居宅介護支援センター暖の里【居宅介護支援】鳥取県鳥取市吉岡温泉町５２番地１", "url": "https://www.kaigokensaku.mhlw.go.jp/31/index.php?action_kouhyou_detail_004_kani=true&JigyosyoCd=3170100733-00&ServiceCd=430&Type=search", "url2": "http://www.dannosato.jp/" }, "geometry": { "type": "Point", "coordinates": [ 134.134051, 35.4846933 ] } },
{ "type": "Feature", "properties": { "内容": "ケアプランセンターすみれ【居宅介護支援】鳥取県米子市錦町２丁目235番地", "url": "https://www.kaigokensaku.mhlw.go.jp/31/index.php?action_kouhyou_detail_004_kani=true&JigyosyoCd=3170201655-00&ServiceCd=430&Type=search", "url2": null }, "geometry": { "type": "Point", "coordinates": [ 133.330910899999907, 35.4379679 ] } },
{ "type": "Feature", "properties": { "内容": "ケアプランセンター　健康塾【居宅介護支援】鳥取県米子市上福原3丁目13-24", "url": "https://www.kaigokensaku.mhlw.go.jp/31/index.php?action_kouhyou_detail_004_kani=true&JigyosyoCd=3170202380-00&ServiceCd=430&Type=search", "url2": null }, "geometry": { "type": "Point", "coordinates": [ 133.355103630688518, 35.445680587325377 ] } },
{ "type": "Feature", "properties": { "内容": "ケアプランきんたか【居宅介護支援】鳥取県米子市淀江町西原1188-5", "url": "https://www.kaigokensaku.mhlw.go.jp/31/index.php?action_kouhyou_detail_004_kani=true&JigyosyoCd=3170202679-00&ServiceCd=430&Type=search", "url2": null }, "geometry": { "type": "Point", "coordinates": [ 133.4250247, 35.4572534 ] } },
{ "type": "Feature", "properties": { "内容": "ニチイケアセンター米子【居宅介護支援】鳥取県米子市加茂町2-113　加茂町ビル２Ｆ", "url": "https://www.kaigokensaku.mhlw.go.jp/31/index.php?action_kouhyou_detail_004_kani=true&JigyosyoCd=3170200269-00&ServiceCd=430&Type=search", "url2": "www.nichiigakkan.co.jp" }, "geometry": { "type": "Point", "coordinates": [ 133.330937100000028, 35.4272063 ] } },
{ "type": "Feature", "properties": { "内容": "いきいき居宅介護支援事業所上後藤【居宅介護支援】鳥取県米子市上後藤４丁目１６番１号", "url": "https://www.kaigokensaku.mhlw.go.jp/31/index.php?action_kouhyou_detail_004_kani=true&JigyosyoCd=3170202430-00&ServiceCd=430&Type=search", "url2": "http://www.medicalcare.jp" }, "geometry": { "type": "Point", "coordinates": [ 133.317872699999953, 35.445167 ] } },
{ "type": "Feature", "properties": { "内容": "いきいき居宅介護支援事業所【居宅介護支援】鳥取県米子市灘町３丁目６５", "url": "https://www.kaigokensaku.mhlw.go.jp/31/index.php?action_kouhyou_detail_004_kani=true&JigyosyoCd=3170202745-00&ServiceCd=430&Type=search", "url2": "http//www.medicalcare.jp" }, "geometry": { "type": "Point", "coordinates": [ 133.324397399999953, 35.4360207 ] } },
{ "type": "Feature", "properties": { "内容": "ケアプランセンターつつじ【居宅介護支援】鳥取県米子市米原６丁目９番２３号", "url": "https://www.kaigokensaku.mhlw.go.jp/31/index.php?action_kouhyou_detail_004_kani=true&JigyosyoCd=3170201838-00&ServiceCd=430&Type=search", "url2": "http://www.nissyoukai.com/" }, "geometry": { "type": "Point", "coordinates": [ 133.334710500000028, 35.4446396 ] } },
{ "type": "Feature", "properties": { "内容": "ＣＯＯＰ医療生協居宅介護支援センター【居宅介護支援】鳥取県米子市博労町3丁目80ー１", "url": "https://www.kaigokensaku.mhlw.go.jp/31/index.php?action_kouhyou_detail_004_kani=true&JigyosyoCd=3110210980-00&ServiceCd=430&Type=search", "url2": null }, "geometry": { "type": "Point", "coordinates": [ 133.338932800000066, 35.4341574 ] } },
{ "type": "Feature", "properties": { "内容": "有限会社新生ケア・サービス居宅介護支援事業所【居宅介護支援】鳥取県米子市熊党200-1", "url": "https://www.kaigokensaku.mhlw.go.jp/31/index.php?action_kouhyou_detail_004_kani=true&JigyosyoCd=3170200087-00&ServiceCd=430&Type=search", "url2": "https://www.shinsei-care-service.com/" }, "geometry": { "type": "Point", "coordinates": [ 133.3758, 35.4291973 ] } },
{ "type": "Feature", "properties": { "内容": "居宅介護支援事業所　博愛苑【居宅介護支援】鳥取県米子市一部555番地", "url": "https://www.kaigokensaku.mhlw.go.jp/31/index.php?action_kouhyou_detail_004_kani=true&JigyosyoCd=3170200160-00&ServiceCd=430&Type=search", "url2": "http://www.kyotaku＠hakuaien.net" }, "geometry": { "type": "Point", "coordinates": [ 133.396926099999973, 35.4068362 ] } },
{ "type": "Feature", "properties": { "内容": "白鳥ケアサービス居宅介護支援事業所【居宅介護支援】鳥取県米子市二本木538-1", "url": "https://www.kaigokensaku.mhlw.go.jp/31/index.php?action_kouhyou_detail_004_kani=true&JigyosyoCd=3170200244-00&ServiceCd=430&Type=search", "url2": "http://www.hakuchou-care.jp" }, "geometry": { "type": "Point", "coordinates": [ 133.386093861434915, 35.433588315341638 ] } },
{ "type": "Feature", "properties": { "内容": "ハピネ在宅介護支援センター【居宅介護支援】鳥取県米子市米原7丁目2-18", "url": "https://www.kaigokensaku.mhlw.go.jp/31/index.php?action_kouhyou_detail_004_kani=true&JigyosyoCd=3170200251-00&ServiceCd=430&Type=search", "url2": "http://www.hapine.com/" }, "geometry": { "type": "Point", "coordinates": [ 133.329857568231233, 35.44576712431904 ] } },
{ "type": "Feature", "properties": { "内容": "指定居宅介護支援事業所　サービスプラン博愛【居宅介護支援】鳥取県米子市両三柳1880番地博愛病院", "url": "https://www.kaigokensaku.mhlw.go.jp/31/index.php?action_kouhyou_detail_004_kani=true&JigyosyoCd=3170200285-00&ServiceCd=430&Type=search", "url2": "https://hakuai.doaikai.jp/" }, "geometry": { "type": "Point", "coordinates": [ 133.318605599999955, 35.4557438 ] } },
{ "type": "Feature", "properties": { "内容": "ケアプランセンターまちくら【居宅介護支援】鳥取県米子市西倉吉町83番地3", "url": "https://www.kaigokensaku.mhlw.go.jp/31/index.php?action_kouhyou_detail_004_kani=true&JigyosyoCd=3170200574-00&ServiceCd=430&Type=search", "url2": "http://www.machikura.com" }, "geometry": { "type": "Point", "coordinates": [ 133.329747399999974, 35.4305409 ] } },
{ "type": "Feature", "properties": { "内容": "居宅介護支援事業所　真誠会【居宅介護支援】鳥取県米子市河崎580", "url": "https://www.kaigokensaku.mhlw.go.jp/31/index.php?action_kouhyou_detail_004_kani=true&JigyosyoCd=3170200582-00&ServiceCd=430&Type=search", "url2": "kyotaku.＠hospitown.or.jp" }, "geometry": { "type": "Point", "coordinates": [ 133.3110285, 35.457018700000035 ] } },
{ "type": "Feature", "properties": { "内容": "ケアプランなかうみ【居宅介護支援】鳥取県米子市末広町311番地米子駅前ショッピングセンター4階", "url": "https://www.kaigokensaku.mhlw.go.jp/31/index.php?action_kouhyou_detail_004_kani=true&JigyosyoCd=3170200608-00&ServiceCd=430&Type=search", "url2": "http://www.chukai.or.jp" }, "geometry": { "type": "Point", "coordinates": [ 133.332910537719727, 35.422743421463615 ] } },
{ "type": "Feature", "properties": { "内容": "ケアプランセンターなんぶ幸朋苑【居宅介護支援】鳥取県米子市石井1238番地", "url": "https://www.kaigokensaku.mhlw.go.jp/31/index.php?action_kouhyou_detail_004_kani=true&JigyosyoCd=3170200624-00&ServiceCd=430&Type=search", "url2": "http://www.kohoen.jp" }, "geometry": { "type": "Point", "coordinates": [ 133.35145250000005, 35.4022552 ] } },
{ "type": "Feature", "properties": { "内容": "ケアプランセンター　かわさき【居宅介護支援】鳥取県米子市上後藤3-3-3", "url": "https://www.kaigokensaku.mhlw.go.jp/31/index.php?action_kouhyou_detail_004_kani=true&JigyosyoCd=3170200632-00&ServiceCd=430&Type=search", "url2": "http://www.kohoen.jp" }, "geometry": { "type": "Point", "coordinates": [ 133.318210299999976, 35.4470011 ] } },
{ "type": "Feature", "properties": { "内容": "居宅介護支援センター仁風荘【居宅介護支援】鳥取県米子市上後藤３－５－１", "url": "https://www.kaigokensaku.mhlw.go.jp/31/index.php?action_kouhyou_detail_004_kani=true&JigyosyoCd=3170200657-00&ServiceCd=430&Type=search", "url2": "http://www.yowakai.com" }, "geometry": { "type": "Point", "coordinates": [ 133.317419800000039, 35.4486694 ] } },
{ "type": "Feature", "properties": { "内容": "ケアプランセンターおおしのづ【居宅介護支援】鳥取県米子市大篠津町506番地1", "url": "https://www.kaigokensaku.mhlw.go.jp/31/index.php?action_kouhyou_detail_004_kani=true&JigyosyoCd=3170201424-00&ServiceCd=430&Type=search", "url2": "http://carehome-tottori.com/" }, "geometry": { "type": "Point", "coordinates": [ 133.259948799999961, 35.4928528 ] } },
{ "type": "Feature", "properties": { "内容": "とみます医科・歯科クリニック居宅介護支援事業所【居宅介護支援】鳥取県米子市富益町3533番地2", "url": "https://www.kaigokensaku.mhlw.go.jp/31/index.php?action_kouhyou_detail_004_kani=true&JigyosyoCd=3170201481-00&ServiceCd=430&Type=search", "url2": "www.tomimasugeka.org/" }, "geometry": { "type": "Point", "coordinates": [ 133.27819797061693, 35.47144455641569 ] } },
{ "type": "Feature", "properties": { "内容": "まごころケアプランセンター【居宅介護支援】鳥取県米子市皆生新田1-7-41", "url": "https://www.kaigokensaku.mhlw.go.jp/31/index.php?action_kouhyou_detail_004_kani=true&JigyosyoCd=3170201721-00&ServiceCd=430&Type=search", "url2": null }, "geometry": { "type": "Point", "coordinates": [ 133.36381551028137, 35.450780601681245 ] } },
{ "type": "Feature", "properties": { "内容": "居宅介護支援センター　ル・サンテリオンよどえ【居宅介護支援】鳥取県米子市淀江町佐陀２１６９", "url": "https://www.kaigokensaku.mhlw.go.jp/31/index.php?action_kouhyou_detail_004_kani=true&JigyosyoCd=3170201796-00&ServiceCd=430&Type=search", "url2": "http://www.jinkoukai.or.jp/yodoe/" }, "geometry": { "type": "Point", "coordinates": [ 133.395994497622723, 35.452236616214549 ] } },
{ "type": "Feature", "properties": { "内容": "エルルのケアプラン【居宅介護支援】鳥取県米子市両三柳193-3", "url": "https://www.kaigokensaku.mhlw.go.jp/31/index.php?action_kouhyou_detail_004_kani=true&JigyosyoCd=3170202075-00&ServiceCd=430&Type=search", "url2": "http://elfith.com" }, "geometry": { "type": "Point", "coordinates": [ 133.32553310000003, 35.449367489980503 ] } },
{ "type": "Feature", "properties": { "内容": "ケアプランセンター　セントラルローズガーデン【居宅介護支援】鳥取県米子市西福原8丁目16-66", "url": "https://www.kaigokensaku.mhlw.go.jp/31/index.php?action_kouhyou_detail_004_kani=true&JigyosyoCd=3170202216-00&ServiceCd=430&Type=search", "url2": "http://www.hospitown.or.jp/" }, "geometry": { "type": "Point", "coordinates": [ 133.343048899999985, 35.4533585 ] } },
{ "type": "Feature", "properties": { "内容": "介護相談のさんふく【居宅介護支援】鳥取県米子市塩町167", "url": "https://www.kaigokensaku.mhlw.go.jp/31/index.php?action_kouhyou_detail_004_kani=true&JigyosyoCd=3170202646-00&ServiceCd=430&Type=search", "url2": "https://www.san-fuku.net/kyotaku" }, "geometry": { "type": "Point", "coordinates": [ 133.331279600941457, 35.423906825250008 ] } },
{ "type": "Feature", "properties": { "内容": "ケアプランセンター　アイビス【居宅介護支援】鳥取県米子市熊党520", "url": "https://www.kaigokensaku.mhlw.go.jp/31/index.php?action_kouhyou_detail_004_kani=true&JigyosyoCd=3170203214-00&ServiceCd=430&Type=search", "url2": "http://www.loh.co.jp/" }, "geometry": { "type": "Point", "coordinates": [ 133.378651011236911, 35.428634683340803 ] } },
{ "type": "Feature", "properties": { "内容": "居宅介護支援事業所いずみの苑【居宅介護支援】鳥取県米子市淀江町淀江１０７５番地", "url": "https://www.kaigokensaku.mhlw.go.jp/31/index.php?action_kouhyou_detail_004_kani=true&JigyosyoCd=3171500279-00&ServiceCd=430&Type=search", "url2": "https://www.izuminosono.or.jp" }, "geometry": { "type": "Point", "coordinates": [ 133.433632100000068, 35.4573423 ] } },
{ "type": "Feature", "properties": { "内容": "ケアサービス米子指定居宅介護支援事業所【居宅介護支援】鳥取県米子市両三柳２６７", "url": "https://www.kaigokensaku.mhlw.go.jp/31/index.php?action_kouhyou_detail_004_kani=true&JigyosyoCd=3170200194-00&ServiceCd=430&Type=search", "url2": "http://www.careservice-yonago.ecnet.jp/" }, "geometry": { "type": "Point", "coordinates": [ 133.323547100000042, 35.4478918 ] } },
{ "type": "Feature", "properties": { "内容": "社会福祉法人　倉吉市社会福祉協議会　居宅介護支援事業所【居宅介護支援】鳥取県倉吉市関金町関金宿１１１５番２", "url": "https://www.kaigokensaku.mhlw.go.jp/31/index.php?action_kouhyou_detail_004_kani=true&JigyosyoCd=3170300432-00&ServiceCd=430&Type=search", "url2": "http://www.kurayoshishakyo.com" }, "geometry": { "type": "Point", "coordinates": [ 133.758923500000037, 35.3644398 ] } },
{ "type": "Feature", "properties": { "内容": "居宅介護支援センター　あずま園【居宅介護支援】鳥取県倉吉市東巌城町472番地", "url": "https://www.kaigokensaku.mhlw.go.jp/31/index.php?action_kouhyou_detail_004_kani=true&JigyosyoCd=3170300556-00&ServiceCd=430&Type=search", "url2": "http://www.azumaen.net/" }, "geometry": { "type": "Point", "coordinates": [ 133.844344946510205, 35.44077779374549 ] } },
{ "type": "Feature", "properties": { "内容": "居宅介護支援事業所しみず【居宅介護支援】鳥取県倉吉市宮川町129", "url": "https://www.kaigokensaku.mhlw.go.jp/31/index.php?action_kouhyou_detail_004_kani=true&JigyosyoCd=3110310186-00&ServiceCd=430&Type=search", "url2": "http://www.shimizuhospital.jp" }, "geometry": { "type": "Point", "coordinates": [ 133.83406709220435, 35.433892374202266 ] } },
{ "type": "Feature", "properties": { "内容": "医療法人専仁会信生病院【居宅介護支援】鳥取県倉吉市清谷町１－２８６", "url": "https://www.kaigokensaku.mhlw.go.jp/31/index.php?action_kouhyou_detail_004_kani=true&JigyosyoCd=3110310202-00&ServiceCd=430&Type=search", "url2": null }, "geometry": { "type": "Point", "coordinates": [ 133.849114, 35.4776661 ] } },
{ "type": "Feature", "properties": { "内容": "居宅介護支援センターマグノリア【居宅介護支援】鳥取県倉吉市上井町１丁目２番１", "url": "https://www.kaigokensaku.mhlw.go.jp/31/index.php?action_kouhyou_detail_004_kani=true&JigyosyoCd=3170300069-00&ServiceCd=430&Type=search", "url2": "https://www.med-wel.jp/" }, "geometry": { "type": "Point", "coordinates": [ 133.852544500000022, 35.4524498 ] } },
{ "type": "Feature", "properties": { "内容": "医療法人十字会居宅介護支援事業所のじま【居宅介護支援】鳥取県倉吉市瀬崎町２７１４－１", "url": "https://www.kaigokensaku.mhlw.go.jp/31/index.php?action_kouhyou_detail_004_kani=true&JigyosyoCd=3170300218-00&ServiceCd=430&Type=search", "url2": "http://www.nojima-hospital.jp/" }, "geometry": { "type": "Point", "coordinates": [ 133.819186599999966, 35.4314068 ] } },
{ "type": "Feature", "properties": { "内容": "指定居宅介護支援事業あすか【居宅介護支援】鳥取県倉吉市大宮41-1", "url": "https://www.kaigokensaku.mhlw.go.jp/31/index.php?action_kouhyou_detail_004_kani=true&JigyosyoCd=3170300259-00&ServiceCd=430&Type=search", "url2": null }, "geometry": { "type": "Point", "coordinates": [ 133.802611100000036, 35.3976077 ] } },
{ "type": "Feature", "properties": { "内容": "社会福祉法人　清和会　在宅介護支援センターせいわ【居宅介護支援】鳥取県倉吉市上井300番地ケアハウスうつぶき", "url": "https://www.kaigokensaku.mhlw.go.jp/31/index.php?action_kouhyou_detail_004_kani=true&JigyosyoCd=3170300317-00&ServiceCd=430&Type=search", "url2": "https://www.utsubuki.com/blank-3" }, "geometry": { "type": "Point", "coordinates": [ 133.846084237434411, 35.454475594641806 ] } },
{ "type": "Feature", "properties": { "内容": "ケアプランセンターわたなべ【居宅介護支援】鳥取県倉吉市下余戸161-1", "url": "https://www.kaigokensaku.mhlw.go.jp/31/index.php?action_kouhyou_detail_004_kani=true&JigyosyoCd=3170300325-00&ServiceCd=430&Type=search", "url2": null }, "geometry": { "type": "Point", "coordinates": [ 133.849329841261351, 35.438802993051567 ] } },
{ "type": "Feature", "properties": { "内容": "つばき居宅介護支援事業所【居宅介護支援】鳥取県倉吉市余戸谷町３０５１番地１", "url": "https://www.kaigokensaku.mhlw.go.jp/31/index.php?action_kouhyou_detail_004_kani=true&JigyosyoCd=3170300523-00&ServiceCd=430&Type=search", "url2": "http://www.nissyoukai.com/" }, "geometry": { "type": "Point", "coordinates": [ 133.811343099999931, 35.4279653 ] } },
{ "type": "Feature", "properties": { "内容": "居宅介護支援センター　ル・サンテリオン【居宅介護支援】鳥取県倉吉市山根55-233", "url": "https://www.kaigokensaku.mhlw.go.jp/31/index.php?action_kouhyou_detail_004_kani=true&JigyosyoCd=3170300622-00&ServiceCd=430&Type=search", "url2": "http://www.med-wel.jp/" }, "geometry": { "type": "Point", "coordinates": [ 133.857735700000035, 35.4524693 ] } },
{ "type": "Feature", "properties": { "内容": "指定居宅介護支援事業所ふくもり【居宅介護支援】鳥取県倉吉市福守町492-1", "url": "https://www.kaigokensaku.mhlw.go.jp/31/index.php?action_kouhyou_detail_004_kani=true&JigyosyoCd=3170300770-00&ServiceCd=430&Type=search", "url2": "https://minorifukusikai.com/" }, "geometry": { "type": "Point", "coordinates": [ 133.805741339286755, 35.434667345357965 ] } },
{ "type": "Feature", "properties": { "内容": "そらいろ居宅介護支援事業所【居宅介護支援】鳥取県倉吉市宮川町188", "url": "https://www.kaigokensaku.mhlw.go.jp/31/index.php?action_kouhyou_detail_004_kani=true&JigyosyoCd=3170301018-00&ServiceCd=430&Type=search", "url2": "http://lightup-ltd.com" }, "geometry": { "type": "Point", "coordinates": [ 133.8285622536348, 35.43308281521022 ] } },
{ "type": "Feature", "properties": { "内容": "デイケアひまわり居宅介護支援事業所【居宅介護支援】鳥取県倉吉市東昭和町165番地", "url": "https://www.kaigokensaku.mhlw.go.jp/31/index.php?action_kouhyou_detail_004_kani=true&JigyosyoCd=3110311093-00&ServiceCd=430&Type=search", "url2": "http://www.siseikai.com/" }, "geometry": { "type": "Point", "coordinates": [ 133.839789838657822, 35.437120354524239 ] } },
{ "type": "Feature", "properties": { "内容": "ひまわり居宅介護支援事業所【居宅介護支援】鳥取県倉吉市関金町関金宿1891-1", "url": "https://www.kaigokensaku.mhlw.go.jp/31/index.php?action_kouhyou_detail_004_kani=true&JigyosyoCd=3171400389-00&ServiceCd=430&Type=search", "url2": "http://www.siseikai.com/" }, "geometry": { "type": "Point", "coordinates": [ 133.763148399999977, 35.3571905 ] } },
{ "type": "Feature", "properties": { "内容": "居宅介護支援事業所　キラリ【居宅介護支援】鳥取県倉吉市見日町491", "url": "https://www.kaigokensaku.mhlw.go.jp/31/index.php?action_kouhyou_detail_004_kani=true&JigyosyoCd=3170300507-00&ServiceCd=430&Type=search", "url2": "http://hitotsubunomugi.jp" }, "geometry": { "type": "Point", "coordinates": [ 133.840403899999956, 35.4392732 ] } },
{ "type": "Feature", "properties": { "内容": "はーとらいふ花音【居宅介護支援】鳥取県境港市渡町972番地1", "url": "https://www.kaigokensaku.mhlw.go.jp/31/index.php?action_kouhyou_detail_004_kani=true&JigyosyoCd=3170400497-00&ServiceCd=430&Type=search", "url2": "https://www.beside617.com" }, "geometry": { "type": "Point", "coordinates": [ 133.21478, 35.5156236 ] } },
{ "type": "Feature", "properties": { "内容": "中浜ケアパートナーズ　居宅介護支援事業所【居宅介護支援】鳥取県境港市財ノ木町字川尻562番地", "url": "https://www.kaigokensaku.mhlw.go.jp/31/index.php?action_kouhyou_detail_004_kani=true&JigyosyoCd=3170400216-00&ServiceCd=430&Type=search", "url2": null }, "geometry": { "type": "Point", "coordinates": [ 133.249284838553649, 35.505848920469774 ] } },
{ "type": "Feature", "properties": { "内容": "指定居宅介護支援事業所　花の里【居宅介護支援】鳥取県境港市上道町１９５９－１", "url": "https://www.kaigokensaku.mhlw.go.jp/31/index.php?action_kouhyou_detail_004_kani=true&JigyosyoCd=3170400372-00&ServiceCd=430&Type=search", "url2": "http://www.motomachi-hp.jp/" }, "geometry": { "type": "Point", "coordinates": [ 133.236385899999959, 35.5418304 ] } },
{ "type": "Feature", "properties": { "内容": "境港市在宅介護支援センター済生会居宅介護支援事業所【居宅介護支援】鳥取県境港市蓮池町78-1", "url": "https://www.kaigokensaku.mhlw.go.jp/31/index.php?action_kouhyou_detail_004_kani=true&JigyosyoCd=3170400117-00&ServiceCd=430&Type=search", "url2": "http://www.sakaiminato-saiseikai.jp" }, "geometry": { "type": "Point", "coordinates": [ 133.223675599999979, 35.5394111 ] } },
{ "type": "Feature", "properties": { "内容": "居宅介護支援事業所　境港すずかけの樹【居宅介護支援】鳥取県境港市清水町761番地1", "url": "https://www.kaigokensaku.mhlw.go.jp/31/index.php?action_kouhyou_detail_004_kani=true&JigyosyoCd=3170400323-00&ServiceCd=430&Type=search", "url2": null }, "geometry": { "type": "Point", "coordinates": [ 133.217164799999978, 35.5403719 ] } },
{ "type": "Feature", "properties": { "内容": "ケアプラン孫の手【居宅介護支援】鳥取県境港市外江町2361-2", "url": "https://www.kaigokensaku.mhlw.go.jp/31/index.php?action_kouhyou_detail_004_kani=true&JigyosyoCd=3170400414-00&ServiceCd=430&Type=search", "url2": "www.t-a-d.jp/" }, "geometry": { "type": "Point", "coordinates": [ 133.210877742140156, 35.528391113531761 ] } },
{ "type": "Feature", "properties": { "内容": "えにしケアプランサービス【居宅介護支援】鳥取県境港市大正町113番地8", "url": "https://www.kaigokensaku.mhlw.go.jp/31/index.php?action_kouhyou_detail_004_kani=true&JigyosyoCd=3170400398-00&ServiceCd=430&Type=search", "url2": null }, "geometry": { "type": "Point", "coordinates": [ 133.2264308, 35.5443384 ] } },
{ "type": "Feature", "properties": { "内容": "ケアプランセンター　さかい幸朋苑【居宅介護支援】鳥取県境港市誠道町2083番地", "url": "https://www.kaigokensaku.mhlw.go.jp/31/index.php?action_kouhyou_detail_004_kani=true&JigyosyoCd=3170400109-00&ServiceCd=430&Type=search", "url2": "http://www.kohoen.jp" }, "geometry": { "type": "Point", "coordinates": [ 133.23531980000007, 35.5185576 ] } },
{ "type": "Feature", "properties": { "内容": "岩井あすなろ居宅介護支援センター【居宅介護支援】鳥取県岩美郡岩美町宇治1034", "url": "https://www.kaigokensaku.mhlw.go.jp/31/index.php?action_kouhyou_detail_004_kani=true&JigyosyoCd=3171100013-00&ServiceCd=430&Type=search", "url2": "http://www.t-asunaro.or.jp" }, "geometry": { "type": "Point", "coordinates": [ 134.360779500000035, 35.557615 ] } },
{ "type": "Feature", "properties": { "内容": "社会福祉法人　岩美町社会福祉協議会　居宅介護支援事業所【居宅介護支援】鳥取県岩美郡岩美町大字浦富６４５番地", "url": "https://www.kaigokensaku.mhlw.go.jp/31/index.php?action_kouhyou_detail_004_kani=true&JigyosyoCd=3171100021-00&ServiceCd=430&Type=search", "url2": "https://iwamishakyo.wixsite.com/shakyo" }, "geometry": { "type": "Point", "coordinates": [ 134.331345100000021, 35.5792757 ] } },
{ "type": "Feature", "properties": { "内容": "社会福祉法人　若桜町社会福祉協議会【居宅介護支援】鳥取県八頭郡若桜町若桜1247-1", "url": "https://www.kaigokensaku.mhlw.go.jp/31/index.php?action_kouhyou_detail_004_kani=true&JigyosyoCd=3171200052-00&ServiceCd=430&Type=search", "url2": "https://wakasa-syakyo.wixsite.com/home" }, "geometry": { "type": "Point", "coordinates": [ 134.39300030000004, 35.34823 ] } },
{ "type": "Feature", "properties": { "内容": "株式会社メディコープとっとり若桜居宅介護支援事業所【居宅介護支援】鳥取県八頭郡若桜町若桜922-1", "url": "https://www.kaigokensaku.mhlw.go.jp/31/index.php?action_kouhyou_detail_004_kani=true&JigyosyoCd=3171200615-00&ServiceCd=430&Type=search", "url2": "http://mcp.mcoop-tottori.jp/" }, "geometry": { "type": "Point", "coordinates": [ 134.401793625825434, 35.33992576401748 ] } },
{ "type": "Feature", "properties": { "内容": "ケアプランセンターはるひな【居宅介護支援】鳥取県八頭郡智頭町智頭1510番地2", "url": "https://www.kaigokensaku.mhlw.go.jp/31/index.php?action_kouhyou_detail_004_kani=true&JigyosyoCd=3171200490-00&ServiceCd=430&Type=search", "url2": null }, "geometry": { "type": "Point", "coordinates": [ 134.2279787, 35.2665058 ] } },
{ "type": "Feature", "properties": { "内容": "ほのぼのケアセンター【居宅介護支援】鳥取県八頭郡智頭町大字智頭1875番地", "url": "https://www.kaigokensaku.mhlw.go.jp/31/index.php?action_kouhyou_detail_004_kani=true&JigyosyoCd=3171200409-00&ServiceCd=430&Type=search", "url2": "http://chizushakyo.jp" }, "geometry": { "type": "Point", "coordinates": [ 134.224106900000038, 35.2635228 ] } },
{ "type": "Feature", "properties": { "内容": "居宅介護支援事業所すこやか【居宅介護支援】鳥取県八頭郡八頭町宮谷１２３番地", "url": "https://www.kaigokensaku.mhlw.go.jp/31/index.php?action_kouhyou_detail_004_kani=true&JigyosyoCd=3171200078-00&ServiceCd=430&Type=search", "url2": "https://swc-yazu.studio.site/" }, "geometry": { "type": "Point", "coordinates": [ 134.258492, 35.4138208 ] } },
{ "type": "Feature", "properties": { "内容": "社会福祉法人　八頭町社会福祉協議会　本所【居宅介護支援】鳥取県八頭郡八頭町宮谷２５４番地１", "url": "https://www.kaigokensaku.mhlw.go.jp/31/index.php?action_kouhyou_detail_004_kani=true&JigyosyoCd=3171200342-00&ServiceCd=430&Type=search", "url2": "https://yazu-syakyo.or.jp/" }, "geometry": { "type": "Point", "coordinates": [ 134.255311600000027, 35.4182842 ] } },
{ "type": "Feature", "properties": { "内容": "居宅介護支援事業所れしーぶ【居宅介護支援】鳥取県八頭郡八頭町船岡1961番地", "url": "https://www.kaigokensaku.mhlw.go.jp/31/index.php?action_kouhyou_detail_004_kani=true&JigyosyoCd=3171200474-00&ServiceCd=430&Type=search", "url2": "kyotaku@resi-bu.jp" }, "geometry": { "type": "Point", "coordinates": [ 134.24323, 35.3942867 ] } },
{ "type": "Feature", "properties": { "内容": "社会福祉法人　八頭町社会福祉協議会八東事業所【居宅介護支援】鳥取県八頭郡八頭町東593番地1", "url": "https://www.kaigokensaku.mhlw.go.jp/31/index.php?action_kouhyou_detail_004_kani=true&JigyosyoCd=3171200383-00&ServiceCd=430&Type=search", "url2": "https://yazu-syakyo.or.jp/pages/153/" }, "geometry": { "type": "Point", "coordinates": [ 134.327714199999946, 35.3590507 ] } },
{ "type": "Feature", "properties": { "内容": "三喜苑居宅介護支援事業所【居宅介護支援】鳥取県東伯郡三朝町横手３９６番地", "url": "https://www.kaigokensaku.mhlw.go.jp/31/index.php?action_kouhyou_detail_004_kani=true&JigyosyoCd=3171400157-00&ServiceCd=430&Type=search", "url2": "http://www.sankien.jp" }, "geometry": { "type": "Point", "coordinates": [ 133.877104799999984, 35.4105021 ] } },
{ "type": "Feature", "properties": { "内容": "社会福祉法人　三朝町社会福祉協議会　居宅介護支援事業所【居宅介護支援】鳥取県東伯郡三朝町大字横手50番地の４", "url": "https://www.kaigokensaku.mhlw.go.jp/31/index.php?action_kouhyou_detail_004_kani=true&JigyosyoCd=3171400306-00&ServiceCd=430&Type=search", "url2": "www.misasa-syakyo.or.jp" }, "geometry": { "type": "Point", "coordinates": [ 133.882448899999986, 35.4116464 ] } },
{ "type": "Feature", "properties": { "内容": "ライフケア居宅介護支援事業所【居宅介護支援】鳥取県東伯郡湯梨浜町田後224-1", "url": "https://www.kaigokensaku.mhlw.go.jp/31/index.php?action_kouhyou_detail_004_kani=true&JigyosyoCd=3171400967-00&ServiceCd=430&Type=search", "url2": null }, "geometry": { "type": "Point", "coordinates": [ 133.8603319, 35.491028600000014 ] } },
{ "type": "Feature", "properties": { "内容": "アロハ居宅介護支援センターあずま園【居宅介護支援】鳥取県東伯郡湯梨浜町光吉107番地35あずま園", "url": "https://www.kaigokensaku.mhlw.go.jp/31/index.php?action_kouhyou_detail_004_kani=true&JigyosyoCd=3171400850-00&ServiceCd=430&Type=search", "url2": "http://azumaen.net/" }, "geometry": { "type": "Point", "coordinates": [ 133.878035299999965, 35.4918509 ] } },
{ "type": "Feature", "properties": { "内容": "居宅介護支援センタール・サンテリオン東郷【居宅介護支援】鳥取県東伯郡湯梨浜町野花４４３－１", "url": "https://www.kaigokensaku.mhlw.go.jp/31/index.php?action_kouhyou_detail_004_kani=true&JigyosyoCd=3171400116-00&ServiceCd=430&Type=search", "url2": "https://www.med-wel.jp/togo/" }, "geometry": { "type": "Point", "coordinates": [ 133.890257099999985, 35.4637077 ] } },
{ "type": "Feature", "properties": { "内容": "介護老人保健施設ハワイ信生苑居宅介護支援事業所【居宅介護支援】鳥取県東伯郡湯梨浜町はわい温泉５８－５", "url": "https://www.kaigokensaku.mhlw.go.jp/31/index.php?action_kouhyou_detail_004_kani=true&JigyosyoCd=3171400322-00&ServiceCd=430&Type=search", "url2": "http://www3.torichu.ne.jp/~sinseien/" }, "geometry": { "type": "Point", "coordinates": [ 133.880213300000037, 35.4757477 ] } },
{ "type": "Feature", "properties": { "内容": "社会福祉法人　湯梨浜町社会福祉協議会指定居宅介護支援事業所【居宅介護支援】鳥取県東伯郡湯梨浜町泊１０８５－１", "url": "https://www.kaigokensaku.mhlw.go.jp/31/index.php?action_kouhyou_detail_004_kani=true&JigyosyoCd=3171400561-00&ServiceCd=430&Type=search", "url2": "http://www.yurihama-shakyo.jp" }, "geometry": { "type": "Point", "coordinates": [ 133.9430979, 35.5143084 ] } },
{ "type": "Feature", "properties": { "内容": "ホームケアサポートサービスEsola【居宅介護支援】鳥取県東伯郡湯梨浜町大字長江字東蓼尾310番76", "url": "https://www.kaigokensaku.mhlw.go.jp/31/index.php?action_kouhyou_detail_004_kani=true&JigyosyoCd=3171400991-00&ServiceCd=430&Type=search", "url2": "http://esola.business.site" }, "geometry": { "type": "Point", "coordinates": [ 133.876567609090046, 35.474887061174904 ] } },
{ "type": "Feature", "properties": { "内容": "ツーミニッツケアマネジメント事務所【居宅介護支援】鳥取県東伯郡琴浦町赤碕１９２０番地５７", "url": "https://www.kaigokensaku.mhlw.go.jp/31/index.php?action_kouhyou_detail_004_kani=true&JigyosyoCd=3171401098-00&ServiceCd=430&Type=search", "url2": null }, "geometry": { "type": "Point", "coordinates": [ 133.6315037, 35.5137829 ] } },
{ "type": "Feature", "properties": { "内容": "居宅介護支援事業所まほろば【居宅介護支援】鳥取県東伯郡琴浦町赤碕1840-7", "url": "https://www.kaigokensaku.mhlw.go.jp/31/index.php?action_kouhyou_detail_004_kani=true&JigyosyoCd=3171400884-00&ServiceCd=430&Type=search", "url2": "https://www.kotoura-mahoroba.life/" }, "geometry": { "type": "Point", "coordinates": [ 133.634860500000059, 35.511029 ] } },
{ "type": "Feature", "properties": { "内容": "みどり園居宅介護支援事業所【居宅介護支援】鳥取県東伯郡琴浦町八橋1937番地", "url": "https://www.kaigokensaku.mhlw.go.jp/31/index.php?action_kouhyou_detail_004_kani=true&JigyosyoCd=3171400165-00&ServiceCd=430&Type=search", "url2": "http://hp1.tcbnet.ne.jp/~midori/" }, "geometry": { "type": "Point", "coordinates": [ 133.664755829360985, 35.502650338231234 ] } },
{ "type": "Feature", "properties": { "内容": "陽だまりの家　居宅介護支援事業所【居宅介護支援】鳥取県東伯郡琴浦町徳万70-1", "url": "https://www.kaigokensaku.mhlw.go.jp/31/index.php?action_kouhyou_detail_004_kani=true&JigyosyoCd=3171400413-00&ServiceCd=430&Type=search", "url2": "http://www.solhem.jp" }, "geometry": { "type": "Point", "coordinates": [ 133.696097300000019, 35.5018558 ] } },
{ "type": "Feature", "properties": { "内容": "森本外科・脳神経外科医院【居宅介護支援】鳥取県東伯郡琴浦町大字逢束１１８０番地", "url": "https://www.kaigokensaku.mhlw.go.jp/31/index.php?action_kouhyou_detail_004_kani=true&JigyosyoCd=3171400314-00&ServiceCd=430&Type=search", "url2": "https://www.morimoto-med1977.jp" }, "geometry": { "type": "Point", "coordinates": [ 133.698605111639409, 35.499924934520557 ] } },
{ "type": "Feature", "properties": { "内容": "あかさき介護支援センター居宅介護支援事業所【居宅介護支援】鳥取県東伯郡琴浦町赤碕１０６０－２５", "url": "https://www.kaigokensaku.mhlw.go.jp/31/index.php?action_kouhyou_detail_004_kani=true&JigyosyoCd=3171400090-00&ServiceCd=430&Type=search", "url2": "https://www.hyakujyuen.jp" }, "geometry": { "type": "Point", "coordinates": [ 133.631655, 35.5176343 ] } },
{ "type": "Feature", "properties": { "内容": "北栄居宅介護支援センターあずま園【居宅介護支援】鳥取県東伯郡北栄町東園３２９番地", "url": "https://www.kaigokensaku.mhlw.go.jp/31/index.php?action_kouhyou_detail_004_kani=true&JigyosyoCd=3171400785-00&ServiceCd=430&Type=search", "url2": "http://azumaen.net/index.php" }, "geometry": { "type": "Point", "coordinates": [ 133.783178, 35.4874608 ] } },
{ "type": "Feature", "properties": { "内容": "みやがわ居宅介護支援事業所【居宅介護支援】鳥取県東伯郡北栄町瀬戸45-2", "url": "https://www.kaigokensaku.mhlw.go.jp/31/index.php?action_kouhyou_detail_004_kani=true&JigyosyoCd=3171400173-00&ServiceCd=430&Type=search", "url2": "http://seiikai.hp.gogo.jp" }, "geometry": { "type": "Point", "coordinates": [ 133.775967600000058, 35.4832085 ] } },
{ "type": "Feature", "properties": { "内容": "居宅介護支援センター　ル・サンテリオン北条【居宅介護支援】鳥取県東伯郡北栄町土下123-1", "url": "https://www.kaigokensaku.mhlw.go.jp/31/index.php?action_kouhyou_detail_004_kani=true&JigyosyoCd=3171400280-00&ServiceCd=430&Type=search", "url2": "https://www.med-wel.jp/houjou/" }, "geometry": { "type": "Point", "coordinates": [ 133.81999159999998, 35.4787737 ] } },
{ "type": "Feature", "properties": { "内容": "社会福祉法人　北栄町社会福祉協議会　居宅介護支援事業所【居宅介護支援】鳥取県東伯郡北栄町瀬戸３６番地２", "url": "https://www.kaigokensaku.mhlw.go.jp/31/index.php?action_kouhyou_detail_004_kani=true&JigyosyoCd=3171400645-00&ServiceCd=430&Type=search", "url2": "http://hokuei-syakyo.or.jp/" }, "geometry": { "type": "Point", "coordinates": [ 133.775845500000059, 35.4816253 ] } },
{ "type": "Feature", "properties": { "内容": "居宅介護支援事業所くるみの木【居宅介護支援】鳥取県東伯郡北栄町松神145-1", "url": "https://www.kaigokensaku.mhlw.go.jp/31/index.php?action_kouhyou_detail_004_kani=true&JigyosyoCd=3171401023-00&ServiceCd=430&Type=search", "url2": "https://kurumi.hp.peraichi.com" }, "geometry": { "type": "Point", "coordinates": [ 133.7968162, 35.4852221 ] } },
{ "type": "Feature", "properties": { "内容": "小谷苑介護支援センター【居宅介護支援】鳥取県西伯郡大山町西坪５４５番地１介護老人保健施設小谷苑", "url": "https://www.kaigokensaku.mhlw.go.jp/31/index.php?action_kouhyou_detail_004_kani=true&JigyosyoCd=3171500121-00&ServiceCd=430&Type=search", "url2": "http://www.kodanien.com" }, "geometry": { "type": "Point", "coordinates": [ 133.502342981614674, 35.513322795668842 ] } },
{ "type": "Feature", "properties": { "内容": "医療法人　佐々木医院【居宅介護支援】鳥取県西伯郡大山町田中646-1", "url": "https://www.kaigokensaku.mhlw.go.jp/31/index.php?action_kouhyou_detail_004_kani=true&JigyosyoCd=3111510453-00&ServiceCd=430&Type=search", "url2": "https://sasakicl-hamanasu.jp" }, "geometry": { "type": "Point", "coordinates": [ 133.588694499999974, 35.5203245 ] } },
{ "type": "Feature", "properties": { "内容": "居宅介護支援センター　ル・ソラリオン名和【居宅介護支援】鳥取県西伯郡大山町西坪５２０番地１", "url": "https://www.kaigokensaku.mhlw.go.jp/31/index.php?action_kouhyou_detail_004_kani=true&JigyosyoCd=3171500238-00&ServiceCd=430&Type=search", "url2": "https://www.med-wel.jp/" }, "geometry": { "type": "Point", "coordinates": [ 133.501083599999987, 35.5143925 ] } },
{ "type": "Feature", "properties": { "内容": "ばんだの里指定居宅介護支援事業所【居宅介護支援】鳥取県西伯郡大山町安原１１１８－１", "url": "https://www.kaigokensaku.mhlw.go.jp/31/index.php?action_kouhyou_detail_004_kani=true&JigyosyoCd=3171500402-00&ServiceCd=430&Type=search", "url2": null }, "geometry": { "type": "Point", "coordinates": [ 133.441324593917926, 35.467274311548003 ] } },
{ "type": "Feature", "properties": { "内容": "ケアプランセンター大山やすらぎの里【居宅介護支援】鳥取県西伯郡大山町唐王２０８", "url": "https://www.kaigokensaku.mhlw.go.jp/31/index.php?action_kouhyou_detail_004_kani=true&JigyosyoCd=3171500535-00&ServiceCd=430&Type=search", "url2": "https://keiaikai-daisen.com/" }, "geometry": { "type": "Point", "coordinates": [ 133.454268, 35.4807484 ] } },
{ "type": "Feature", "properties": { "内容": "大山町社会福祉協議会居宅介護支援だいせん【居宅介護支援】鳥取県西伯郡大山町末長５０３番地大山町保健福祉センターだいせん", "url": "https://www.kaigokensaku.mhlw.go.jp/31/index.php?action_kouhyou_detail_004_kani=true&JigyosyoCd=3171500709-00&ServiceCd=430&Type=search", "url2": "daisensyakyo.org" }, "geometry": { "type": "Point", "coordinates": [ 133.459334300000023, 35.4810624 ] } },
{ "type": "Feature", "properties": { "内容": "南部居宅介護支援事業所【居宅介護支援】鳥取県西伯郡南部町浅井938番地", "url": "https://www.kaigokensaku.mhlw.go.jp/31/index.php?action_kouhyou_detail_004_kani=true&JigyosyoCd=3171500444-00&ServiceCd=430&Type=search", "url2": "http://yuraku-houki.net/" }, "geometry": { "type": "Point", "coordinates": [ 133.370215899999948, 35.3619237 ] } },
{ "type": "Feature", "properties": { "内容": "大山リハビリテーション病院　居宅介護支援事業所【居宅介護支援】鳥取県西伯郡伯耆町大原927ー1", "url": "https://www.kaigokensaku.mhlw.go.jp/31/index.php?action_kouhyou_detail_004_kani=true&JigyosyoCd=3171500378-00&ServiceCd=430&Type=search", "url2": "http://www.drh.or.jp" }, "geometry": { "type": "Point", "coordinates": [ 133.4563885, 35.3851337 ] } },
{ "type": "Feature", "properties": { "内容": "伯耆中央病院居宅介護支援事業所【居宅介護支援】鳥取県西伯郡伯耆町長山１５２－１", "url": "https://www.kaigokensaku.mhlw.go.jp/31/index.php?action_kouhyou_detail_004_kani=true&JigyosyoCd=3111510743-00&ServiceCd=430&Type=search", "url2": "http://care-net.biz/31/houkichp/" }, "geometry": { "type": "Point", "coordinates": [ 133.433799099999987, 35.3516147 ] } },
{ "type": "Feature", "properties": { "内容": "伯耆町社会福祉協議会　居宅介護支援事業所【居宅介護支援】鳥取県西伯郡伯耆町大殿1030番地1", "url": "https://www.kaigokensaku.mhlw.go.jp/31/index.php?action_kouhyou_detail_004_kani=true&JigyosyoCd=3171500592-00&ServiceCd=430&Type=search", "url2": null }, "geometry": { "type": "Point", "coordinates": [ 133.396437331352217, 35.386449366162424 ] } },
{ "type": "Feature", "properties": { "内容": "日南町国民健康保険　日南病院【居宅介護支援】鳥取県日野郡日南町生山５１１番地７", "url": "https://www.kaigokensaku.mhlw.go.jp/31/index.php?action_kouhyou_detail_004_kani=true&JigyosyoCd=3171600152-00&ServiceCd=430&Type=search", "url2": "http://nichinan-hospital.jp/" }, "geometry": { "type": "Point", "coordinates": [ 133.320106900000042, 35.1660665 ] } },
{ "type": "Feature", "properties": { "内容": "ケアプランセンター　あかねの郷【居宅介護支援】鳥取県日野郡日南町下石見２３１５番地", "url": "https://www.kaigokensaku.mhlw.go.jp/31/index.php?action_kouhyou_detail_004_kani=true&JigyosyoCd=3171600285-00&ServiceCd=430&Type=search", "url2": "https://www.n-akane.jp/guide/" }, "geometry": { "type": "Point", "coordinates": [ 133.330239900000038, 35.1521569 ] } },
{ "type": "Feature", "properties": { "内容": "ケアプランセンター日翔会【居宅介護支援】鳥取県日野郡日野町根雨８９９－１", "url": "https://www.kaigokensaku.mhlw.go.jp/31/index.php?action_kouhyou_detail_004_kani=true&JigyosyoCd=3171600368-00&ServiceCd=430&Type=search", "url2": "http://www.nissyoukai.net/" }, "geometry": { "type": "Point", "coordinates": [ 133.440103300000033, 35.234317 ] } },
{ "type": "Feature", "properties": { "内容": "日野病院居宅介護支援事業所【居宅介護支援】鳥取県日野郡日野町野田３３２番地", "url": "https://www.kaigokensaku.mhlw.go.jp/31/index.php?action_kouhyou_detail_004_kani=true&JigyosyoCd=3171600178-00&ServiceCd=430&Type=search", "url2": "http:/www.hinohp.com/" }, "geometry": { "type": "Point", "coordinates": [ 133.435953700000027, 35.23615010000001 ] } },
{ "type": "Feature", "properties": { "内容": "居宅介護支援プランドオフィス【居宅介護支援】鳥取県日野郡江府町大字久連7番地", "url": "https://www.kaigokensaku.mhlw.go.jp/31/index.php?action_kouhyou_detail_004_kani=true&JigyosyoCd=3171600384-00&ServiceCd=430&Type=search", "url2": "http://www.syoujin.or.jp" }, "geometry": { "type": "Point", "coordinates": [ 133.483059, 35.281851 ] } }
]
}
