{
"type": "FeatureCollection",
"name": "geo_31_大学",
"crs": { "type": "name", "properties": { "name": "urn:ogc:def:crs:EPSG::6668" } },
"features": [
{ "type": "Feature", "properties": { "P29_001": "31201", "P29_002": "F131110109417", "P29_003": "16007", "P29_004": "鳥取大学", "P29_005": "鳥取県鳥取市湖山町南4-101", "P29_006": "1", "P29_007": "0", "P29_008": "01", "P29_009": "鳥取キャンパス" }, "geometry": { "type": "Point", "coordinates": [ 134.172470761174736, 35.516687664814384 ] } },
{ "type": "Feature", "properties": { "P29_001": "31201", "P29_002": "F131210109424", "P29_003": "16007", "P29_004": "公立鳥取環境大学", "P29_005": "鳥取県鳥取市若葉台北1-1-1", "P29_006": "3", "P29_007": "0", "P29_008": "00", "P29_009": null }, "geometry": { "type": "Point", "coordinates": [ 134.255583735747308, 35.450878428067817 ] } },
{ "type": "Feature", "properties": { "P29_001": "31203", "P29_002": "F131310109431", "P29_003": "16007", "P29_004": "鳥取看護大学", "P29_005": "鳥取県倉吉市福庭854", "P29_006": "4", "P29_007": "0", "P29_008": "00", "P29_009": null }, "geometry": { "type": "Point", "coordinates": [ 133.858735936663322, 35.456559725913742 ] } },
{ "type": "Feature", "properties": { "P29_001": "31202", "P29_002": "F131110109417", "P29_003": "16007", "P29_004": "鳥取大学", "P29_005": "鳥取県米子市西町86", "P29_006": "1", "P29_007": "0", "P29_008": "02", "P29_009": "米子キャンパス" }, "geometry": { "type": "Point", "coordinates": [ 133.326002949018175, 35.430618691180086 ] } }
]
}
