{
"type": "FeatureCollection",
"name": "geo_31_訪問看護",
"crs": { "type": "name", "properties": { "name": "urn:ogc:def:crs:OGC:1.3:CRS84" } },
"features": [
{ "type": "Feature", "properties": { "内容": "鳥取市立病院【訪問看護】鳥取県鳥取市的場1-1", "url": "https://www.kaigokensaku.mhlw.go.jp/31/index.php?action_kouhyou_detail_004_kani=true&JigyosyoCd=3170102572-00&ServiceCd=130&Type=search", "url2": "http://hospital.tottori.tottori.jp/" }, "geometry": { "type": "Point", "coordinates": [ 134.233918372877525, 35.474293846316833 ] } },
{ "type": "Feature", "properties": { "内容": "訪問看護ステーション　コムパートナーズ【訪問看護】鳥取県鳥取市湖山町東4-61", "url": "https://www.kaigokensaku.mhlw.go.jp/31/index.php?action_kouhyou_detail_004_kani=true&JigyosyoCd=3160190223-00&ServiceCd=130&Type=search", "url2": "https://www.el3tottori.co.jp/" }, "geometry": { "type": "Point", "coordinates": [ 134.189338705557248, 35.515997699159151 ] } },
{ "type": "Feature", "properties": { "内容": "ビュートゾルフたいよう訪問看護ステーション【訪問看護】鳥取県鳥取市桂木245-25", "url": "https://www.kaigokensaku.mhlw.go.jp/31/index.php?action_kouhyou_detail_004_kani=true&JigyosyoCd=3160190264-00&ServiceCd=130&Type=search", "url2": "http://hp.kaipoke.biz/3p2/" }, "geometry": { "type": "Point", "coordinates": [ 134.2492526, 35.4597427 ] } },
{ "type": "Feature", "properties": { "内容": "きずな訪問看護リハビリステーション【訪問看護】鳥取県鳥取市興南町113-2自然堂第一ビル　2階", "url": "https://www.kaigokensaku.mhlw.go.jp/31/index.php?action_kouhyou_detail_004_kani=true&JigyosyoCd=3160190207-00&ServiceCd=130&Type=search", "url2": "http://kizuna123.co.jp/" }, "geometry": { "type": "Point", "coordinates": [ 134.23216710787031, 35.485839576918004 ] } },
{ "type": "Feature", "properties": { "内容": "せいきょう訪問看護ステーションすずらん【訪問看護】鳥取県鳥取市末広温泉町203レインボーセンター2階", "url": "https://www.kaigokensaku.mhlw.go.jp/31/index.php?action_kouhyou_detail_004_kani=true&JigyosyoCd=3160190025-00&ServiceCd=130&Type=search", "url2": "http://suzuran.mcoop-tottori.jp/" }, "geometry": { "type": "Point", "coordinates": [ 134.230297599999972, 35.496011 ] } },
{ "type": "Feature", "properties": { "内容": "訪問看護事業所　竹田内科医院【訪問看護】鳥取県鳥取市本町２－１０９", "url": "https://www.kaigokensaku.mhlw.go.jp/31/index.php?action_kouhyou_detail_004_kani=true&JigyosyoCd=3110112129-00&ServiceCd=130&Type=search", "url2": null }, "geometry": { "type": "Point", "coordinates": [ 134.232175, 35.5017242 ] } },
{ "type": "Feature", "properties": { "内容": "訪問看護ステーションふたば【訪問看護】鳥取県鳥取市国府町稲葉丘３丁目３０３", "url": "https://www.kaigokensaku.mhlw.go.jp/31/index.php?action_kouhyou_detail_004_kani=true&JigyosyoCd=3160190116-00&ServiceCd=130&Type=search", "url2": null }, "geometry": { "type": "Point", "coordinates": [ 134.262137, 35.4839403 ] } },
{ "type": "Feature", "properties": { "内容": "訪問看護ステーションかけはし【訪問看護】鳥取県鳥取市大杙208-1", "url": "https://www.kaigokensaku.mhlw.go.jp/31/index.php?action_kouhyou_detail_004_kani=true&JigyosyoCd=3160190306-00&ServiceCd=130&Type=search", "url2": "https://you-plus.jp/" }, "geometry": { "type": "Point", "coordinates": [ 134.2476687, 35.4835597 ] } },
{ "type": "Feature", "properties": { "内容": "訪問看護ステーション　にしまち幸朋苑【訪問看護】鳥取県鳥取市西町5丁目220", "url": "https://www.kaigokensaku.mhlw.go.jp/31/index.php?action_kouhyou_detail_004_kani=true&JigyosyoCd=3160190132-00&ServiceCd=130&Type=search", "url2": "http://www.kohoen.jp" }, "geometry": { "type": "Point", "coordinates": [ 134.23287348280337, 35.506517634684521 ] } },
{ "type": "Feature", "properties": { "内容": "訪問看護ステーション　まさたみの郷【訪問看護】鳥取県鳥取市杉崎596番地", "url": "https://www.kaigokensaku.mhlw.go.jp/31/index.php?action_kouhyou_detail_004_kani=true&JigyosyoCd=3160190066-00&ServiceCd=130&Type=search", "url2": null }, "geometry": { "type": "Point", "coordinates": [ 134.2481636, 35.4644758 ] } },
{ "type": "Feature", "properties": { "内容": "鳥取県看護協会訪問看護ステーション【訪問看護】鳥取県鳥取市江津318－1", "url": "https://www.kaigokensaku.mhlw.go.jp/31/index.php?action_kouhyou_detail_004_kani=true&JigyosyoCd=3160190017-00&ServiceCd=130&Type=search", "url2": "http://www.tottori-kangokyokai.or.jp/" }, "geometry": { "type": "Point", "coordinates": [ 134.213726100000031, 35.5233741 ] } },
{ "type": "Feature", "properties": { "内容": "訪問看護ステーション　はまゆう【訪問看護】鳥取県鳥取市野寺62-1", "url": "https://www.kaigokensaku.mhlw.go.jp/31/index.php?action_kouhyou_detail_004_kani=true&JigyosyoCd=3160190058-00&ServiceCd=130&Type=search", "url2": "http://www.hamayu.or.jp/facility/medical/home_visit_nursing_hamayu.html" }, "geometry": { "type": "Point", "coordinates": [ 134.205226, 35.4740964 ] } },
{ "type": "Feature", "properties": { "内容": "訪問看護ステーション　ナースくる【訪問看護】鳥取県鳥取市大覚寺150-87", "url": "https://www.kaigokensaku.mhlw.go.jp/31/index.php?action_kouhyou_detail_004_kani=true&JigyosyoCd=3160190124-00&ServiceCd=130&Type=search", "url2": "https://t-bang.jp/" }, "geometry": { "type": "Point", "coordinates": [ 134.232396147915665, 35.481142843267165 ] } },
{ "type": "Feature", "properties": { "内容": "さとに訪問看護ステーション【訪問看護】鳥取県鳥取市里仁54番地2", "url": "https://www.kaigokensaku.mhlw.go.jp/31/index.php?action_kouhyou_detail_004_kani=true&JigyosyoCd=3160190173-00&ServiceCd=130&Type=search", "url2": "http://www.satoni-denen-clinic.jp/" }, "geometry": { "type": "Point", "coordinates": [ 134.193846, 35.5027621 ] } },
{ "type": "Feature", "properties": { "内容": "こころね訪問看護ステーション幸町【訪問看護】鳥取県鳥取市幸町112番地シニアステージ幸町", "url": "https://www.kaigokensaku.mhlw.go.jp/31/index.php?action_kouhyou_detail_004_kani=true&JigyosyoCd=3160190215-00&ServiceCd=130&Type=search", "url2": null }, "geometry": { "type": "Point", "coordinates": [ 134.219269, 35.4958183 ] } },
{ "type": "Feature", "properties": { "内容": "こころね訪問看護ステーション南吉方【訪問看護】鳥取県鳥取市南吉方二丁目68番地1株式会社　サードライフモア　シニアステージ南吉方", "url": "https://www.kaigokensaku.mhlw.go.jp/31/index.php?action_kouhyou_detail_004_kani=true&JigyosyoCd=3160190272-00&ServiceCd=130&Type=search", "url2": "http://thirdlifemore.jp/" }, "geometry": { "type": "Point", "coordinates": [ 134.234276599999987, 35.4860339 ] } },
{ "type": "Feature", "properties": { "内容": "訪問看護ステーションつむぎ【訪問看護】鳥取市川端3丁目117番地", "url": "https://www.kaigokensaku.mhlw.go.jp/31/index.php?action_kouhyou_detail_004_kani=true&JigyosyoCd=3160190199-00&ServiceCd=130&Type=search", "url2": "http://www.o-tsumugi.com/" }, "geometry": { "type": "Point", "coordinates": [ 134.22890577644506, 35.501220820465626 ] } },
{ "type": "Feature", "properties": { "内容": "野の花診療所【訪問看護】鳥取県鳥取市行徳3丁目431番地", "url": "https://www.kaigokensaku.mhlw.go.jp/31/index.php?action_kouhyou_detail_004_kani=true&JigyosyoCd=3110112921-00&ServiceCd=130&Type=search", "url2": "http://nonohana.no.coocan.jp" }, "geometry": { "type": "Point", "coordinates": [ 134.222151, 35.5006771 ] } },
{ "type": "Feature", "properties": { "内容": "訪問看護ステーションえん【訪問看護】鳥取県鳥取市国府町新町1丁目117アウラB", "url": "https://www.kaigokensaku.mhlw.go.jp/31/index.php?action_kouhyou_detail_004_kani=true&JigyosyoCd=3160190249-00&ServiceCd=130&Type=search", "url2": "http://nurse-en.com" }, "geometry": { "type": "Point", "coordinates": [ 134.259471635251202, 35.481553737168419 ] } },
{ "type": "Feature", "properties": { "内容": "訪問看護リハビリステーション寄り添い【訪問看護】鳥取県鳥取市大杙229－16", "url": "https://www.kaigokensaku.mhlw.go.jp/31/index.php?action_kouhyou_detail_004_kani=true&JigyosyoCd=3160190314-00&ServiceCd=130&Type=search", "url2": "tomonowa‐tottori.com" }, "geometry": { "type": "Point", "coordinates": [ 134.2496228, 35.4829593 ] } },
{ "type": "Feature", "properties": { "内容": "HIROGARI訪問看護リハビリステーション【訪問看護】鳥取県鳥取市気高町新町2-143", "url": "https://www.kaigokensaku.mhlw.go.jp/31/index.php?action_kouhyou_detail_004_kani=true&JigyosyoCd=3160190348-00&ServiceCd=130&Type=search", "url2": "https://vitar-official.com/" }, "geometry": { "type": "Point", "coordinates": [ 134.045946220237738, 35.509874931960887 ] } },
{ "type": "Feature", "properties": { "内容": "訪問看護ステーション仁【訪問看護】鳥取県米子市目久美町２２番地５エスポワール目久美１０３", "url": "https://www.kaigokensaku.mhlw.go.jp/31/index.php?action_kouhyou_detail_004_kani=true&JigyosyoCd=3160290346-00&ServiceCd=130&Type=search", "url2": null }, "geometry": { "type": "Point", "coordinates": [ 133.338127799999938, 35.4219281 ] } },
{ "type": "Feature", "properties": { "内容": "訪問看護ステーションデューン米子【訪問看護】鳥取県米子市明治町131増谷ビル１階", "url": "https://www.kaigokensaku.mhlw.go.jp/31/index.php?action_kouhyou_detail_004_kani=true&JigyosyoCd=3160290338-00&ServiceCd=130&Type=search", "url2": "http：//www.nfield.co.jp/" }, "geometry": { "type": "Point", "coordinates": [ 133.334911299999931, 35.4242056 ] } },
{ "type": "Feature", "properties": { "内容": "訪問看護リハビリテーションりんどうの郷【訪問看護】米子市灘町1丁目102番地", "url": "https://www.kaigokensaku.mhlw.go.jp/31/index.php?action_kouhyou_detail_004_kani=true&JigyosyoCd=3160290387-00&ServiceCd=130&Type=search", "url2": "http//www.rindounosato.com" }, "geometry": { "type": "Point", "coordinates": [ 133.322241600000041, 35.4334709 ] } },
{ "type": "Feature", "properties": { "内容": "緩音訪問看護ステーション【訪問看護】鳥取県米子市目久美町97番地3", "url": "https://www.kaigokensaku.mhlw.go.jp/31/index.php?action_kouhyou_detail_004_kani=true&JigyosyoCd=3160290544-00&ServiceCd=130&Type=search", "url2": "現在準備中" }, "geometry": { "type": "Point", "coordinates": [ 133.340217700000011, 35.421066 ] } },
{ "type": "Feature", "properties": { "内容": "こころね訪問看護ステーション東福原【訪問看護】鳥取県米子市東福原3丁目9-1シニアステージ東福原内に併設", "url": "https://www.kaigokensaku.mhlw.go.jp/31/index.php?action_kouhyou_detail_004_kani=true&JigyosyoCd=3160290403-00&ServiceCd=130&Type=search", "url2": null }, "geometry": { "type": "Point", "coordinates": [ 133.345962899999989, 35.4420405 ] } },
{ "type": "Feature", "properties": { "内容": "ホームベースドケア　訪問看護ステーション【訪問看護】鳥取県米子市米原6丁目5番47号", "url": "https://www.kaigokensaku.mhlw.go.jp/31/index.php?action_kouhyou_detail_004_kani=true&JigyosyoCd=3160290411-00&ServiceCd=130&Type=search", "url2": "https://h-b-care.com/" }, "geometry": { "type": "Point", "coordinates": [ 133.3360926355966, 35.442851405864232 ] } },
{ "type": "Feature", "properties": { "内容": "訪問看護ステーション博愛【訪問看護】鳥取県米子市両三柳1880在宅医療センター", "url": "https://www.kaigokensaku.mhlw.go.jp/31/index.php?action_kouhyou_detail_004_kani=true&JigyosyoCd=3160290031-00&ServiceCd=130&Type=search", "url2": "http://www.doaikai.jp/" }, "geometry": { "type": "Point", "coordinates": [ 133.318605599999955, 35.4557438 ] } },
{ "type": "Feature", "properties": { "内容": "訪問看護ステーションほんわか【訪問看護】鳥取県米子市茶町25番地", "url": "https://www.kaigokensaku.mhlw.go.jp/31/index.php?action_kouhyou_detail_004_kani=true&JigyosyoCd=3160290056-00&ServiceCd=130&Type=search", "url2": "http://www.chukai.or.jp" }, "geometry": { "type": "Point", "coordinates": [ 133.294299799999976, 35.44656410000001 ] } },
{ "type": "Feature", "properties": { "内容": "訪問看護ステーション　ネットケア【訪問看護】鳥取県米子市河崎580", "url": "https://www.kaigokensaku.mhlw.go.jp/31/index.php?action_kouhyou_detail_004_kani=true&JigyosyoCd=3160290064-00&ServiceCd=130&Type=search", "url2": "http://www.hospitown.or.jp" }, "geometry": { "type": "Point", "coordinates": [ 133.3110285, 35.457018700000035 ] } },
{ "type": "Feature", "properties": { "内容": "いきいき訪問看護ステーション【訪問看護】鳥取県米子市彦名町8番地1", "url": "https://www.kaigokensaku.mhlw.go.jp/31/index.php?action_kouhyou_detail_004_kani=true&JigyosyoCd=3160290197-00&ServiceCd=130&Type=search", "url2": "http://www.medicalcare.jp/" }, "geometry": { "type": "Point", "coordinates": [ 133.303993499999933, 35.4420812 ] } },
{ "type": "Feature", "properties": { "内容": "いきいき訪問看護ステーション灘町【訪問看護】鳥取県米子市灘町3-76いきいきシニアステージ灘町", "url": "https://www.kaigokensaku.mhlw.go.jp/31/index.php?action_kouhyou_detail_004_kani=true&JigyosyoCd=3160290262-00&ServiceCd=130&Type=search", "url2": "http://www.medicalcare.jp" }, "geometry": { "type": "Point", "coordinates": [ 133.324078, 35.4363373 ] } },
{ "type": "Feature", "properties": { "内容": "訪問看護ステーション　ふる里【訪問看護】鳥取県米子市和田町１７２２番地", "url": "https://www.kaigokensaku.mhlw.go.jp/31/index.php?action_kouhyou_detail_004_kani=true&JigyosyoCd=3160290320-00&ServiceCd=130&Type=search", "url2": "http://www.hospitown.or.jp/" }, "geometry": { "type": "Point", "coordinates": [ 133.2678151, 35.4851095 ] } },
{ "type": "Feature", "properties": { "内容": "すまいる訪問看護リハビリステーション【訪問看護】鳥取県米子市両三柳693-3", "url": "https://www.kaigokensaku.mhlw.go.jp/31/index.php?action_kouhyou_detail_004_kani=true&JigyosyoCd=3160290353-00&ServiceCd=130&Type=search", "url2": "https://smile-oct.com" }, "geometry": { "type": "Point", "coordinates": [ 133.318577900000037, 35.4537829 ] } },
{ "type": "Feature", "properties": { "内容": "こころね訪問看護ステーション観音寺新町【訪問看護】米子市観音寺新町4丁目6-20シニアステージ観音寺新町", "url": "https://www.kaigokensaku.mhlw.go.jp/31/index.php?action_kouhyou_detail_004_kani=true&JigyosyoCd=3160290379-00&ServiceCd=130&Type=search", "url2": null }, "geometry": { "type": "Point", "coordinates": [ 133.360992, 35.4241699 ] } },
{ "type": "Feature", "properties": { "内容": "ぱぷりか訪問看護ステーション【訪問看護】鳥取県米子市福市1685番地9", "url": "https://www.kaigokensaku.mhlw.go.jp/31/index.php?action_kouhyou_detail_004_kani=true&JigyosyoCd=3160290437-00&ServiceCd=130&Type=search", "url2": "https://paprika-n.jp" }, "geometry": { "type": "Point", "coordinates": [ 133.373701555819736, 35.39974311910143 ] } },
{ "type": "Feature", "properties": { "内容": "いきいき訪問看護ステーション上後藤【訪問看護】上後藤4丁目16番1号", "url": "https://www.kaigokensaku.mhlw.go.jp/31/index.php?action_kouhyou_detail_004_kani=true&JigyosyoCd=3160290502-00&ServiceCd=130&Type=search", "url2": "http://www.medicalcare.jp" }, "geometry": { "type": "Point", "coordinates": [ 133.3178084, 35.4452689 ] } },
{ "type": "Feature", "properties": { "内容": "訪問看護ステーションなんぶ幸朋苑【訪問看護】鳥取県米子市石井1238番地", "url": "https://www.kaigokensaku.mhlw.go.jp/31/index.php?action_kouhyou_detail_004_kani=true&JigyosyoCd=3160290072-00&ServiceCd=130&Type=search", "url2": "http://www.kohoen.jp" }, "geometry": { "type": "Point", "coordinates": [ 133.35145250000005, 35.4022552 ] } },
{ "type": "Feature", "properties": { "内容": "訪問看護ステーション米子東【訪問看護】鳥取県米子市淀江町佐陀2169", "url": "https://www.kaigokensaku.mhlw.go.jp/31/index.php?action_kouhyou_detail_004_kani=true&JigyosyoCd=3160290221-00&ServiceCd=130&Type=search", "url2": "https://www.med-wel.jp/yonagohi/home-service/visit-nurse/" }, "geometry": { "type": "Point", "coordinates": [ 133.395582157949804, 35.452165702657368 ] } },
{ "type": "Feature", "properties": { "内容": "ライブアシスト訪問看護ステーション【訪問看護】鳥取県米子市長砂町300-3", "url": "https://www.kaigokensaku.mhlw.go.jp/31/index.php?action_kouhyou_detail_004_kani=true&JigyosyoCd=3160290270-00&ServiceCd=130&Type=search", "url2": "http://y-liveassist.com" }, "geometry": { "type": "Point", "coordinates": [ 133.35281656071993, 35.422674621768259 ] } },
{ "type": "Feature", "properties": { "内容": "いきいき訪問看護ステーション西福原【訪問看護】鳥取県米子市西福原5丁目6番39号", "url": "https://www.kaigokensaku.mhlw.go.jp/31/index.php?action_kouhyou_detail_004_kani=true&JigyosyoCd=3160290296-00&ServiceCd=130&Type=search", "url2": "www.medicalcare.jp" }, "geometry": { "type": "Point", "coordinates": [ 133.340388, 35.4464785 ] } },
{ "type": "Feature", "properties": { "内容": "こころね訪問看護ステーション錦町【訪問看護】鳥取県米子市米原1-1-1シニアステージ錦町", "url": "https://www.kaigokensaku.mhlw.go.jp/31/index.php?action_kouhyou_detail_004_kani=true&JigyosyoCd=3160290395-00&ServiceCd=130&Type=search", "url2": null }, "geometry": { "type": "Point", "coordinates": [ 133.329687930024704, 35.439968346365191 ] } },
{ "type": "Feature", "properties": { "内容": "こころね訪問看護ステーション西福原【訪問看護】鳥取県米子市西福原5丁目5番33号シニアステージ西福原", "url": "https://www.kaigokensaku.mhlw.go.jp/31/index.php?action_kouhyou_detail_004_kani=true&JigyosyoCd=3160290445-00&ServiceCd=130&Type=search", "url2": null }, "geometry": { "type": "Point", "coordinates": [ 133.339224520237735, 35.447308899858584 ] } },
{ "type": "Feature", "properties": { "内容": "有限会社新生ケア・サービス訪問看護ステーション【訪問看護】鳥取県米子市熊党200-1", "url": "https://www.kaigokensaku.mhlw.go.jp/31/index.php?action_kouhyou_detail_004_kani=true&JigyosyoCd=3160290148-00&ServiceCd=130&Type=search", "url2": "https://www.shinsei-care-service.com/" }, "geometry": { "type": "Point", "coordinates": [ 133.3758, 35.4291973 ] } },
{ "type": "Feature", "properties": { "内容": "訪問看護ステーション　ハートケア【訪問看護】鳥取県米子市角盤町３丁目１２４－３", "url": "https://www.kaigokensaku.mhlw.go.jp/31/index.php?action_kouhyou_detail_004_kani=true&JigyosyoCd=3160290189-00&ServiceCd=130&Type=search", "url2": "http://www.careservice-yonago.ecnet.jp" }, "geometry": { "type": "Point", "coordinates": [ 133.323547100000042, 35.4478918 ] } },
{ "type": "Feature", "properties": { "内容": "まごころ訪問看護ステ－ション【訪問看護】鳥取県米子市皆生新田１丁目７-４１", "url": "https://www.kaigokensaku.mhlw.go.jp/31/index.php?action_kouhyou_detail_004_kani=true&JigyosyoCd=3160290213-00&ServiceCd=130&Type=search", "url2": "http://www.yuyu-yonago.co.jp/kaisya/homon/station.html" }, "geometry": { "type": "Point", "coordinates": [ 133.363643848904417, 35.450515853542285 ] } },
{ "type": "Feature", "properties": { "内容": "訪問看護リハビリステーション　ラビット【訪問看護】鳥取県米子市熊党181-2", "url": "https://www.kaigokensaku.mhlw.go.jp/31/index.php?action_kouhyou_detail_004_kani=true&JigyosyoCd=3160290361-00&ServiceCd=130&Type=search", "url2": "https//www.loh.co.jp" }, "geometry": { "type": "Point", "coordinates": [ 133.377086700000064, 35.428953300000011 ] } },
{ "type": "Feature", "properties": { "内容": "訪問看護ステーション仁風荘【訪問看護】鳥取県米子市彦名町964-1", "url": "https://www.kaigokensaku.mhlw.go.jp/31/index.php?action_kouhyou_detail_004_kani=true&JigyosyoCd=3160290049-00&ServiceCd=130&Type=search", "url2": "http://www.yowakai.com" }, "geometry": { "type": "Point", "coordinates": [ 133.298890123942556, 35.448910910434847 ] } },
{ "type": "Feature", "properties": { "内容": "訪問看護ステーションすけっと【訪問看護】鳥取県米子市水浜21", "url": "https://www.kaigokensaku.mhlw.go.jp/31/index.php?action_kouhyou_detail_004_kani=true&JigyosyoCd=3160290312-00&ServiceCd=130&Type=search", "url2": null }, "geometry": { "type": "Point", "coordinates": [ 133.392240341941829, 35.403967869536501 ] } },
{ "type": "Feature", "properties": { "内容": "訪問看護ステーション仁風荘こうやまち【訪問看護】鳥取県米子市紺屋町104-2", "url": "https://www.kaigokensaku.mhlw.go.jp/31/index.php?action_kouhyou_detail_004_kani=true&JigyosyoCd=3160290510-00&ServiceCd=130&Type=search", "url2": "https://www.yowakai.com/" }, "geometry": { "type": "Point", "coordinates": [ 133.334611, 35.428913 ] } },
{ "type": "Feature", "properties": { "内容": "米子医療生活協同組合COOP訪問看護ステーションなないろ【訪問看護】鳥取県米子市博労町3丁目80-1", "url": "https://www.kaigokensaku.mhlw.go.jp/31/index.php?action_kouhyou_detail_004_kani=true&JigyosyoCd=3160290130-00&ServiceCd=130&Type=search", "url2": "http;//www,ymc-net,or,jp/" }, "geometry": { "type": "Point", "coordinates": [ 133.338932800000066, 35.4341574 ] } },
{ "type": "Feature", "properties": { "内容": "のぐち内科クリニック【訪問看護】鳥取県倉吉市上井町1丁目8番地5", "url": "https://www.kaigokensaku.mhlw.go.jp/31/index.php?action_kouhyou_detail_004_kani=true&JigyosyoCd=3110311473-00&ServiceCd=130&Type=search", "url2": "http://www.noguchi-naika.info" }, "geometry": { "type": "Point", "coordinates": [ 133.851144299999987, 35.4530561 ] } },
{ "type": "Feature", "properties": { "内容": "訪問看護ステーションしみず【訪問看護】鳥取県倉吉市宮川町129", "url": "https://www.kaigokensaku.mhlw.go.jp/31/index.php?action_kouhyou_detail_004_kani=true&JigyosyoCd=3160390104-00&ServiceCd=130&Type=search", "url2": null }, "geometry": { "type": "Point", "coordinates": [ 133.833982449479919, 35.433841625474663 ] } },
{ "type": "Feature", "properties": { "内容": "医療法人清生会　谷口病院【訪問看護】上井町1丁目13", "url": "https://www.kaigokensaku.mhlw.go.jp/31/index.php?action_kouhyou_detail_004_kani=true&JigyosyoCd=3110310459-00&ServiceCd=130&Type=search", "url2": "https://www.seiseikai.jp/" }, "geometry": { "type": "Point", "coordinates": [ 133.8503518, 35.4516203 ] } },
{ "type": "Feature", "properties": { "内容": "訪問看護ステーションのぐち【訪問看護】鳥取県倉吉市上井町1丁目8-5", "url": "https://www.kaigokensaku.mhlw.go.jp/31/index.php?action_kouhyou_detail_004_kani=true&JigyosyoCd=3160390112-00&ServiceCd=130&Type=search", "url2": "www.noguchi-naika.info" }, "geometry": { "type": "Point", "coordinates": [ 133.851144299999987, 35.4530561 ] } },
{ "type": "Feature", "properties": { "内容": "訪問看護リハビリステーションのじま【訪問看護】鳥取県倉吉市瀬崎町2714-1", "url": "https://www.kaigokensaku.mhlw.go.jp/31/index.php?action_kouhyou_detail_004_kani=true&JigyosyoCd=3160390047-00&ServiceCd=130&Type=search", "url2": "http;//www.nojima-hospital.jp/" }, "geometry": { "type": "Point", "coordinates": [ 133.819186599999966, 35.4314068 ] } },
{ "type": "Feature", "properties": { "内容": "みつば訪問看護ステーション【訪問看護】鳥取県倉吉市上米積1129-1", "url": "https://www.kaigokensaku.mhlw.go.jp/31/index.php?action_kouhyou_detail_004_kani=true&JigyosyoCd=3160390120-00&ServiceCd=130&Type=search", "url2": "https://www.mitsuba-n.jp" }, "geometry": { "type": "Point", "coordinates": [ 133.7621146, 35.4232856 ] } },
{ "type": "Feature", "properties": { "内容": "訪問看護リハビリステーション　　くらよし【訪問看護】鳥取県倉吉市山根43-1番地", "url": "https://www.kaigokensaku.mhlw.go.jp/31/index.php?action_kouhyou_detail_004_kani=true&JigyosyoCd=3160390062-00&ServiceCd=130&Type=search", "url2": "https://www.med-wel.jp/fujii/houmon/" }, "geometry": { "type": "Point", "coordinates": [ 133.856291400000032, 35.4507806 ] } },
{ "type": "Feature", "properties": { "内容": "医療法人清和会　　訪問看護ステーションせいわ【訪問看護】鳥取県倉吉市上井303-2", "url": "https://www.kaigokensaku.mhlw.go.jp/31/index.php?action_kouhyou_detail_004_kani=true&JigyosyoCd=3160390013-00&ServiceCd=130&Type=search", "url2": "https://seiwa-med.jp/houmonkango-seiwa/" }, "geometry": { "type": "Point", "coordinates": [ 133.845898481039995, 35.453319751261191 ] } },
{ "type": "Feature", "properties": { "内容": "こころね訪問看護ステーション【訪問看護】鳥取県倉吉市伊木２１７番地", "url": "https://www.kaigokensaku.mhlw.go.jp/31/index.php?action_kouhyou_detail_004_kani=true&JigyosyoCd=3160390096-00&ServiceCd=130&Type=search", "url2": "www.medicalcare.jp" }, "geometry": { "type": "Point", "coordinates": [ 133.848264299999983, 35.4473114 ] } },
{ "type": "Feature", "properties": { "内容": "訪問看護ステーションひまわり【訪問看護】鳥取県倉吉市東昭和町158番地", "url": "https://www.kaigokensaku.mhlw.go.jp/31/index.php?action_kouhyou_detail_004_kani=true&JigyosyoCd=3160390070-00&ServiceCd=130&Type=search", "url2": "http://www.siseikai.com/" }, "geometry": { "type": "Point", "coordinates": [ 133.839673162565674, 35.436731363771194 ] } },
{ "type": "Feature", "properties": { "内容": "訪問看護ステーションさかい幸朋苑【訪問看護】鳥取県境港市誠道町2082番地", "url": "https://www.kaigokensaku.mhlw.go.jp/31/index.php?action_kouhyou_detail_004_kani=true&JigyosyoCd=3160490029-00&ServiceCd=130&Type=search", "url2": "http://www.kohoen.jp" }, "geometry": { "type": "Point", "coordinates": [ 133.23531980000007, 35.5185576 ] } },
{ "type": "Feature", "properties": { "内容": "いきいき訪問看護ステーション境港【訪問看護】鳥取県境港市馬場崎町312", "url": "https://www.kaigokensaku.mhlw.go.jp/31/index.php?action_kouhyou_detail_004_kani=true&JigyosyoCd=3160400010-00&ServiceCd=130&Type=search", "url2": null }, "geometry": { "type": "Point", "coordinates": [ 133.22895589999996, 35.5387639 ] } },
{ "type": "Feature", "properties": { "内容": "鳥取県済生会訪問看護ステーション白鴎【訪問看護】鳥取県境港市米川町44", "url": "https://www.kaigokensaku.mhlw.go.jp/31/index.php?action_kouhyou_detail_004_kani=true&JigyosyoCd=3160490037-00&ServiceCd=130&Type=search", "url2": "http://www.sakaiminato-saiseikai.jp" }, "geometry": { "type": "Point", "coordinates": [ 133.223675599999979, 35.5394111 ] } },
{ "type": "Feature", "properties": { "内容": "こころね訪問看護ステーション浜ノ町62-1【訪問看護】鳥取県境港市浜ノ町62-1シニアステージ浜ノ町内に併設", "url": "https://www.kaigokensaku.mhlw.go.jp/31/index.php?action_kouhyou_detail_004_kani=true&JigyosyoCd=3160490102-00&ServiceCd=130&Type=search", "url2": null }, "geometry": { "type": "Point", "coordinates": [ 133.222309599999988, 35.5427268 ] } },
{ "type": "Feature", "properties": { "内容": "こころね訪問看護ステーション中野町【訪問看護】鳥取県境港市中野町5285-1", "url": "https://www.kaigokensaku.mhlw.go.jp/31/index.php?action_kouhyou_detail_004_kani=true&JigyosyoCd=3160490078-00&ServiceCd=130&Type=search", "url2": null }, "geometry": { "type": "Point", "coordinates": [ 133.232520420901494, 35.532891873643749 ] } },
{ "type": "Feature", "properties": { "内容": "岩美町訪問看護ステーション【訪問看護】鳥取県岩美郡岩美町大字浦富1029番地2", "url": "https://www.kaigokensaku.mhlw.go.jp/31/index.php?action_kouhyou_detail_004_kani=true&JigyosyoCd=3161190032-00&ServiceCd=130&Type=search", "url2": "http://www.iwami-hp.jp" }, "geometry": { "type": "Point", "coordinates": [ 134.33363764232783, 35.573706273022523 ] } },
{ "type": "Feature", "properties": { "内容": "智頭病院訪問看護ステーション【訪問看護】鳥取県八頭郡智頭町大字智頭1875番地", "url": "https://www.kaigokensaku.mhlw.go.jp/31/index.php?action_kouhyou_detail_004_kani=true&JigyosyoCd=3161200013-00&ServiceCd=130&Type=search", "url2": "https://www2.town.chizu.tottori.jp" }, "geometry": { "type": "Point", "coordinates": [ 134.22416778650819, 35.263574717204655 ] } },
{ "type": "Feature", "properties": { "内容": "訪問看護リハビリステーション三朝温泉病院【訪問看護】鳥取県東伯郡三朝町山田690三朝温泉病院内", "url": "https://www.kaigokensaku.mhlw.go.jp/31/index.php?action_kouhyou_detail_004_kani=true&JigyosyoCd=3161490077-00&ServiceCd=130&Type=search", "url2": "http://www.hosp.misasa.tottori.jp/section/houmonkango/index.html" }, "geometry": { "type": "Point", "coordinates": [ 133.882884900000022, 35.4134823 ] } },
{ "type": "Feature", "properties": { "内容": "訪問看護ステーションゆりはま【訪問看護】鳥取県東伯郡湯梨浜町田後224-１", "url": "https://www.kaigokensaku.mhlw.go.jp/31/index.php?action_kouhyou_detail_004_kani=true&JigyosyoCd=3161490069-00&ServiceCd=130&Type=search", "url2": "https://www.lifecare-y.jp" }, "geometry": { "type": "Point", "coordinates": [ 133.856685299999981, 35.4842044 ] } },
{ "type": "Feature", "properties": { "内容": "訪問看護ステーション大栄【訪問看護】鳥取県東伯郡北栄町瀬戸38-5", "url": "https://www.kaigokensaku.mhlw.go.jp/31/index.php?action_kouhyou_detail_004_kani=true&JigyosyoCd=3161490085-00&ServiceCd=130&Type=search", "url2": "http://seiikai.hp.gogo.jp" }, "geometry": { "type": "Point", "coordinates": [ 133.776971839293424, 35.483047117618788 ] } },
{ "type": "Feature", "properties": { "内容": "はまなす訪問看護ステーション【訪問看護】鳥取県西伯郡大山町田中1383", "url": "https://www.kaigokensaku.mhlw.go.jp/31/index.php?action_kouhyou_detail_004_kani=true&JigyosyoCd=3161590090-00&ServiceCd=130&Type=search", "url2": "https://sasakicl-hamanasu.jp/" }, "geometry": { "type": "Point", "coordinates": [ 133.588916700000027, 35.5200274 ] } },
{ "type": "Feature", "properties": { "内容": "南部町訪問看護ステーション【訪問看護】鳥取県西伯郡南部町倭３９７", "url": "https://www.kaigokensaku.mhlw.go.jp/31/index.php?action_kouhyou_detail_004_kani=true&JigyosyoCd=3161590124-00&ServiceCd=130&Type=search", "url2": "http://www.saihaku-hospital.com" }, "geometry": { "type": "Point", "coordinates": [ 133.325482100000045, 35.3477491 ] } },
{ "type": "Feature", "properties": { "内容": "日南町国民健康保険　日南病院【訪問看護】鳥取県日野郡日南町生山５１１番地７", "url": "https://www.kaigokensaku.mhlw.go.jp/31/index.php?action_kouhyou_detail_004_kani=true&JigyosyoCd=3111610162-00&ServiceCd=130&Type=search", "url2": "http://nichinan-hospital.jp/" }, "geometry": { "type": "Point", "coordinates": [ 133.320106900000042, 35.1660665 ] } },
{ "type": "Feature", "properties": { "内容": "日野病院組合　訪問看護ステーション【訪問看護】鳥取県日野郡日野町野田332番地", "url": "https://www.kaigokensaku.mhlw.go.jp/31/index.php?action_kouhyou_detail_004_kani=true&JigyosyoCd=3161690007-00&ServiceCd=130&Type=search", "url2": "http://www.hinohp.com" }, "geometry": { "type": "Point", "coordinates": [ 133.435953700000027, 35.2361501 ] } },
{ "type": "Feature", "properties": { "内容": "江府町国民健康保険江尾診療所【訪問看護】鳥取県日野郡江府町江尾2088番地5", "url": "https://www.kaigokensaku.mhlw.go.jp/31/index.php?action_kouhyou_detail_004_kani=true&JigyosyoCd=3111610352-00&ServiceCd=130&Type=search", "url2": "http://www.town-kofu.jp/ebiclinic/" }, "geometry": { "type": "Point", "coordinates": [ 133.484972699999958, 35.282709300000015 ] } }
]
}
