{
"type": "FeatureCollection",
"name": "geo_31_義務教育学校",
"crs": { "type": "name", "properties": { "name": "urn:ogc:def:crs:EPSG::6668" } },
"features": [
{ "type": "Feature", "properties": { "P29_001": "31201", "P29_002": "C231210000019", "P29_003": "16014", "P29_004": "鳥取市立湖南学園", "P29_005": "鳥取県鳥取市六反田1-5", "P29_006": "3", "P29_007": "1", "P29_008": "00", "P29_009": null }, "geometry": { "type": "Point", "coordinates": [ 134.13020904148118, 35.488535431552435 ] } },
{ "type": "Feature", "properties": { "P29_001": "31201", "P29_002": "C231210000028", "P29_003": "16014", "P29_004": "鳥取市立福部未来学園", "P29_005": "鳥取県鳥取市福部町高江188", "P29_006": "3", "P29_007": "1", "P29_008": "00", "P29_009": null }, "geometry": { "type": "Point", "coordinates": [ 134.282100332445452, 35.543874838739988 ] } },
{ "type": "Feature", "properties": { "P29_001": "31201", "P29_002": "C231210000037", "P29_003": "16014", "P29_004": "鳥取市立鹿野学園", "P29_005": "鳥取県鳥取市鹿野町鹿野2888", "P29_006": "3", "P29_007": "1", "P29_008": "00", "P29_009": null }, "geometry": { "type": "Point", "coordinates": [ 134.055680014400224, 35.46062529574057 ] } },
{ "type": "Feature", "properties": { "P29_001": "31201", "P29_002": "C231210000046", "P29_003": "16014", "P29_004": "鳥取市立江山学園", "P29_005": "鳥取県鳥取市竹生64", "P29_006": "3", "P29_007": "1", "P29_008": "00", "P29_009": null }, "geometry": { "type": "Point", "coordinates": [ 134.20412800468867, 35.454149998301588 ] } },
{ "type": "Feature", "properties": { "P29_001": "31403", "P29_002": "C231210000055", "P29_003": "16014", "P29_004": "江府町立奥大山江府学園", "P29_005": "鳥取県日野郡江府町洲河崎85", "P29_006": "3", "P29_007": "1", "P29_008": "00", "P29_009": null }, "geometry": { "type": "Point", "coordinates": [ 133.481513263159798, 35.278795275769284 ] } },
{ "type": "Feature", "properties": { "P29_001": "31402", "P29_002": "C231210000064", "P29_003": "16014", "P29_004": "日野町立日野学園", "P29_005": "鳥取県日野郡日野町野田271", "P29_006": "3", "P29_007": "1", "P29_008": "00", "P29_009": null }, "geometry": { "type": "Point", "coordinates": [ 133.436982816632764, 35.236865880781473 ] } }
]
}
