{
"type": "FeatureCollection",
"name": "geo_31_訪問リハビリテーション",
"crs": { "type": "name", "properties": { "name": "urn:ogc:def:crs:OGC:1.3:CRS84" } },
"features": [
{ "type": "Feature", "properties": { "内容": "鳥取市立病院【訪問リハビリテーション】鳥取市的場1-1", "url": "https://www.kaigokensaku.mhlw.go.jp/31/index.php?action_kouhyou_detail_004_kani=true&JigyosyoCd=3170102572-00&ServiceCd=140&Type=search", "url2": "http://hospital.tottori.tottori.jp/" }, "geometry": { "type": "Point", "coordinates": [ 134.2347284, 35.4741191 ] } },
{ "type": "Feature", "properties": { "内容": "鳥取市佐治町国民健康保険診療所（医科）【訪問リハビリテーション】鳥取県鳥取市佐治町加瀬木2171－2", "url": "https://www.kaigokensaku.mhlw.go.jp/31/index.php?action_kouhyou_detail_004_kani=true&JigyosyoCd=3170102861-00&ServiceCd=140&Type=search", "url2": "http://www.city.tottori.lg.jp" }, "geometry": { "type": "Point", "coordinates": [ 134.118392399999948, 35.330608 ] } },
{ "type": "Feature", "properties": { "内容": "介護老人保健施設ウェルケアいなば　訪問リハビリテーション【訪問リハビリテーション】鳥取県鳥取市河原町稲常463番地介護老人保健施設ウェルケアいなば", "url": "https://www.kaigokensaku.mhlw.go.jp/31/index.php?action_kouhyou_detail_004_kani=true&JigyosyoCd=3150180309-00&ServiceCd=140&Type=search", "url2": "http://www.tokuwakai.jp" }, "geometry": { "type": "Point", "coordinates": [ 134.2079766, 35.4233444 ] } },
{ "type": "Feature", "properties": { "内容": "医療法人社団　野の花診療所【訪問リハビリテーション】鳥取市行徳３丁目４３１番地", "url": "https://www.kaigokensaku.mhlw.go.jp/31/index.php?action_kouhyou_detail_004_kani=true&JigyosyoCd=3110112921-00&ServiceCd=140&Type=search", "url2": "http://nonohana.no.coocan.jp" }, "geometry": { "type": "Point", "coordinates": [ 134.222151, 35.5006771 ] } },
{ "type": "Feature", "properties": { "内容": "老人保健施設はまゆう　訪問リハビリテーション【訪問リハビリテーション】鳥取県鳥取市野寺６２番地１", "url": "https://www.kaigokensaku.mhlw.go.jp/31/index.php?action_kouhyou_detail_004_kani=true&JigyosyoCd=3150180234-00&ServiceCd=140&Type=search", "url2": "http://www.hamayu.or.jp/" }, "geometry": { "type": "Point", "coordinates": [ 134.205226, 35.4740964 ] } },
{ "type": "Feature", "properties": { "内容": "訪問リハビリテーション事業所　にしまち幸朋苑【訪問リハビリテーション】鳥取県鳥取市西町5-108", "url": "https://www.kaigokensaku.mhlw.go.jp/31/index.php?action_kouhyou_detail_004_kani=true&JigyosyoCd=3170102986-00&ServiceCd=140&Type=search", "url2": "http://www.kohoen.jp" }, "geometry": { "type": "Point", "coordinates": [ 134.2330081, 35.5068208 ] } },
{ "type": "Feature", "properties": { "内容": "さとに訪問リハビリテーション【訪問リハビリテーション】鳥取県鳥取市里仁54番地2", "url": "https://www.kaigokensaku.mhlw.go.jp/31/index.php?action_kouhyou_detail_004_kani=true&JigyosyoCd=3170103588-00&ServiceCd=140&Type=search", "url2": "http://www.satoni-denen-clinic.jp/contact/" }, "geometry": { "type": "Point", "coordinates": [ 134.193752350926218, 35.502625168454834 ] } },
{ "type": "Feature", "properties": { "内容": "訪問リハビリテーションこくふ【訪問リハビリテーション】鳥取県鳥取市国府町新通り2丁目202", "url": "https://www.kaigokensaku.mhlw.go.jp/31/index.php?action_kouhyou_detail_004_kani=true&JigyosyoCd=3110113853-00&ServiceCd=140&Type=search", "url2": "http://www.ckokufu.smz-hp.net/rehabilitation_info.html#houmon_reha" }, "geometry": { "type": "Point", "coordinates": [ 134.253173699999934, 35.4816682 ] } },
{ "type": "Feature", "properties": { "内容": "訪問リハビリテーション陽まり【訪問リハビリテーション】鳥取県鳥取市南吉方3丁目522番地", "url": "https://www.kaigokensaku.mhlw.go.jp/31/index.php?action_kouhyou_detail_004_kani=true&JigyosyoCd=3110113945-00&ServiceCd=140&Type=search", "url2": "https://satoni-himari.jp/" }, "geometry": { "type": "Point", "coordinates": [ 134.243051799999989, 35.4867272 ] } },
{ "type": "Feature", "properties": { "内容": "訪問リハビリテーションおざき【訪問リハビリテーション】鳥取県鳥取市湖山町北2丁目555番地", "url": "https://www.kaigokensaku.mhlw.go.jp/31/index.php?action_kouhyou_detail_004_kani=true&JigyosyoCd=3110112137-00&ServiceCd=140&Type=search", "url2": "http://www.ozakihp.or.jp/" }, "geometry": { "type": "Point", "coordinates": [ 134.17398819999994, 35.5226119 ] } },
{ "type": "Feature", "properties": { "内容": "訪問リハビリテーション　ル・サンテリオン鹿野【訪問リハビリテーション】鳥取県鳥取市鹿野町今市80", "url": "https://www.kaigokensaku.mhlw.go.jp/31/index.php?action_kouhyou_detail_004_kani=true&JigyosyoCd=3151380205-00&ServiceCd=140&Type=search", "url2": "http://www.med-wel.jp/shikano" }, "geometry": { "type": "Point", "coordinates": [ 134.050502899999969, 35.4605806 ] } },
{ "type": "Feature", "properties": { "内容": "鳥取医療生協　鹿野温泉病院　訪問リハビリテーション【訪問リハビリテーション】鳥取県鳥取市鹿野町今市242", "url": "https://www.kaigokensaku.mhlw.go.jp/31/index.php?action_kouhyou_detail_004_kani=true&JigyosyoCd=3110113184-00&ServiceCd=140&Type=search", "url2": "https://shikano.mcoop-tottori.jp/" }, "geometry": { "type": "Point", "coordinates": [ 134.0504559, 35.462163 ] } },
{ "type": "Feature", "properties": { "内容": "ウェルフェア北園渡辺病院【訪問リハビリテーション】鳥取県鳥取市覚寺181", "url": "https://www.kaigokensaku.mhlw.go.jp/31/index.php?action_kouhyou_detail_004_kani=true&JigyosyoCd=3170103828-00&ServiceCd=140&Type=search", "url2": "http//mmwc.co.jp/" }, "geometry": { "type": "Point", "coordinates": [ 134.233635400000026, 35.5235243 ] } },
{ "type": "Feature", "properties": { "内容": "さくま内科・脳神経内科クリニック【訪問リハビリテーション】鳥取県米子市長砂町59-1", "url": "https://www.kaigokensaku.mhlw.go.jp/31/index.php?action_kouhyou_detail_004_kani=true&JigyosyoCd=3110213521-00&ServiceCd=140&Type=search", "url2": "sakumaclinic.net" }, "geometry": { "type": "Point", "coordinates": [ 133.351143399999955, 35.4258557 ] } },
{ "type": "Feature", "properties": { "内容": "訪問リハビリテーション　ゆうとぴあ【訪問リハビリテーション】鳥取県米子市河崎581-3", "url": "https://www.kaigokensaku.mhlw.go.jp/31/index.php?action_kouhyou_detail_004_kani=true&JigyosyoCd=3150280117-00&ServiceCd=140&Type=search", "url2": "http://www.hospitown.or.jp/" }, "geometry": { "type": "Point", "coordinates": [ 133.31102850000002, 35.4570187 ] } },
{ "type": "Feature", "properties": { "内容": "訪問リハビリテーション　弓浜ゆうとぴあ【訪問リハビリテーション】鳥取県米子市大崎1511-1", "url": "https://www.kaigokensaku.mhlw.go.jp/31/index.php?action_kouhyou_detail_004_kani=true&JigyosyoCd=3170202950-00&ServiceCd=140&Type=search", "url2": "http://www.hospitown.or.jp/" }, "geometry": { "type": "Point", "coordinates": [ 133.2530832, 35.4736494 ] } },
{ "type": "Feature", "properties": { "内容": "訪問リハビリテーション弓浜ゆうとぴあ【訪問リハビリテーション】鳥取県米子市大崎1511-1", "url": "https://www.kaigokensaku.mhlw.go.jp/31/index.php?action_kouhyou_detail_004_kani=true&JigyosyoCd=3150280265-00&ServiceCd=140&Type=search", "url2": "http://www.hospitown.or.jp" }, "geometry": { "type": "Point", "coordinates": [ 133.253133, 35.4736696 ] } },
{ "type": "Feature", "properties": { "内容": "ユニット型介護老人保健施設仁風荘【訪問リハビリテーション】鳥取県米子市上後藤3-5-1", "url": "https://www.kaigokensaku.mhlw.go.jp/31/index.php?action_kouhyou_detail_004_kani=true&JigyosyoCd=3170202562-00&ServiceCd=140&Type=search", "url2": "http://www.yowakai.com/" }, "geometry": { "type": "Point", "coordinates": [ 133.31808190000001, 35.4484183 ] } },
{ "type": "Feature", "properties": { "内容": "医療法人明勝会　住吉内科眼科クリニック【訪問リハビリテーション】鳥取県米子市安倍２００番地１平成ビル　１階", "url": "https://www.kaigokensaku.mhlw.go.jp/31/index.php?action_kouhyou_detail_004_kani=true&JigyosyoCd=3110213570-00&ServiceCd=140&Type=search", "url2": "https://www.sumiyoshi-clinic.jp/index.php" }, "geometry": { "type": "Point", "coordinates": [ 133.305251699999985, 35.4402869 ] } },
{ "type": "Feature", "properties": { "内容": "訪問リハビリテーション博愛【訪問リハビリテーション】鳥取県米子市両三柳1880", "url": "https://www.kaigokensaku.mhlw.go.jp/31/index.php?action_kouhyou_detail_004_kani=true&JigyosyoCd=3110211079-00&ServiceCd=140&Type=search", "url2": "https://www.hakuai.doaikai.jp/" }, "geometry": { "type": "Point", "coordinates": [ 133.319189034157262, 35.45627938744591 ] } },
{ "type": "Feature", "properties": { "内容": "真誠会セントラルクリニック訪問リハビリテーション【訪問リハビリテーション】鳥取県米子市河崎580ほっとケアセンター", "url": "https://www.kaigokensaku.mhlw.go.jp/31/index.php?action_kouhyou_detail_004_kani=true&JigyosyoCd=3110212184-00&ServiceCd=140&Type=search", "url2": "http://www.hospitown.or.jp" }, "geometry": { "type": "Point", "coordinates": [ 133.311169310450737, 35.457787162005687 ] } },
{ "type": "Feature", "properties": { "内容": "錦海リハビリテーション病院【訪問リハビリテーション】鳥取県米子市錦海町３丁目４番５号", "url": "https://www.kaigokensaku.mhlw.go.jp/31/index.php?action_kouhyou_detail_004_kani=true&JigyosyoCd=3110213182-00&ServiceCd=140&Type=search", "url2": "http://www.kinkai-rehab.jp/" }, "geometry": { "type": "Point", "coordinates": [ 133.319946, 35.4187726 ] } },
{ "type": "Feature", "properties": { "内容": "訪問リハビリテーション米子東【訪問リハビリテーション】鳥取県米子市淀江町佐陀2169", "url": "https://www.kaigokensaku.mhlw.go.jp/31/index.php?action_kouhyou_detail_004_kani=true&JigyosyoCd=3110213299-00&ServiceCd=140&Type=search", "url2": "https://www.med-wel.jp/yonagohi/home-service/visit-reha/" }, "geometry": { "type": "Point", "coordinates": [ 133.395511700000043, 35.452123 ] } },
{ "type": "Feature", "properties": { "内容": "訪問リハビリテーション事業所　なんぶ幸朋苑【訪問リハビリテーション】鳥取県米子市石井1238番地", "url": "https://www.kaigokensaku.mhlw.go.jp/31/index.php?action_kouhyou_detail_004_kani=true&JigyosyoCd=3170203255-00&ServiceCd=140&Type=search", "url2": "https://www.kohoen.jp/" }, "geometry": { "type": "Point", "coordinates": [ 133.351114, 35.4021261 ] } },
{ "type": "Feature", "properties": { "内容": "COOP訪問リハビリテーションピース【訪問リハビリテーション】鳥取県米子市尾高2740-1", "url": "https://www.kaigokensaku.mhlw.go.jp/31/index.php?action_kouhyou_detail_004_kani=true&JigyosyoCd=3110212382-00&ServiceCd=140&Type=search", "url2": "https://www.ymc-net.or.jp/facility/homevisit-rehabilitation-peace/" }, "geometry": { "type": "Point", "coordinates": [ 133.4062083, 35.4246427 ] } },
{ "type": "Feature", "properties": { "内容": "訪問リハビリテーション　ル・サンテリオン【訪問リハビリテーション】鳥取県倉吉市山根５５-２３３", "url": "https://www.kaigokensaku.mhlw.go.jp/31/index.php?action_kouhyou_detail_004_kani=true&JigyosyoCd=3150380024-00&ServiceCd=140&Type=search", "url2": "https://www.med-wel.jp/" }, "geometry": { "type": "Point", "coordinates": [ 133.857735700000035, 35.4524693 ] } },
{ "type": "Feature", "properties": { "内容": "老健のじま訪問リハビリセンター【訪問リハビリテーション】瀬崎町2714-1", "url": "https://www.kaigokensaku.mhlw.go.jp/31/index.php?action_kouhyou_detail_004_kani=true&JigyosyoCd=3150380107-00&ServiceCd=140&Type=search", "url2": "http://nojima-hospital.jp/" }, "geometry": { "type": "Point", "coordinates": [ 133.819186599999966, 35.4314068 ] } },
{ "type": "Feature", "properties": { "内容": "訪問リハビリテーション事業所【訪問リハビリテーション】上井町1丁目13", "url": "https://www.kaigokensaku.mhlw.go.jp/31/index.php?action_kouhyou_detail_004_kani=true&JigyosyoCd=3110310459-00&ServiceCd=140&Type=search", "url2": "https://www.seiseikai.jp/" }, "geometry": { "type": "Point", "coordinates": [ 133.8503518, 35.4516203 ] } },
{ "type": "Feature", "properties": { "内容": "藤井政雄記念病院　訪問リハビリテーション【訪問リハビリテーション】鳥取県倉吉市山根43－１", "url": "https://www.kaigokensaku.mhlw.go.jp/31/index.php?action_kouhyou_detail_004_kani=true&JigyosyoCd=3170301026-00&ServiceCd=140&Type=search", "url2": null }, "geometry": { "type": "Point", "coordinates": [ 133.856291400000032, 35.4507806 ] } },
{ "type": "Feature", "properties": { "内容": "訪問リハビリテーションしみず【訪問リハビリテーション】鳥取県倉吉市幸町512-1通所リハビリセンターしみず", "url": "https://www.kaigokensaku.mhlw.go.jp/31/index.php?action_kouhyou_detail_004_kani=true&JigyosyoCd=3110310186-00&ServiceCd=140&Type=search", "url2": "http://www.shimizuhospital.jp/" }, "geometry": { "type": "Point", "coordinates": [ 133.83491, 35.4346014 ] } },
{ "type": "Feature", "properties": { "内容": "鳥取県済生会介護老人保健施設はまかぜ【訪問リハビリテーション】鳥取県境港市蓮池町78-1", "url": "https://www.kaigokensaku.mhlw.go.jp/31/index.php?action_kouhyou_detail_004_kani=true&JigyosyoCd=3150480246-00&ServiceCd=140&Type=search", "url2": "http://www.sakaiminato-saiseikai.jp" }, "geometry": { "type": "Point", "coordinates": [ 133.223675599999979, 35.5394111 ] } },
{ "type": "Feature", "properties": { "内容": "訪問リハビリテーション事業所　花の里【訪問リハビリテーション】鳥取県境港市上道町1959-1", "url": "https://www.kaigokensaku.mhlw.go.jp/31/index.php?action_kouhyou_detail_004_kani=true&JigyosyoCd=3150480261-00&ServiceCd=140&Type=search", "url2": "http:www.motomachi-hp.jp/" }, "geometry": { "type": "Point", "coordinates": [ 133.2363559, 35.541849 ] } },
{ "type": "Feature", "properties": { "内容": "訪問リハビリテーション事業所　さかい幸朋苑【訪問リハビリテーション】鳥取県境港市誠道町2083番地", "url": "https://www.kaigokensaku.mhlw.go.jp/31/index.php?action_kouhyou_detail_004_kani=true&JigyosyoCd=3170400455-00&ServiceCd=140&Type=search", "url2": "http://www.kohoen.jp" }, "geometry": { "type": "Point", "coordinates": [ 133.2356379, 35.5186871 ] } },
{ "type": "Feature", "properties": { "内容": "岩美町国民健康保険岩美病院【訪問リハビリテーション】鳥取県岩美郡岩美町大字浦富1029番地２", "url": "https://www.kaigokensaku.mhlw.go.jp/31/index.php?action_kouhyou_detail_004_kani=true&JigyosyoCd=3111110262-00&ServiceCd=140&Type=search", "url2": "http://iwami-hp.jp/" }, "geometry": { "type": "Point", "coordinates": [ 134.333659099999977, 35.5730736 ] } },
{ "type": "Feature", "properties": { "内容": "介護老人保健施設すこやか　訪問リハビリテーション【訪問リハビリテーション】八頭郡八頭町宮谷123番地", "url": "https://www.kaigokensaku.mhlw.go.jp/31/index.php?action_kouhyou_detail_004_kani=true&JigyosyoCd=3151280215-00&ServiceCd=140&Type=search", "url2": "http.//yazu-sukoyaka.or.jp" }, "geometry": { "type": "Point", "coordinates": [ 134.258492, 35.4138208 ] } },
{ "type": "Feature", "properties": { "内容": "在宅リハビリセンター三朝温泉病院【訪問リハビリテーション】鳥取県東伯郡三朝町山田690三朝温泉病院内", "url": "https://www.kaigokensaku.mhlw.go.jp/31/index.php?action_kouhyou_detail_004_kani=true&JigyosyoCd=3161490077-00&ServiceCd=140&Type=search", "url2": "http://www.hosp.misasa.tottori.jp/section/zaitakureha/index.html" }, "geometry": { "type": "Point", "coordinates": [ 133.88312160000001, 35.4132754 ] } },
{ "type": "Feature", "properties": { "内容": "訪問リハビリテーション　ル・サンテリオン東郷【訪問リハビリテーション】鳥取県東伯郡湯梨浜町野花443番地1", "url": "https://www.kaigokensaku.mhlw.go.jp/31/index.php?action_kouhyou_detail_004_kani=true&JigyosyoCd=3151480286-00&ServiceCd=140&Type=search", "url2": "https://www.med-wel.jp/" }, "geometry": { "type": "Point", "coordinates": [ 133.890257099999985, 35.4637077 ] } },
{ "type": "Feature", "properties": { "内容": "森本外科・脳神経外科医院【訪問リハビリテーション】鳥取県東伯郡琴浦町大字逢束１２１０番地", "url": "https://www.kaigokensaku.mhlw.go.jp/31/index.php?action_kouhyou_detail_004_kani=true&JigyosyoCd=3111410647-00&ServiceCd=140&Type=search", "url2": "https://www.morimoto-med1977.jp" }, "geometry": { "type": "Point", "coordinates": [ 133.697672199999943, 35.4996726 ] } },
{ "type": "Feature", "properties": { "内容": "老人保健施設ル・サンテリオン北条　訪問リハビリテーション事業所【訪問リハビリテーション】鳥取県東伯郡北栄町土下123-1", "url": "https://www.kaigokensaku.mhlw.go.jp/31/index.php?action_kouhyou_detail_004_kani=true&JigyosyoCd=3151480252-00&ServiceCd=140&Type=search", "url2": "https://www.med-wel.jp/houjou/" }, "geometry": { "type": "Point", "coordinates": [ 133.8200611, 35.4788357 ] } },
{ "type": "Feature", "properties": { "内容": "介護老人保健施設小谷苑【訪問リハビリテーション】鳥取県西伯郡大山町西坪５４５番地１介護老人保健施設小谷苑", "url": "https://www.kaigokensaku.mhlw.go.jp/31/index.php?action_kouhyou_detail_004_kani=true&JigyosyoCd=3151580044-00&ServiceCd=140&Type=search", "url2": "https://www.kodanien.com" }, "geometry": { "type": "Point", "coordinates": [ 133.502255100000013, 35.5132488 ] } },
{ "type": "Feature", "properties": { "内容": "大山町国民健康保険大山口診療所【訪問リハビリテーション】鳥取県西伯郡大山町末長483番地3", "url": "https://www.kaigokensaku.mhlw.go.jp/31/index.php?action_kouhyou_detail_004_kani=true&JigyosyoCd=3111510784-00&ServiceCd=140&Type=search", "url2": "http://www.daisen.jp/" }, "geometry": { "type": "Point", "coordinates": [ 133.459609300000011, 35.4818929 ] } },
{ "type": "Feature", "properties": { "内容": "キマチ・リハビリテーション医院【訪問リハビリテーション】鳥取県西伯郡大山町富長755-5", "url": "https://www.kaigokensaku.mhlw.go.jp/31/index.php?action_kouhyou_detail_004_kani=true&JigyosyoCd=3111510479-00&ServiceCd=140&Type=search", "url2": null }, "geometry": { "type": "Point", "coordinates": [ 133.4764467, 35.4981841 ] } },
{ "type": "Feature", "properties": { "内容": "介護老人保健施設　はまなす【訪問リハビリテーション】鳥取県西伯郡大山町田中1383", "url": "https://www.kaigokensaku.mhlw.go.jp/31/index.php?action_kouhyou_detail_004_kani=true&JigyosyoCd=3151580184-00&ServiceCd=140&Type=search", "url2": "https://sasakicl-hamanasu.jp/" }, "geometry": { "type": "Point", "coordinates": [ 133.588916700000027, 35.5200274 ] } },
{ "type": "Feature", "properties": { "内容": "南部町国民健康保険西伯病院【訪問リハビリテーション】鳥取県西伯郡南部町倭３９７", "url": "https://www.kaigokensaku.mhlw.go.jp/31/index.php?action_kouhyou_detail_004_kani=true&JigyosyoCd=3111510016-00&ServiceCd=140&Type=search", "url2": "http://www.saihaku-hospital.com" }, "geometry": { "type": "Point", "coordinates": [ 133.325482100000045, 35.3477491 ] } },
{ "type": "Feature", "properties": { "内容": "大山リハビリテーション病院　訪問リハビリテーションおおはら【訪問リハビリテーション】鳥取県西伯郡伯耆町大原927-1", "url": "https://www.kaigokensaku.mhlw.go.jp/31/index.php?action_kouhyou_detail_004_kani=true&JigyosyoCd=3111510511-00&ServiceCd=140&Type=search", "url2": "http://www.drh.or.jp" }, "geometry": { "type": "Point", "coordinates": [ 133.4563885, 35.3851337 ] } },
{ "type": "Feature", "properties": { "内容": "伯耆中央病院【訪問リハビリテーション】鳥取県西伯郡伯耆町長山１５２－１", "url": "https://www.kaigokensaku.mhlw.go.jp/31/index.php?action_kouhyou_detail_004_kani=true&JigyosyoCd=3111510743-00&ServiceCd=140&Type=search", "url2": "http://care-net.biz/31/houkichp/" }, "geometry": { "type": "Point", "coordinates": [ 133.433799099999987, 35.3516147 ] } },
{ "type": "Feature", "properties": { "内容": "日南町国民健康保険日南病院【訪問リハビリテーション】鳥取県日野郡日南町生山５１１番地７", "url": "https://www.kaigokensaku.mhlw.go.jp/31/index.php?action_kouhyou_detail_004_kani=true&JigyosyoCd=3111610162-00&ServiceCd=140&Type=search", "url2": "http://nichinan-hospital.jp/" }, "geometry": { "type": "Point", "coordinates": [ 133.320106900000042, 35.1660665 ] } }
]
}
