{
"type": "FeatureCollection",
"name": "geo_31_小規模多機能型居宅介護",
"crs": { "type": "name", "properties": { "name": "urn:ogc:def:crs:OGC:1.3:CRS84" } },
"features": [
{ "type": "Feature", "properties": { "内容": "ちゃんちゃん【小規模多機能型居宅介護】鳥取県鳥取市用瀬町安蔵1049番地", "url": "https://www.kaigokensaku.mhlw.go.jp/31/index.php?action_kouhyou_detail_004_kani=true&JigyosyoCd=3190100309-00&ServiceCd=730&Type=search", "url2": "http://ww7.enjoy.ne.jp/~reo1wan/index.html" }, "geometry": { "type": "Point", "coordinates": [ 134.193082413491766, 35.317881085681762 ] } },
{ "type": "Feature", "properties": { "内容": "小規模多機能ホーム虹の家すえひろ【小規模多機能型居宅介護】鳥取市末広温泉町203レインボーセンタービル4階", "url": "https://www.kaigokensaku.mhlw.go.jp/31/index.php?action_kouhyou_detail_004_kani=true&JigyosyoCd=3190100606-00&ServiceCd=730&Type=search", "url2": "http://mcp.mcoop-tottori.jp/" }, "geometry": { "type": "Point", "coordinates": [ 134.230278099999964, 35.4960304 ] } },
{ "type": "Feature", "properties": { "内容": "小規模多機能型居宅介護施設陽だまりの家かわはら【小規模多機能型居宅介護】鳥取県鳥取市河原町渡一木230-1", "url": "https://www.kaigokensaku.mhlw.go.jp/31/index.php?action_kouhyou_detail_004_kani=true&JigyosyoCd=3190100119-00&ServiceCd=730&Type=search", "url2": null }, "geometry": { "type": "Point", "coordinates": [ 134.200523200000021, 35.4029316 ] } },
{ "type": "Feature", "properties": { "内容": "小規模多機能型居宅介護事業所　まさたみの郷【小規模多機能型居宅介護】鳥取県鳥取市杉崎５９９－１", "url": "https://www.kaigokensaku.mhlw.go.jp/31/index.php?action_kouhyou_detail_004_kani=true&JigyosyoCd=3190100143-00&ServiceCd=730&Type=search", "url2": "http://www.masataminosato.jp/" }, "geometry": { "type": "Point", "coordinates": [ 134.248683, 35.4639064 ] } },
{ "type": "Feature", "properties": { "内容": "小規模多機能型居宅介護施設陽だまりの家こうなん【小規模多機能型居宅介護】鳥取県鳥取市興南町２１番地４", "url": "https://www.kaigokensaku.mhlw.go.jp/31/index.php?action_kouhyou_detail_004_kani=true&JigyosyoCd=3190100465-00&ServiceCd=730&Type=search", "url2": "http://www.solhem.jp/" }, "geometry": { "type": "Point", "coordinates": [ 134.22863689999997, 35.4869065 ] } },
{ "type": "Feature", "properties": { "内容": "ライフサポートひなた【小規模多機能型居宅介護】鳥取県鳥取市緑ヶ丘一丁目25番17号", "url": "https://www.kaigokensaku.mhlw.go.jp/31/index.php?action_kouhyou_detail_004_kani=true&JigyosyoCd=3190100481-00&ServiceCd=730&Type=search", "url2": "http://life-support.ne.jp/" }, "geometry": { "type": "Point", "coordinates": [ 134.208238700000038, 35.5033624 ] } },
{ "type": "Feature", "properties": { "内容": "小規模多機能事業所　木もれ陽【小規模多機能型居宅介護】鳥取県鳥取市南吉方2丁目28番地２小規模多機能事業所　木もれ陽", "url": "https://www.kaigokensaku.mhlw.go.jp/31/index.php?action_kouhyou_detail_004_kani=true&JigyosyoCd=3190100051-00&ServiceCd=730&Type=search", "url2": "http://www.tottorifukushikai.jp/" }, "geometry": { "type": "Point", "coordinates": [ 134.234851406607078, 35.487210234811606 ] } },
{ "type": "Feature", "properties": { "内容": "小規模多機能型居宅介護いくのさん家【小規模多機能型居宅介護】鳥取県鳥取市湖山町南1丁目569", "url": "https://www.kaigokensaku.mhlw.go.jp/31/index.php?action_kouhyou_detail_004_kani=true&JigyosyoCd=3190100101-00&ServiceCd=730&Type=search", "url2": "http://ikunosange.com/" }, "geometry": { "type": "Point", "coordinates": [ 134.177006806939289, 35.512409352116634 ] } },
{ "type": "Feature", "properties": { "内容": "多機能サポートセンターわかばの家勝谷【小規模多機能型居宅介護】鳥取県鳥取市鹿野町寺内１３1", "url": "https://www.kaigokensaku.mhlw.go.jp/31/index.php?action_kouhyou_detail_004_kani=true&JigyosyoCd=3190100135-00&ServiceCd=730&Type=search", "url2": null }, "geometry": { "type": "Point", "coordinates": [ 134.053716799999961, 35.4782201 ] } },
{ "type": "Feature", "properties": { "内容": "ハピネのやわらぎ興南【小規模多機能型居宅介護】鳥取県鳥取市興南町83番地", "url": "https://www.kaigokensaku.mhlw.go.jp/31/index.php?action_kouhyou_detail_004_kani=true&JigyosyoCd=3190100150-00&ServiceCd=730&Type=search", "url2": "http://www.hapine.com/" }, "geometry": { "type": "Point", "coordinates": [ 134.23216709999997, 35.4868037 ] } },
{ "type": "Feature", "properties": { "内容": "ハピネのやわらぎ松並【小規模多機能型居宅介護】鳥取県鳥取市松並町１丁目２２８番地", "url": "https://www.kaigokensaku.mhlw.go.jp/31/index.php?action_kouhyou_detail_004_kani=true&JigyosyoCd=3190100168-00&ServiceCd=730&Type=search", "url2": "http://www.hapine.com/" }, "geometry": { "type": "Point", "coordinates": [ 134.218376, 35.5144614 ] } },
{ "type": "Feature", "properties": { "内容": "デイハウスじゅんぷう【小規模多機能型居宅介護】鳥取県鳥取市玄好町404", "url": "https://www.kaigokensaku.mhlw.go.jp/31/index.php?action_kouhyou_detail_004_kani=true&JigyosyoCd=3190100176-00&ServiceCd=730&Type=search", "url2": "http://www.kohoen.jp" }, "geometry": { "type": "Point", "coordinates": [ 134.230430599999977, 35.5074651 ] } },
{ "type": "Feature", "properties": { "内容": "多機能サポートセンターわかばの家河原【小規模多機能型居宅介護】鳥取県鳥取市河原町渡一木１５６－１", "url": "https://www.kaigokensaku.mhlw.go.jp/31/index.php?action_kouhyou_detail_004_kani=true&JigyosyoCd=3190100192-00&ServiceCd=730&Type=search", "url2": "http://www.jainaba.com/kaigo/wakaba.htm" }, "geometry": { "type": "Point", "coordinates": [ 134.200687099999982, 35.4001736 ] } },
{ "type": "Feature", "properties": { "内容": "多機能サポートセンター　わかばの家　美保【小規模多機能型居宅介護】鳥取県鳥取市吉成５１０番地", "url": "https://www.kaigokensaku.mhlw.go.jp/31/index.php?action_kouhyou_detail_004_kani=true&JigyosyoCd=3190100242-00&ServiceCd=730&Type=search", "url2": "http://www.jainaba.com/kaigo/wakaba.htm" }, "geometry": { "type": "Point", "coordinates": [ 134.221458518385361, 35.489401658198005 ] } },
{ "type": "Feature", "properties": { "内容": "小規模多機能型居宅介護事業所こすもす【小規模多機能型居宅介護】鳥取県鳥取市国府町新通り三丁目３６８番地２", "url": "https://www.kaigokensaku.mhlw.go.jp/31/index.php?action_kouhyou_detail_004_kani=true&JigyosyoCd=3190100259-00&ServiceCd=730&Type=search", "url2": "http://cosmos.main.jp/" }, "geometry": { "type": "Point", "coordinates": [ 134.254798599999958, 35.4804573 ] } },
{ "type": "Feature", "properties": { "内容": "小規模多機能型居宅介護事業所　わかさ【小規模多機能型居宅介護】鳥取県鳥取市立川町6丁目201-21", "url": "https://www.kaigokensaku.mhlw.go.jp/31/index.php?action_kouhyou_detail_004_kani=true&JigyosyoCd=3190100317-00&ServiceCd=730&Type=search", "url2": "http://www.kaigo-wakasa.jp/" }, "geometry": { "type": "Point", "coordinates": [ 134.2503127, 35.4883619 ] } },
{ "type": "Feature", "properties": { "内容": "小規模多機能型居宅介護施設　とちの実【小規模多機能型居宅介護】鳥取市佐治町加茂583-1", "url": "https://www.kaigokensaku.mhlw.go.jp/31/index.php?action_kouhyou_detail_004_kani=true&JigyosyoCd=3190100325-00&ServiceCd=730&Type=search", "url2": "https://www.tottoricity-syakyo.or.jp/" }, "geometry": { "type": "Point", "coordinates": [ 134.10374969999998, 35.3291601 ] } },
{ "type": "Feature", "properties": { "内容": "小規模多機能型居宅介護木守舎【小規模多機能型居宅介護】鳥取県鳥取市行徳2丁目429番地", "url": "https://www.kaigokensaku.mhlw.go.jp/31/index.php?action_kouhyou_detail_004_kani=true&JigyosyoCd=3190100333-00&ServiceCd=730&Type=search", "url2": "http://ikunosange.com/shisetsu/kimamori/" }, "geometry": { "type": "Point", "coordinates": [ 134.222865744180353, 35.499449555151791 ] } },
{ "type": "Feature", "properties": { "内容": "小規模多機能型居宅介護施設ほのぼの【小規模多機能型居宅介護】鳥取県鳥取市青谷町善田30-1", "url": "https://www.kaigokensaku.mhlw.go.jp/31/index.php?action_kouhyou_detail_004_kani=true&JigyosyoCd=3190100416-00&ServiceCd=730&Type=search", "url2": "https://www.tottoricity-syakyo.or.jp" }, "geometry": { "type": "Point", "coordinates": [ 133.996915400000034, 35.5107342 ] } },
{ "type": "Feature", "properties": { "内容": "ハピネのやわらぎ中ノ郷【小規模多機能型居宅介護】鳥取県鳥取市江津１１９６番地", "url": "https://www.kaigokensaku.mhlw.go.jp/31/index.php?action_kouhyou_detail_004_kani=true&JigyosyoCd=3190100424-00&ServiceCd=730&Type=search", "url2": "http://www.hapine.com/" }, "geometry": { "type": "Point", "coordinates": [ 134.213920499999972, 35.5244767 ] } },
{ "type": "Feature", "properties": { "内容": "ハピネのやわらぎ湖山【小規模多機能型居宅介護】鳥取県鳥取市湖山町東1-117-4", "url": "https://www.kaigokensaku.mhlw.go.jp/31/index.php?action_kouhyou_detail_004_kani=true&JigyosyoCd=3190100473-00&ServiceCd=730&Type=search", "url2": null }, "geometry": { "type": "Point", "coordinates": [ 134.184284899999966, 35.5168212 ] } },
{ "type": "Feature", "properties": { "内容": "ライフサポートあさひ【小規模多機能型居宅介護】鳥取県鳥取市緑ヶ丘1丁目24－13", "url": "https://www.kaigokensaku.mhlw.go.jp/31/index.php?action_kouhyou_detail_004_kani=true&JigyosyoCd=3190100499-00&ServiceCd=730&Type=search", "url2": "http://life-support.ne.jp/" }, "geometry": { "type": "Point", "coordinates": [ 134.208316500000024, 35.5023014 ] } },
{ "type": "Feature", "properties": { "内容": "ライフサポートゆづき【小規模多機能型居宅介護】鳥取県鳥取市緑ヶ丘1丁目24番17号", "url": "https://www.kaigokensaku.mhlw.go.jp/31/index.php?action_kouhyou_detail_004_kani=true&JigyosyoCd=3190100515-00&ServiceCd=730&Type=search", "url2": "http://life-support.ne.jp/" }, "geometry": { "type": "Point", "coordinates": [ 134.208316500000024, 35.5023014 ] } },
{ "type": "Feature", "properties": { "内容": "小規模多機能型居宅介護事業所なでしこ【小規模多機能型居宅介護】鳥取県鳥取市用瀬町古用瀬４７３", "url": "https://www.kaigokensaku.mhlw.go.jp/31/index.php?action_kouhyou_detail_004_kani=true&JigyosyoCd=3190100614-00&ServiceCd=730&Type=search", "url2": "https://nonbiri-nadeshiko.jp/" }, "geometry": { "type": "Point", "coordinates": [ 134.19897190000006, 35.3341797 ] } },
{ "type": "Feature", "properties": { "内容": "小規模多機能施設あすなろ　げん太くん【小規模多機能型居宅介護】鳥取県鳥取市源太82番地2", "url": "https://www.kaigokensaku.mhlw.go.jp/31/index.php?action_kouhyou_detail_004_kani=true&JigyosyoCd=3190100341-00&ServiceCd=730&Type=search", "url2": "http;www.t-asunaro.or.jp/" }, "geometry": { "type": "Point", "coordinates": [ 134.20695939999996, 35.4646863 ] } },
{ "type": "Feature", "properties": { "内容": "小規模多機能施設　さとに暖の里【小規模多機能型居宅介護】鳥取県鳥取市里仁５３番地１", "url": "https://www.kaigokensaku.mhlw.go.jp/31/index.php?action_kouhyou_detail_004_kani=true&JigyosyoCd=3190100226-00&ServiceCd=730&Type=search", "url2": "http://www.dannosato.jp/" }, "geometry": { "type": "Point", "coordinates": [ 134.1938126, 35.5034314 ] } },
{ "type": "Feature", "properties": { "内容": "ゆいの郷小規模多機能居宅介護事業所【小規模多機能型居宅介護】鳥取県米子市淀江町稲吉１６１－１ゆいの郷小規模多機能居宅介護事業所", "url": "https://www.kaigokensaku.mhlw.go.jp/31/index.php?action_kouhyou_detail_004_kani=true&JigyosyoCd=3190200539-00&ServiceCd=730&Type=search", "url2": "yuinosato@orange.com.ne,jp" }, "geometry": { "type": "Point", "coordinates": [ 133.459664500000031, 35.4362823 ] } },
{ "type": "Feature", "properties": { "内容": "小規模多機能ホーム　はあとピア【小規模多機能型居宅介護】鳥取県米子市久米町２００番地", "url": "https://www.kaigokensaku.mhlw.go.jp/31/index.php?action_kouhyou_detail_004_kani=true&JigyosyoCd=3190200034-00&ServiceCd=730&Type=search", "url2": "http://www.hapine.com" }, "geometry": { "type": "Point", "coordinates": [ 133.3264646, 35.4252414 ] } },
{ "type": "Feature", "properties": { "内容": "デイハウスごせんごく【小規模多機能型居宅介護】鳥取県米子市福市１７２６－１", "url": "https://www.kaigokensaku.mhlw.go.jp/31/index.php?action_kouhyou_detail_004_kani=true&JigyosyoCd=3190200125-00&ServiceCd=730&Type=search", "url2": "http://www.kohoen.jp" }, "geometry": { "type": "Point", "coordinates": [ 133.37434780000001, 35.3988422 ] } },
{ "type": "Feature", "properties": { "内容": "デイハウス　くずも【小規模多機能型居宅介護】鳥取県米子市車尾3丁目12-16", "url": "https://www.kaigokensaku.mhlw.go.jp/31/index.php?action_kouhyou_detail_004_kani=true&JigyosyoCd=3190200018-00&ServiceCd=730&Type=search", "url2": "http://www.kohoen.jp" }, "geometry": { "type": "Point", "coordinates": [ 133.3580816, 35.4342995 ] } },
{ "type": "Feature", "properties": { "内容": "小規模多機能ホームはくほう【小規模多機能型居宅介護】鳥取県米子市皆生温泉3-15-50", "url": "https://www.kaigokensaku.mhlw.go.jp/31/index.php?action_kouhyou_detail_004_kani=true&JigyosyoCd=3190200281-00&ServiceCd=730&Type=search", "url2": "http://www.hapine.com/" }, "geometry": { "type": "Point", "coordinates": [ 133.364544900000027, 35.4563642 ] } },
{ "type": "Feature", "properties": { "内容": "デイハウスながえ【小規模多機能型居宅介護】鳥取県米子市永江280－2県営永江住宅永江団地52－1棟　233号　234号", "url": "https://www.kaigokensaku.mhlw.go.jp/31/index.php?action_kouhyou_detail_004_kani=true&JigyosyoCd=3190200638-00&ServiceCd=730&Type=search", "url2": "http://www.kohoen/jp" }, "geometry": { "type": "Point", "coordinates": [ 133.3696431, 35.3985224 ] } },
{ "type": "Feature", "properties": { "内容": "小規模多機能ハウス　カルム米子【小規模多機能型居宅介護】鳥取県米子市冨士見町2丁目132番地", "url": "https://www.kaigokensaku.mhlw.go.jp/31/index.php?action_kouhyou_detail_004_kani=true&JigyosyoCd=3190200026-00&ServiceCd=730&Type=search", "url2": "https://calmekaigo.jp/yonago/" }, "geometry": { "type": "Point", "coordinates": [ 133.334147, 35.4323713 ] } },
{ "type": "Feature", "properties": { "内容": "小規模多機能ホーム仁風荘かみごとう【小規模多機能型居宅介護】鳥取県米子市上後藤３－９－４６", "url": "https://www.kaigokensaku.mhlw.go.jp/31/index.php?action_kouhyou_detail_004_kani=true&JigyosyoCd=3190200117-00&ServiceCd=730&Type=search", "url2": "www.yowakai.com" }, "geometry": { "type": "Point", "coordinates": [ 133.31987520000007, 35.4465835 ] } },
{ "type": "Feature", "properties": { "内容": "小規模多機能型居宅介護にじの音【小規模多機能型居宅介護】鳥取県米子市熊党200-1", "url": "https://www.kaigokensaku.mhlw.go.jp/31/index.php?action_kouhyou_detail_004_kani=true&JigyosyoCd=3190200331-00&ServiceCd=730&Type=search", "url2": "https://www.shinsei-care-service.com/" }, "geometry": { "type": "Point", "coordinates": [ 133.3758, 35.4291973 ] } },
{ "type": "Feature", "properties": { "内容": "社会福祉法人こうほうえん　デイハウスよねはら【小規模多機能型居宅介護】米原8-5-77", "url": "https://www.kaigokensaku.mhlw.go.jp/31/index.php?action_kouhyou_detail_004_kani=true&JigyosyoCd=3190200380-00&ServiceCd=730&Type=search", "url2": "https://www.kohoen.jp" }, "geometry": { "type": "Point", "coordinates": [ 133.33546350000006, 35.4474496 ] } },
{ "type": "Feature", "properties": { "内容": "（介護予防）小規模多機能型居宅介護浜の絆【小規模多機能型居宅介護】鳥取県米子市夜見町２３９３番地１", "url": "https://www.kaigokensaku.mhlw.go.jp/31/index.php?action_kouhyou_detail_004_kani=true&JigyosyoCd=3190200455-00&ServiceCd=730&Type=search", "url2": "www.hospitown.or.jp/" }, "geometry": { "type": "Point", "coordinates": [ 133.293959925308968, 35.471702487957899 ] } },
{ "type": "Feature", "properties": { "内容": "小規模多機能ホーム仁風荘ひこな【小規模多機能型居宅介護】鳥取県米子市彦名町964-1", "url": "https://www.kaigokensaku.mhlw.go.jp/31/index.php?action_kouhyou_detail_004_kani=true&JigyosyoCd=3190200505-00&ServiceCd=730&Type=search", "url2": "http://www.yowakai.com" }, "geometry": { "type": "Point", "coordinates": [ 133.2987521, 35.44875 ] } },
{ "type": "Feature", "properties": { "内容": "小規模多機能型居宅介護真誠会プラザ【小規模多機能型居宅介護】鳥取県米子市上福原680番1", "url": "https://www.kaigokensaku.mhlw.go.jp/31/index.php?action_kouhyou_detail_004_kani=true&JigyosyoCd=3190200620-00&ServiceCd=730&Type=search", "url2": "http://www.hospitown.or.jp/" }, "geometry": { "type": "Point", "coordinates": [ 133.359237239009104, 35.437439444572043 ] } },
{ "type": "Feature", "properties": { "内容": "ホームケアピーコック【小規模多機能型居宅介護】鳥取県米子市熊党520", "url": "https://www.kaigokensaku.mhlw.go.jp/31/index.php?action_kouhyou_detail_004_kani=true&JigyosyoCd=3190200646-00&ServiceCd=730&Type=search", "url2": "http:www.loh.co.jp" }, "geometry": { "type": "Point", "coordinates": [ 133.378687473282383, 35.428614378067856 ] } },
{ "type": "Feature", "properties": { "内容": "あったかなうち　エルル両三柳【小規模多機能型居宅介護】鳥取県米子市両三柳193-3", "url": "https://www.kaigokensaku.mhlw.go.jp/31/index.php?action_kouhyou_detail_004_kani=true&JigyosyoCd=3190200711-00&ServiceCd=730&Type=search", "url2": "http://elfith.com" }, "geometry": { "type": "Point", "coordinates": [ 133.325486099999978, 35.4492974 ] } },
{ "type": "Feature", "properties": { "内容": "小規模多機能ホーム翠のさと【小規模多機能型居宅介護】西福原8-1-1", "url": "https://www.kaigokensaku.mhlw.go.jp/31/index.php?action_kouhyou_detail_004_kani=true&JigyosyoCd=3190200570-00&ServiceCd=730&Type=search", "url2": "midorinosato.info" }, "geometry": { "type": "Point", "coordinates": [ 133.3420825, 35.4491209 ] } },
{ "type": "Feature", "properties": { "内容": "地域サポートハウスしみず【小規模多機能型居宅介護】鳥取県倉吉市宮川町153-7", "url": "https://www.kaigokensaku.mhlw.go.jp/31/index.php?action_kouhyou_detail_004_kani=true&JigyosyoCd=3170300473-00&ServiceCd=730&Type=search", "url2": "http://kensuikai.net/tsh_shimizu.html" }, "geometry": { "type": "Point", "coordinates": [ 133.832349199999953, 35.4333764 ] } },
{ "type": "Feature", "properties": { "内容": "小規模多機能型居宅介護事業所　やしろ【小規模多機能型居宅介護】鳥取県倉吉市西福守町658", "url": "https://www.kaigokensaku.mhlw.go.jp/31/index.php?action_kouhyou_detail_004_kani=true&JigyosyoCd=3190300024-00&ServiceCd=730&Type=search", "url2": "https://minorifukusikai.com/" }, "geometry": { "type": "Point", "coordinates": [ 133.804177200000026, 35.4356531 ] } },
{ "type": "Feature", "properties": { "内容": "小規模多機能ホームつばき【小規模多機能型居宅介護】鳥取県倉吉市余戸谷町3051番地2", "url": "https://www.kaigokensaku.mhlw.go.jp/31/index.php?action_kouhyou_detail_004_kani=true&JigyosyoCd=3190300032-00&ServiceCd=730&Type=search", "url2": "http://www.nissyoukai.com/" }, "geometry": { "type": "Point", "coordinates": [ 133.811879200000021, 35.4280459 ] } },
{ "type": "Feature", "properties": { "内容": "小規模多機能ホーム華つばき【小規模多機能型居宅介護】鳥取県倉吉市中河原７７１番地２", "url": "https://www.kaigokensaku.mhlw.go.jp/31/index.php?action_kouhyou_detail_004_kani=true&JigyosyoCd=3190300073-00&ServiceCd=730&Type=search", "url2": "http://www.nissyoukai.com" }, "geometry": { "type": "Point", "coordinates": [ 133.803833, 35.4153944 ] } },
{ "type": "Feature", "properties": { "内容": "小規模多機能ホームそらいろ【小規模多機能型居宅介護】鳥取県倉吉市三江1281番1", "url": "https://www.kaigokensaku.mhlw.go.jp/31/index.php?action_kouhyou_detail_004_kani=true&JigyosyoCd=3190300115-00&ServiceCd=730&Type=search", "url2": "http://lightup-ltd.com" }, "geometry": { "type": "Point", "coordinates": [ 133.7693146, 35.4105052 ] } },
{ "type": "Feature", "properties": { "内容": "デイハウスあがりみち【小規模多機能型居宅介護】鳥取県境港市上道町2087-2", "url": "https://www.kaigokensaku.mhlw.go.jp/31/index.php?action_kouhyou_detail_004_kani=true&JigyosyoCd=3190400030-00&ServiceCd=730&Type=search", "url2": "http://www.kohoen.jp" }, "geometry": { "type": "Point", "coordinates": [ 133.240224500000068, 35.5418804 ] } },
{ "type": "Feature", "properties": { "内容": "小規模多機能型居宅介護　デイハウスせいどう【小規模多機能型居宅介護】鳥取県境港市高松町892-3", "url": "https://www.kaigokensaku.mhlw.go.jp/31/index.php?action_kouhyou_detail_004_kani=true&JigyosyoCd=3190400147-00&ServiceCd=730&Type=search", "url2": "http//www.kohoen.jp" }, "geometry": { "type": "Point", "coordinates": [ 133.23621342327877, 35.516572465420879 ] } },
{ "type": "Feature", "properties": { "内容": "デイハウスわたり【小規模多機能型居宅介護】鳥取県境港市渡町　1422", "url": "https://www.kaigokensaku.mhlw.go.jp/31/index.php?action_kouhyou_detail_004_kani=true&JigyosyoCd=3190400055-00&ServiceCd=730&Type=search", "url2": "http://www.kohoen.jp" }, "geometry": { "type": "Point", "coordinates": [ 133.217904500000031, 35.5162075 ] } },
{ "type": "Feature", "properties": { "内容": "多機能サポートセンターわかばの家　大岩【小規模多機能型居宅介護】鳥取県岩美郡岩美町大谷312番地１", "url": "https://www.kaigokensaku.mhlw.go.jp/31/index.php?action_kouhyou_detail_004_kani=true&JigyosyoCd=3191100019-00&ServiceCd=730&Type=search", "url2": "http://www.jainaba.com/kaigo/wakaba.htm" }, "geometry": { "type": "Point", "coordinates": [ 134.303375128836024, 35.57659288625554 ] } },
{ "type": "Feature", "properties": { "内容": "ともいきの浜　浦富【小規模多機能型居宅介護】鳥取県岩美郡岩美町浦富2475-138ともいきの浜　浦富", "url": "https://www.kaigokensaku.mhlw.go.jp/31/index.php?action_kouhyou_detail_004_kani=true&JigyosyoCd=3191100027-00&ServiceCd=730&Type=search", "url2": "tomoiki-uradome@ncn-t.net" }, "geometry": { "type": "Point", "coordinates": [ 134.3302755, 35.5891964 ] } },
{ "type": "Feature", "properties": { "内容": "小規模多機能型居宅介護施設きたやま【小規模多機能型居宅介護】鳥取県八頭郡八頭町北山１５９－１", "url": "https://www.kaigokensaku.mhlw.go.jp/31/index.php?action_kouhyou_detail_004_kani=true&JigyosyoCd=3191200033-00&ServiceCd=730&Type=search", "url2": "https://swc-yazu.studio.site" }, "geometry": { "type": "Point", "coordinates": [ 134.352359, 35.3639063 ] } },
{ "type": "Feature", "properties": { "内容": "小規模多機能型居宅介護施設　なの花【小規模多機能型居宅介護】鳥取県　東伯郡　三朝町　大瀬　1012番地", "url": "https://www.kaigokensaku.mhlw.go.jp/31/index.php?action_kouhyou_detail_004_kani=true&JigyosyoCd=3191400013-00&ServiceCd=730&Type=search", "url2": "http://aikeikai-nanohana.jp/" }, "geometry": { "type": "Point", "coordinates": [ 133.863769600000069, 35.4084746 ] } },
{ "type": "Feature", "properties": { "内容": "小規模多機能型居宅介護事業所ガーデンハウス野花【小規模多機能型居宅介護】鳥取県東伯郡湯梨浜町野花440－2", "url": "https://www.kaigokensaku.mhlw.go.jp/31/index.php?action_kouhyou_detail_004_kani=true&JigyosyoCd=3191400096-00&ServiceCd=730&Type=search", "url2": "https://www.med-wel.jp/" }, "geometry": { "type": "Point", "coordinates": [ 133.890990399999964, 35.4630911 ] } },
{ "type": "Feature", "properties": { "内容": "社会福祉法人　湯梨浜町社会福祉協議会　小規模多機能型居宅介護事業所　しじみの郷【小規模多機能型居宅介護】鳥取県東伯郡湯梨浜町大字上浅津１２３番地２", "url": "https://www.kaigokensaku.mhlw.go.jp/31/index.php?action_kouhyou_detail_004_kani=true&JigyosyoCd=3191400112-00&ServiceCd=730&Type=search", "url2": null }, "geometry": { "type": "Point", "coordinates": [ 133.881035200000042, 35.4824301 ] } },
{ "type": "Feature", "properties": { "内容": "北栄町社会福祉協議会小規模多機能型居宅介護「いろりの郷」【小規模多機能型居宅介護】鳥取県東伯郡北栄町下種373番地4", "url": "https://www.kaigokensaku.mhlw.go.jp/31/index.php?action_kouhyou_detail_004_kani=true&JigyosyoCd=3191400138-00&ServiceCd=730&Type=search", "url2": "http://hokuei-syakyo.or.jp/" }, "geometry": { "type": "Point", "coordinates": [ 133.736697400000025, 35.4536694 ] } },
{ "type": "Feature", "properties": { "内容": "小規模多機能ホームばんだの里【小規模多機能型居宅介護】鳥取県西伯郡大山町安原1118-1", "url": "https://www.kaigokensaku.mhlw.go.jp/31/index.php?action_kouhyou_detail_004_kani=true&JigyosyoCd=3171500394-00&ServiceCd=730&Type=search", "url2": null }, "geometry": { "type": "Point", "coordinates": [ 133.440992, 35.4670078 ] } },
{ "type": "Feature", "properties": { "内容": "よろず承り処　かずき【小規模多機能型居宅介護】鳥取県西伯郡大山町押平747-1", "url": "https://www.kaigokensaku.mhlw.go.jp/31/index.php?action_kouhyou_detail_004_kani=true&JigyosyoCd=3191500028-00&ServiceCd=730&Type=search", "url2": "kimachi-kazuki.org" }, "geometry": { "type": "Point", "coordinates": [ 133.480474299999969, 35.4909597 ] } },
{ "type": "Feature", "properties": { "内容": "小規模多機能ホームきんもくせい【小規模多機能型居宅介護】鳥取県日野郡日野町根雨899-1", "url": "https://www.kaigokensaku.mhlw.go.jp/31/index.php?action_kouhyou_detail_004_kani=true&JigyosyoCd=3191600059-00&ServiceCd=730&Type=search", "url2": "https://www.nissyoukai.com/" }, "geometry": { "type": "Point", "coordinates": [ 133.4401339, 35.23474 ] } }
]
}
