{
"type": "FeatureCollection",
"name": "geo_31_高校",
"crs": { "type": "name", "properties": { "name": "urn:ogc:def:crs:EPSG::6668" } },
"features": [
{ "type": "Feature", "properties": { "P29_001": "31201", "P29_002": "D131210000018", "P29_003": "16004", "P29_004": "鳥取県立鳥取東高等学校", "P29_005": "鳥取県鳥取市立川町5-210", "P29_006": "2", "P29_007": "0", "P29_008": "00", "P29_009": null }, "geometry": { "type": "Point", "coordinates": [ 134.244256859027473, 35.490021773589945 ] } },
{ "type": "Feature", "properties": { "P29_001": "31201", "P29_002": "D131210000027", "P29_003": "16004", "P29_004": "鳥取県立鳥取西高等学校", "P29_005": "鳥取県鳥取市東町2-112", "P29_006": "2", "P29_007": "0", "P29_008": "00", "P29_009": null }, "geometry": { "type": "Point", "coordinates": [ 134.239000381243471, 35.506054163578227 ] } },
{ "type": "Feature", "properties": { "P29_001": "31201", "P29_002": "D131210000036", "P29_003": "16004", "P29_004": "鳥取県立鳥取商業高等学校", "P29_005": "鳥取県鳥取市湖山町北2-401", "P29_006": "2", "P29_007": "0", "P29_008": "00", "P29_009": null }, "geometry": { "type": "Point", "coordinates": [ 134.176076496629349, 35.519235713839784 ] } },
{ "type": "Feature", "properties": { "P29_001": "31201", "P29_002": "D131210000045", "P29_003": "16004", "P29_004": "鳥取県立鳥取工業高等学校", "P29_005": "鳥取県鳥取市生山111", "P29_006": "2", "P29_007": "0", "P29_008": "00", "P29_009": null }, "geometry": { "type": "Point", "coordinates": [ 134.25402668392266, 35.458272679549488 ] } },
{ "type": "Feature", "properties": { "P29_001": "31302", "P29_002": "D131210000054", "P29_003": "16004", "P29_004": "鳥取県立岩美高等学校", "P29_005": "鳥取県岩美郡岩美町浦富708-2", "P29_006": "2", "P29_007": "0", "P29_008": "00", "P29_009": null }, "geometry": { "type": "Point", "coordinates": [ 134.331288132391478, 35.573088756802079 ] } },
{ "type": "Feature", "properties": { "P29_001": "31329", "P29_002": "D131210000063", "P29_003": "16004", "P29_004": "鳥取県立八頭高等学校", "P29_005": "鳥取県八頭郡八頭町久能寺725", "P29_006": "2", "P29_007": "0", "P29_008": "00", "P29_009": null }, "geometry": { "type": "Point", "coordinates": [ 134.24506195369392, 35.404682691644837 ] } },
{ "type": "Feature", "properties": { "P29_001": "31328", "P29_002": "D131210000072", "P29_003": "16004", "P29_004": "鳥取県立智頭農林高等学校", "P29_005": "鳥取県八頭郡智頭町智頭711-1", "P29_006": "2", "P29_007": "0", "P29_008": "00", "P29_009": null }, "geometry": { "type": "Point", "coordinates": [ 134.233850211568324, 35.266989331883153 ] } },
{ "type": "Feature", "properties": { "P29_001": "31201", "P29_002": "D131210000081", "P29_003": "16004", "P29_004": "鳥取県立青谷高等学校", "P29_005": "鳥取県鳥取市青谷町青谷2912", "P29_006": "2", "P29_007": "0", "P29_008": "00", "P29_009": null }, "geometry": { "type": "Point", "coordinates": [ 134.000173361239575, 35.522166014284778 ] } },
{ "type": "Feature", "properties": { "P29_001": "31203", "P29_002": "D131210000090", "P29_003": "16004", "P29_004": "鳥取県立倉吉東高等学校", "P29_005": "鳥取県倉吉市下田中町801", "P29_006": "2", "P29_007": "0", "P29_008": "00", "P29_009": null }, "geometry": { "type": "Point", "coordinates": [ 133.844794327192886, 35.434939415353838 ] } },
{ "type": "Feature", "properties": { "P29_001": "31203", "P29_002": "D131210000107", "P29_003": "16004", "P29_004": "鳥取県立倉吉西高等学校", "P29_005": "鳥取県倉吉市秋喜20", "P29_006": "2", "P29_007": "0", "P29_008": "00", "P29_009": null }, "geometry": { "type": "Point", "coordinates": [ 133.801834333726134, 35.428663544846813 ] } },
{ "type": "Feature", "properties": { "P29_001": "31203", "P29_002": "D131210000116", "P29_003": "16004", "P29_004": "鳥取県立倉吉農業高等学校", "P29_005": "鳥取県倉吉市大谷166", "P29_006": "2", "P29_007": "0", "P29_008": "00", "P29_009": null }, "geometry": { "type": "Point", "coordinates": [ 133.784502657888225, 35.435298819142425 ] } },
{ "type": "Feature", "properties": { "P29_001": "31202", "P29_002": "D131210000125", "P29_003": "16004", "P29_004": "鳥取県立米子東高等学校", "P29_005": "鳥取県米子市勝田町1", "P29_006": "2", "P29_007": "0", "P29_008": "00", "P29_009": null }, "geometry": { "type": "Point", "coordinates": [ 133.343865075324942, 35.432892602377912 ] } },
{ "type": "Feature", "properties": { "P29_001": "31202", "P29_002": "D131210000134", "P29_003": "16004", "P29_004": "鳥取県立米子西高等学校", "P29_005": "鳥取県米子市大谷町200", "P29_006": "2", "P29_007": "0", "P29_008": "00", "P29_009": null }, "geometry": { "type": "Point", "coordinates": [ 133.327593483236683, 35.417337773357168 ] } },
{ "type": "Feature", "properties": { "P29_001": "31202", "P29_002": "D131210000143", "P29_003": "16004", "P29_004": "鳥取県立米子南高等学校", "P29_005": "鳥取県米子市長砂町216", "P29_006": "2", "P29_007": "0", "P29_008": "00", "P29_009": null }, "geometry": { "type": "Point", "coordinates": [ 133.350338556659409, 35.423140396247902 ] } },
{ "type": "Feature", "properties": { "P29_001": "31202", "P29_002": "D131210000152", "P29_003": "16004", "P29_004": "鳥取県立米子工業高等学校", "P29_005": "鳥取県米子市博労町4-220", "P29_006": "2", "P29_007": "0", "P29_008": "00", "P29_009": null }, "geometry": { "type": "Point", "coordinates": [ 133.340443824860586, 35.43569199440288 ] } },
{ "type": "Feature", "properties": { "P29_001": "31202", "P29_002": "D131210000161", "P29_003": "16004", "P29_004": "鳥取県立米子高等学校", "P29_005": "鳥取県米子市橋本30-1", "P29_006": "2", "P29_007": "0", "P29_008": "00", "P29_009": null }, "geometry": { "type": "Point", "coordinates": [ 133.353482393942983, 35.400402332132749 ] } },
{ "type": "Feature", "properties": { "P29_001": "31204", "P29_002": "D131210000170", "P29_003": "16004", "P29_004": "鳥取県立境高等学校", "P29_005": "鳥取県境港市上道町3030", "P29_006": "2", "P29_007": "0", "P29_008": "00", "P29_009": null }, "geometry": { "type": "Point", "coordinates": [ 133.233969335223804, 35.536773117198777 ] } },
{ "type": "Feature", "properties": { "P29_001": "31402", "P29_002": "D131210000189", "P29_003": "16004", "P29_004": "鳥取県立日野高等学校", "P29_005": "鳥取県日野郡日野町根雨310", "P29_006": "2", "P29_007": "0", "P29_008": "00", "P29_009": null }, "geometry": { "type": "Point", "coordinates": [ 133.439545722638485, 35.241839813473156 ] } },
{ "type": "Feature", "properties": { "P29_001": "31201", "P29_002": "D131210000198", "P29_003": "16004", "P29_004": "鳥取県立鳥取湖陵高等学校", "P29_005": "鳥取県鳥取市湖山町北3-250", "P29_006": "2", "P29_007": "0", "P29_008": "00", "P29_009": null }, "geometry": { "type": "Point", "coordinates": [ 134.176415905269522, 35.521498290313957 ] } },
{ "type": "Feature", "properties": { "P29_001": "31203", "P29_002": "D131210000205", "P29_003": "16004", "P29_004": "鳥取県立倉吉総合産業高等学校", "P29_005": "鳥取県倉吉市小田204-5", "P29_006": "2", "P29_007": "0", "P29_008": "00", "P29_009": null }, "geometry": { "type": "Point", "coordinates": [ 133.83248980508418, 35.460034770102325 ] } },
{ "type": "Feature", "properties": { "P29_001": "31372", "P29_002": "D131210000214", "P29_003": "16004", "P29_004": "鳥取県立鳥取中央育英高等学校", "P29_005": "鳥取県東伯郡北栄町由良宿291-1", "P29_006": "2", "P29_007": "0", "P29_008": "00", "P29_009": null }, "geometry": { "type": "Point", "coordinates": [ 133.757278867590287, 35.487712083718549 ] } },
{ "type": "Feature", "properties": { "P29_001": "31204", "P29_002": "D131210000223", "P29_003": "16004", "P29_004": "鳥取県立境港総合技術高等学校", "P29_005": "鳥取県境港市竹内町925", "P29_006": "2", "P29_007": "0", "P29_008": "00", "P29_009": null }, "geometry": { "type": "Point", "coordinates": [ 133.237709770145187, 35.526095173012877 ] } },
{ "type": "Feature", "properties": { "P29_001": "31201", "P29_002": "D131210000232", "P29_003": "16004", "P29_004": "鳥取県立鳥取緑風高等学校", "P29_005": "鳥取県鳥取市湖山町南3-848", "P29_006": "2", "P29_007": "0", "P29_008": "00", "P29_009": null }, "geometry": { "type": "Point", "coordinates": [ 134.177452025054862, 35.508829697941621 ] } },
{ "type": "Feature", "properties": { "P29_001": "31202", "P29_002": "D131210000241", "P29_003": "16004", "P29_004": "鳥取県立米子白鳳高等学校", "P29_005": "鳥取県米子市淀江町福岡24", "P29_006": "2", "P29_007": "0", "P29_008": "00", "P29_009": null }, "geometry": { "type": "Point", "coordinates": [ 133.442627411166455, 35.458972475589789 ] } },
{ "type": "Feature", "properties": { "P29_001": "31201", "P29_002": "D131310000016", "P29_003": "16004", "P29_004": "鳥取敬愛高等学校", "P29_005": "鳥取県鳥取市西町1-111", "P29_006": "4", "P29_007": "0", "P29_008": "00", "P29_009": null }, "geometry": { "type": "Point", "coordinates": [ 134.235742096902584, 35.503061163672861 ] } },
{ "type": "Feature", "properties": { "P29_001": "31201", "P29_002": "D131310000025", "P29_003": "16004", "P29_004": "鳥取城北高等学校", "P29_005": "鳥取県鳥取市西品治848", "P29_006": "4", "P29_007": "0", "P29_008": "00", "P29_009": null }, "geometry": { "type": "Point", "coordinates": [ 134.223780382493771, 35.50883031079313 ] } },
{ "type": "Feature", "properties": { "P29_001": "31203", "P29_002": "D131310000034", "P29_003": "16004", "P29_004": "倉吉北高等学校", "P29_005": "鳥取県倉吉市福庭町1-180", "P29_006": "4", "P29_007": "0", "P29_008": "00", "P29_009": null }, "geometry": { "type": "Point", "coordinates": [ 133.848447514428614, 35.465017587403104 ] } },
{ "type": "Feature", "properties": { "P29_001": "31202", "P29_002": "D131310000043", "P29_003": "16004", "P29_004": "米子北高等学校", "P29_005": "鳥取県米子市米原6-14-1", "P29_006": "4", "P29_007": "0", "P29_008": "00", "P29_009": null }, "geometry": { "type": "Point", "coordinates": [ 133.335715541703451, 35.445710765720634 ] } },
{ "type": "Feature", "properties": { "P29_001": "31202", "P29_002": "D131310000052", "P29_003": "16004", "P29_004": "米子松蔭高等学校", "P29_005": "鳥取県米子市二本木316-1", "P29_006": "4", "P29_007": "0", "P29_008": "00", "P29_009": null }, "geometry": { "type": "Point", "coordinates": [ 133.389133247138375, 35.42882866998491 ] } },
{ "type": "Feature", "properties": { "P29_001": "31202", "P29_002": "D131310000061", "P29_003": "16004", "P29_004": "米子北斗高等学校", "P29_005": "鳥取県米子市夜見町50", "P29_006": "4", "P29_007": "0", "P29_008": "00", "P29_009": null }, "geometry": { "type": "Point", "coordinates": [ 133.295335157560885, 35.453973119820695 ] } },
{ "type": "Feature", "properties": { "P29_001": "31370", "P29_002": "D131310000070", "P29_003": "16004", "P29_004": "湯梨浜学園高等学校", "P29_005": "鳥取県東伯郡湯梨浜町田畑32-1", "P29_006": "4", "P29_007": "0", "P29_008": "00", "P29_009": null }, "geometry": { "type": "Point", "coordinates": [ 133.907807651243189, 35.460104207121915 ] } },
{ "type": "Feature", "properties": { "P29_001": "31201", "P29_002": "D131310000089", "P29_003": "16004", "P29_004": "青翔開智高等学校", "P29_005": "鳥取県鳥取市国府町新通り3-301-2", "P29_006": "4", "P29_007": "0", "P29_008": "00", "P29_009": null }, "geometry": { "type": "Point", "coordinates": [ 134.25642187929941, 35.482116677813202 ] } }
]
}
