{
"type": "FeatureCollection",
"name": "geo_31_幼保連携型認定こども園",
"crs": { "type": "name", "properties": { "name": "urn:ogc:def:crs:EPSG::6668" } },
"features": [
{ "type": "Feature", "properties": { "P29_001": "31325", "P29_002": "A231210000013", "P29_003": "16013", "P29_004": "若桜町立わかさこども園", "P29_005": "鳥取県八頭郡若桜町若桜732-2", "P29_006": "3", "P29_007": "0", "P29_008": "00", "P29_009": null }, "geometry": { "type": "Point", "coordinates": [ 134.396344881993627, 35.342600019717842 ] } },
{ "type": "Feature", "properties": { "P29_001": "31370", "P29_002": "A231210000022", "P29_003": "16013", "P29_004": "湯梨浜町立たじりこども園", "P29_005": "鳥取県東伯郡湯梨浜町田後781-2", "P29_006": "3", "P29_007": "0", "P29_008": "00", "P29_009": null }, "geometry": { "type": "Point", "coordinates": [ 133.853097681990818, 35.484290950665745 ] } },
{ "type": "Feature", "properties": { "P29_001": "31370", "P29_002": "A231210000031", "P29_003": "16013", "P29_004": "湯梨浜町立あさひこども園", "P29_005": "鳥取県東伯郡湯梨浜町泊1175-7", "P29_006": "3", "P29_007": "0", "P29_008": "00", "P29_009": null }, "geometry": { "type": "Point", "coordinates": [ 133.943888265362517, 35.514203940298138 ] } },
{ "type": "Feature", "properties": { "P29_001": "31370", "P29_002": "A231210000040", "P29_003": "16013", "P29_004": "湯梨浜町立とうごうこども園", "P29_005": "鳥取県東伯郡湯梨浜町門田3", "P29_006": "3", "P29_007": "0", "P29_008": "00", "P29_009": null }, "geometry": { "type": "Point", "coordinates": [ 133.878624024026578, 35.465640842314862 ] } },
{ "type": "Feature", "properties": { "P29_001": "31370", "P29_002": "A231210000059", "P29_003": "16013", "P29_004": "湯梨浜町立はわいこども園", "P29_005": "鳥取県東伯郡湯梨浜町光吉107-1", "P29_006": "3", "P29_007": "0", "P29_008": "00", "P29_009": null }, "geometry": { "type": "Point", "coordinates": [ 133.878657002517002, 35.491895001006704 ] } },
{ "type": "Feature", "properties": { "P29_001": "31372", "P29_002": "A231210000068", "P29_003": "16013", "P29_004": "北栄町立認定こども園北条こども園", "P29_005": "鳥取県東伯郡北栄町国坂680", "P29_006": "3", "P29_007": "0", "P29_008": "00", "P29_009": null }, "geometry": { "type": "Point", "coordinates": [ 133.826341974459268, 35.481827934989759 ] } },
{ "type": "Feature", "properties": { "P29_001": "31372", "P29_002": "A231210000077", "P29_003": "16013", "P29_004": "北栄町立認定こども園大誠こども園", "P29_005": "鳥取県東伯郡北栄町瀬戸38-1", "P29_006": "3", "P29_007": "0", "P29_008": "00", "P29_009": null }, "geometry": { "type": "Point", "coordinates": [ 133.777375998369337, 35.482960998142772 ] } },
{ "type": "Feature", "properties": { "P29_001": "31372", "P29_002": "A231210000086", "P29_003": "16013", "P29_004": "北栄町立認定こども園由良こども園", "P29_005": "鳥取県東伯郡北栄町由良宿1802-1", "P29_006": "3", "P29_007": "0", "P29_008": "00", "P29_009": null }, "geometry": { "type": "Point", "coordinates": [ 133.750897004374195, 35.496133996964488 ] } },
{ "type": "Feature", "properties": { "P29_001": "31370", "P29_002": "A231210000095", "P29_003": "16013", "P29_004": "湯梨浜町立まつざきこども園", "P29_005": "鳥取県東伯郡湯梨浜町中興寺192-1", "P29_006": "3", "P29_007": "0", "P29_008": "00", "P29_009": null }, "geometry": { "type": "Point", "coordinates": [ 133.905919366847741, 35.472003300503467 ] } },
{ "type": "Feature", "properties": { "P29_001": "31372", "P29_002": "A231210000102", "P29_003": "16013", "P29_004": "北栄町立認定こども園大谷こども園", "P29_005": "鳥取県東伯郡北栄町大谷2112-175", "P29_006": "3", "P29_007": "0", "P29_008": "00", "P29_009": null }, "geometry": { "type": "Point", "coordinates": [ 133.73146546361815, 35.500727807874661 ] } },
{ "type": "Feature", "properties": { "P29_001": "31371", "P29_002": "A231210000111", "P29_003": "16013", "P29_004": "ことうらこども園", "P29_005": "鳥取県東伯郡琴浦町大字赤碕252-3", "P29_006": "3", "P29_007": "0", "P29_008": "00", "P29_009": null }, "geometry": { "type": "Point", "coordinates": [ 133.650216005433094, 35.51209999639471 ] } },
{ "type": "Feature", "properties": { "P29_001": "31371", "P29_002": "A231210000120", "P29_003": "16013", "P29_004": "こがねこども園", "P29_005": "鳥取県東伯郡琴浦町大字釛500", "P29_006": "3", "P29_007": "0", "P29_008": "00", "P29_009": null }, "geometry": { "type": "Point", "coordinates": [ 133.69229305821537, 35.471886921863906 ] } },
{ "type": "Feature", "properties": { "P29_001": "31371", "P29_002": "A231210000139", "P29_003": "16013", "P29_004": "やばせこども園", "P29_005": "鳥取県東伯郡琴浦町田越550", "P29_006": "3", "P29_007": "0", "P29_008": "00", "P29_009": null }, "geometry": { "type": "Point", "coordinates": [ 133.683054000343844, 35.496692001424421 ] } },
{ "type": "Feature", "properties": { "P29_001": "31371", "P29_002": "A231210000148", "P29_003": "16013", "P29_004": "しらとりこども園", "P29_005": "鳥取県東伯郡琴浦町下伊勢164-1", "P29_006": "3", "P29_007": "0", "P29_008": "00", "P29_009": null }, "geometry": { "type": "Point", "coordinates": [ 133.700228734455806, 35.494323522685541 ] } },
{ "type": "Feature", "properties": { "P29_001": "31371", "P29_002": "A231210000157", "P29_003": "16013", "P29_004": "ふなのえこども園", "P29_005": "鳥取県東伯郡琴浦町佐崎12", "P29_006": "3", "P29_007": "0", "P29_008": "00", "P29_009": null }, "geometry": { "type": "Point", "coordinates": [ 133.62646506119421, 35.497973087370099 ] } },
{ "type": "Feature", "properties": { "P29_001": "31202", "P29_002": "A231210000166", "P29_003": "16013", "P29_004": "淀江どんぐりこども園", "P29_005": "鳥取県米子市淀江町淀江2-207", "P29_006": "3", "P29_007": "0", "P29_008": "00", "P29_009": null }, "geometry": { "type": "Point", "coordinates": [ 133.433106993864243, 35.455525666047905 ] } },
{ "type": "Feature", "properties": { "P29_001": "31401", "P29_002": "A231210000175", "P29_003": "16013", "P29_004": "認定こども園にちなん十色", "P29_005": "鳥取県日野郡日南町霞740-1", "P29_006": "3", "P29_007": "0", "P29_008": "00", "P29_009": null }, "geometry": { "type": "Point", "coordinates": [ 133.308582257963678, 35.165572350345535 ] } },
{ "type": "Feature", "properties": { "P29_001": "31201", "P29_002": "A231310000011", "P29_003": "16013", "P29_004": "認定こども園鳥取第二幼稚園", "P29_005": "鳥取県鳥取市西品治856", "P29_006": "4", "P29_007": "0", "P29_008": "00", "P29_009": null }, "geometry": { "type": "Point", "coordinates": [ 134.225316156445643, 35.509753343884157 ] } },
{ "type": "Feature", "properties": { "P29_001": "31201", "P29_002": "A231310000020", "P29_003": "16013", "P29_004": "認定こども園ひかりこども園", "P29_005": "鳥取県鳥取市湖山町北3-405", "P29_006": "4", "P29_007": "0", "P29_008": "00", "P29_009": null }, "geometry": { "type": "Point", "coordinates": [ 134.179643561894778, 35.520002583950266 ] } },
{ "type": "Feature", "properties": { "P29_001": "31201", "P29_002": "A231310000039", "P29_003": "16013", "P29_004": "認定こども園さくら幼稚園・さくら保育園", "P29_005": "鳥取県鳥取市桜谷347", "P29_006": "4", "P29_007": "0", "P29_008": "00", "P29_009": null }, "geometry": { "type": "Point", "coordinates": [ 134.253649998071495, 35.472849998376645 ] } },
{ "type": "Feature", "properties": { "P29_001": "31201", "P29_002": "A231310000048", "P29_003": "16013", "P29_004": "認定こども園稲葉幼稚園・稲葉保育園", "P29_005": "鳥取県鳥取市滝山449-1", "P29_006": "4", "P29_007": "0", "P29_008": "00", "P29_009": null }, "geometry": { "type": "Point", "coordinates": [ 134.259426287184198, 35.493310382372727 ] } },
{ "type": "Feature", "properties": { "P29_001": "31201", "P29_002": "A231310000057", "P29_003": "16013", "P29_004": "認定こども園鳥取第四幼稚園", "P29_005": "鳥取県鳥取市的場151", "P29_006": "4", "P29_007": "0", "P29_008": "00", "P29_009": null }, "geometry": { "type": "Point", "coordinates": [ 134.227308180216227, 35.476636801602531 ] } },
{ "type": "Feature", "properties": { "P29_001": "31202", "P29_002": "A231310000066", "P29_003": "16013", "P29_004": "認定こども園あけぼの幼稚園", "P29_005": "鳥取県米子市義方町4-1", "P29_006": "4", "P29_007": "0", "P29_008": "00", "P29_009": null }, "geometry": { "type": "Point", "coordinates": [ 133.321887360077454, 35.438280628252414 ] } },
{ "type": "Feature", "properties": { "P29_001": "31202", "P29_002": "A231310000075", "P29_003": "16013", "P29_004": "認定こども園かいけ心正こども園", "P29_005": "鳥取県米子市新開4-14-11", "P29_006": "4", "P29_007": "0", "P29_008": "00", "P29_009": null }, "geometry": { "type": "Point", "coordinates": [ 133.342601002201349, 35.461010000524624 ] } },
{ "type": "Feature", "properties": { "P29_001": "31202", "P29_002": "A231310000084", "P29_003": "16013", "P29_004": "認定こども園ベアーズ", "P29_005": "鳥取県米子市榎原1889-6", "P29_006": "4", "P29_007": "0", "P29_008": "00", "P29_009": null }, "geometry": { "type": "Point", "coordinates": [ 133.361008661400888, 35.398916859279709 ] } },
{ "type": "Feature", "properties": { "P29_001": "31202", "P29_002": "A231310000093", "P29_003": "16013", "P29_004": "幼保連携型認定こども園キッズタウンかみごとう", "P29_005": "鳥取県米子市両三柳1400", "P29_006": "4", "P29_007": "0", "P29_008": "00", "P29_009": null }, "geometry": { "type": "Point", "coordinates": [ 133.316789477730936, 35.449441579586221 ] } },
{ "type": "Feature", "properties": { "P29_001": "31203", "P29_002": "A231310000100", "P29_003": "16013", "P29_004": "認定こども園倉吉幼稚園", "P29_005": "鳥取県倉吉市仲ノ町742-1", "P29_006": "4", "P29_007": "0", "P29_008": "00", "P29_009": null }, "geometry": { "type": "Point", "coordinates": [ 133.821446610620342, 35.431007331481247 ] } },
{ "type": "Feature", "properties": { "P29_001": "31203", "P29_002": "A231310000119", "P29_003": "16013", "P29_004": "認定こども園聖テレジアこども園", "P29_005": "鳥取県倉吉市福吉町1376-6", "P29_006": "4", "P29_007": "0", "P29_008": "00", "P29_009": null }, "geometry": { "type": "Point", "coordinates": [ 133.818517611414336, 35.434819565676847 ] } },
{ "type": "Feature", "properties": { "P29_001": "31203", "P29_002": "A231310000128", "P29_003": "16013", "P29_004": "認定こども園鳥取短期大学付属こども園", "P29_005": "鳥取県倉吉市福庭854", "P29_006": "4", "P29_007": "0", "P29_008": "00", "P29_009": null }, "geometry": { "type": "Point", "coordinates": [ 133.860651989007465, 35.455925197235466 ] } },
{ "type": "Feature", "properties": { "P29_001": "31204", "P29_002": "A231310000137", "P29_003": "16013", "P29_004": "認定こども園美哉幼稚園", "P29_005": "鳥取県境港市明治町175", "P29_006": "4", "P29_007": "0", "P29_008": "00", "P29_009": null }, "geometry": { "type": "Point", "coordinates": [ 133.229010089516038, 35.54314477034243 ] } },
{ "type": "Feature", "properties": { "P29_001": "31203", "P29_002": "A231310000146", "P29_003": "16013", "P29_004": "倉吉東こども園", "P29_005": "鳥取県倉吉市上井781-1", "P29_006": "4", "P29_007": "0", "P29_008": "00", "P29_009": null }, "geometry": { "type": "Point", "coordinates": [ 133.844173004056017, 35.446811003262987 ] } },
{ "type": "Feature", "properties": { "P29_001": "31371", "P29_002": "A231310000155", "P29_003": "16013", "P29_004": "赤碕こども園", "P29_005": "鳥取県東伯郡琴浦町赤碕1867-8", "P29_006": "4", "P29_007": "0", "P29_008": "00", "P29_009": null }, "geometry": { "type": "Point", "coordinates": [ 133.636011004616279, 35.508073002333148 ] } },
{ "type": "Feature", "properties": { "P29_001": "31202", "P29_002": "A231310000164", "P29_003": "16013", "P29_004": "認定こども園キッズタウンさくら", "P29_005": "鳥取県米子市兼久606-3", "P29_006": "4", "P29_007": "0", "P29_008": "00", "P29_009": null }, "geometry": { "type": "Point", "coordinates": [ 133.362764997936239, 35.409665002731558 ] } },
{ "type": "Feature", "properties": { "P29_001": "31372", "P29_002": "A231310000173", "P29_003": "16013", "P29_004": "北条みどりこども園", "P29_005": "鳥取県東伯郡北栄町江北484-3", "P29_006": "4", "P29_007": "0", "P29_008": "00", "P29_009": null }, "geometry": { "type": "Point", "coordinates": [ 133.83659299441166, 35.480762001637231 ] } },
{ "type": "Feature", "properties": { "P29_001": "31203", "P29_002": "A231310000182", "P29_003": "16013", "P29_004": "認定こども園倉吉愛児園", "P29_005": "鳥取県倉吉市東町342", "P29_006": "4", "P29_007": "0", "P29_008": "00", "P29_009": null }, "geometry": { "type": "Point", "coordinates": [ 133.829691902899327, 35.430233036368591 ] } },
{ "type": "Feature", "properties": { "P29_001": "31202", "P29_002": "A231310000191", "P29_003": "16013", "P29_004": "認定こども園仁慈保幼園", "P29_005": "鳥取県米子市東町456", "P29_006": "4", "P29_007": "0", "P29_008": "00", "P29_009": null }, "geometry": { "type": "Point", "coordinates": [ 133.329386999351101, 35.423726998683179 ] } },
{ "type": "Feature", "properties": { "P29_001": "31203", "P29_002": "A231310000208", "P29_003": "16013", "P29_004": "どんぐりこども園", "P29_005": "鳥取県倉吉市上灘町41-1", "P29_006": "4", "P29_007": "0", "P29_008": "00", "P29_009": null }, "geometry": { "type": "Point", "coordinates": [ 133.840835904357277, 35.431942472646149 ] } },
{ "type": "Feature", "properties": { "P29_001": "31201", "P29_002": "A231310000217", "P29_003": "16013", "P29_004": "鳥取みどり園", "P29_005": "鳥取県鳥取市立川町5-417", "P29_006": "4", "P29_007": "0", "P29_008": "00", "P29_009": null }, "geometry": { "type": "Point", "coordinates": [ 134.240958217756543, 35.490808276775326 ] } },
{ "type": "Feature", "properties": { "P29_001": "31201", "P29_002": "A231310000226", "P29_003": "16013", "P29_004": "わかば台こども園", "P29_005": "鳥取県鳥取市若葉台南2-205-2", "P29_006": "4", "P29_007": "0", "P29_008": "00", "P29_009": null }, "geometry": { "type": "Point", "coordinates": [ 134.263846190901006, 35.447573239583427 ] } },
{ "type": "Feature", "properties": { "P29_001": "31201", "P29_002": "A231310000235", "P29_003": "16013", "P29_004": "こども園かける", "P29_005": "鳥取県鳥取市立川町5-260-6", "P29_006": "4", "P29_007": "0", "P29_008": "00", "P29_009": null }, "geometry": { "type": "Point", "coordinates": [ 134.244240715526814, 35.487979435379806 ] } },
{ "type": "Feature", "properties": { "P29_001": "31202", "P29_002": "A231310000244", "P29_003": "16013", "P29_004": "えんぜるこども園", "P29_005": "鳥取県米子市旗ヶ崎1-3-10", "P29_006": "4", "P29_007": "0", "P29_008": "00", "P29_009": null }, "geometry": { "type": "Point", "coordinates": [ 133.319319191543201, 35.437313267661239 ] } },
{ "type": "Feature", "properties": { "P29_001": "31201", "P29_002": "A231310000253", "P29_003": "16013", "P29_004": "むつみこども園", "P29_005": "鳥取県鳥取市二階町4-201", "P29_006": "4", "P29_007": "0", "P29_008": "00", "P29_009": null }, "geometry": { "type": "Point", "coordinates": [ 134.229178961569346, 35.502539943745631 ] } },
{ "type": "Feature", "properties": { "P29_001": "31201", "P29_002": "A231310000262", "P29_003": "16013", "P29_004": "さとにこども園", "P29_005": "鳥取県鳥取市里仁27", "P29_006": "4", "P29_007": "0", "P29_008": "00", "P29_009": null }, "geometry": { "type": "Point", "coordinates": [ 134.195284625750162, 35.503624009540154 ] } },
{ "type": "Feature", "properties": { "P29_001": "31201", "P29_002": "A231310000271", "P29_003": "16013", "P29_004": "認定こども園鳥取第三幼稚園", "P29_005": "鳥取県鳥取市浜坂3-16-3", "P29_006": "4", "P29_007": "0", "P29_008": "00", "P29_009": null }, "geometry": { "type": "Point", "coordinates": [ 134.214931547854121, 35.532620113289198 ] } }
]
}
