{
"type": "FeatureCollection",
"name": "geo_31_幼稚園",
"crs": { "type": "name", "properties": { "name": "urn:ogc:def:crs:EPSG::6668" } },
"features": [
{ "type": "Feature", "properties": { "P29_001": "31201", "P29_002": "A131110000016", "P29_003": "16011", "P29_004": "鳥取大学附属幼稚園", "P29_005": "鳥取県鳥取市湖山町北2-465", "P29_006": "1", "P29_007": "0", "P29_008": "00", "P29_009": null }, "geometry": { "type": "Point", "coordinates": [ 134.175559998978173, 35.520930999614905 ] } },
{ "type": "Feature", "properties": { "P29_001": "31201", "P29_002": "A131210000014", "P29_003": "16011", "P29_004": "鳥取市立福部未来学園幼稚園", "P29_005": "鳥取県鳥取市福部町高江188", "P29_006": "3", "P29_007": "0", "P29_008": "00", "P29_009": null }, "geometry": { "type": "Point", "coordinates": [ 134.282106538848723, 35.543965724079222 ] } },
{ "type": "Feature", "properties": { "P29_001": "31201", "P29_002": "A131210000023", "P29_003": "16011", "P29_004": "鳥取市立河原幼稚園", "P29_005": "鳥取県鳥取市河原町長瀬48-1", "P29_006": "3", "P29_007": "0", "P29_008": "00", "P29_009": null }, "geometry": { "type": "Point", "coordinates": [ 134.199401256862956, 35.408823647322365 ] } },
{ "type": "Feature", "properties": { "P29_001": "31201", "P29_002": "A131210000032", "P29_003": "16011", "P29_004": "鳥取市立こじか幼稚園", "P29_005": "鳥取県鳥取市鹿野町鹿野583-3", "P29_006": "3", "P29_007": "0", "P29_008": "00", "P29_009": null }, "geometry": { "type": "Point", "coordinates": [ 134.068159835834734, 35.462904625977032 ] } },
{ "type": "Feature", "properties": { "P29_001": "31201", "P29_002": "A131310000012", "P29_003": "16011", "P29_004": "小さき花園幼稚園", "P29_005": "鳥取県鳥取市西町1-455", "P29_006": "4", "P29_007": "0", "P29_008": "00", "P29_009": null }, "geometry": { "type": "Point", "coordinates": [ 134.236229800682764, 35.50404264016818 ] } },
{ "type": "Feature", "properties": { "P29_001": "31201", "P29_002": "A131310000021", "P29_003": "16011", "P29_004": "認定こども園鳥取第一幼稚園", "P29_005": "鳥取県鳥取市吉方温泉1-609", "P29_006": "4", "P29_007": "0", "P29_008": "00", "P29_009": null }, "geometry": { "type": "Point", "coordinates": [ 134.232695005407294, 35.495658004494558 ] } },
{ "type": "Feature", "properties": { "P29_001": "31201", "P29_002": "A131310000030", "P29_003": "16011", "P29_004": "愛真幼稚園", "P29_005": "鳥取県鳥取市西町1-226", "P29_006": "4", "P29_007": "0", "P29_008": "00", "P29_009": null }, "geometry": { "type": "Point", "coordinates": [ 134.235029998639618, 35.50339500228327 ] } },
{ "type": "Feature", "properties": { "P29_001": "31201", "P29_002": "A131310000058", "P29_003": "16011", "P29_004": "鳥取ルーテル幼稚園", "P29_005": "鳥取県鳥取市元大工町46", "P29_006": "4", "P29_007": "0", "P29_008": "00", "P29_009": null }, "geometry": { "type": "Point", "coordinates": [ 134.235411027377978, 35.499697368716923 ] } },
{ "type": "Feature", "properties": { "P29_001": "31202", "P29_002": "A131310000067", "P29_003": "16011", "P29_004": "良善幼稚園", "P29_005": "鳥取県米子市安倍65", "P29_006": "4", "P29_007": "0", "P29_008": "00", "P29_009": null }, "geometry": { "type": "Point", "coordinates": [ 133.306122389259343, 35.444446015098492 ] } },
{ "type": "Feature", "properties": { "P29_001": "31202", "P29_002": "A131310000076", "P29_003": "16011", "P29_004": "米子幼稚園", "P29_005": "鳥取県米子市両三柳2755", "P29_006": "4", "P29_007": "0", "P29_008": "00", "P29_009": null }, "geometry": { "type": "Point", "coordinates": [ 133.320423445313878, 35.460022131806539 ] } },
{ "type": "Feature", "properties": { "P29_001": "31202", "P29_002": "A131310000085", "P29_003": "16011", "P29_004": "米子みどり幼稚園", "P29_005": "鳥取県米子市車尾3-12-56", "P29_006": "4", "P29_007": "0", "P29_008": "00", "P29_009": null }, "geometry": { "type": "Point", "coordinates": [ 133.358511999892244, 35.434274001475764 ] } },
{ "type": "Feature", "properties": { "P29_001": "31202", "P29_002": "A131310000094", "P29_003": "16011", "P29_004": "認定こども園みずほ幼稚園", "P29_005": "鳥取県米子市陰田町324-6", "P29_006": "4", "P29_007": "0", "P29_008": "00", "P29_009": null }, "geometry": { "type": "Point", "coordinates": [ 133.330468820619728, 35.412433394565639 ] } },
{ "type": "Feature", "properties": { "P29_001": "31202", "P29_002": "A131310000101", "P29_003": "16011", "P29_004": "かもめ幼稚園", "P29_005": "鳥取県米子市夜見町2568", "P29_006": "4", "P29_007": "0", "P29_008": "00", "P29_009": null }, "geometry": { "type": "Point", "coordinates": [ 133.300897523932747, 35.467517980268177 ] } },
{ "type": "Feature", "properties": { "P29_001": "31202", "P29_002": "A131310000110", "P29_003": "16011", "P29_004": "にしき幼稚園", "P29_005": "鳥取県米子市河崎1660", "P29_006": "4", "P29_007": "0", "P29_008": "00", "P29_009": null }, "geometry": { "type": "Point", "coordinates": [ 133.300664994199252, 35.448937997955092 ] } },
{ "type": "Feature", "properties": { "P29_001": "31204", "P29_002": "A131310000129", "P29_003": "16011", "P29_004": "聖心幼稚園", "P29_005": "鳥取県境港市中町106", "P29_006": "4", "P29_007": "0", "P29_008": "00", "P29_009": null }, "geometry": { "type": "Point", "coordinates": [ 133.232415999457857, 35.545219001601801 ] } },
{ "type": "Feature", "properties": { "P29_001": "31202", "P29_002": "A131310000147", "P29_003": "16011", "P29_004": "東みずほ幼稚園", "P29_005": "鳥取県米子市福市1730-9", "P29_006": "4", "P29_007": "0", "P29_008": "00", "P29_009": null }, "geometry": { "type": "Point", "coordinates": [ 133.37522499482219, 35.397669003698297 ] } },
{ "type": "Feature", "properties": { "P29_001": "31202", "P29_002": "A131310000156", "P29_003": "16011", "P29_004": "西部あおば幼稚園", "P29_005": "鳥取県米子市二本木259-6", "P29_006": "4", "P29_007": "0", "P29_008": "00", "P29_009": null }, "geometry": { "type": "Point", "coordinates": [ 133.392041483838142, 35.431962343606159 ] } },
{ "type": "Feature", "properties": { "P29_001": "31201", "P29_002": "A131310000165", "P29_003": "16011", "P29_004": "認定こども園鳥取第五幼稚園", "P29_005": "鳥取県鳥取市美萩野2-233", "P29_006": "4", "P29_007": "0", "P29_008": "00", "P29_009": null }, "geometry": { "type": "Point", "coordinates": [ 134.138895923665672, 35.521565967923941 ] } }
]
}
