{
"type": "FeatureCollection",
"name": "geo_31_1",
"crs": { "type": "name", "properties": { "name": "urn:ogc:def:crs:OGC:1.3:CRS84" } },
"features": [
{ "type": "Feature", "properties": { "ID": 3113111000157, "正式名称": "社会医療法人明和会医療福祉センター渡辺病院", "機関区分": 1, "都道府県コード": 31, "市区町村コード": 201, "所在地": "鳥取県鳥取市東町３丁目３０７番地", "緯度": 35.508213, "経度": 134.233863, "url": "https://www.iryou.teikyouseido.mhlw.go.jp/znk-web/juminkanja/S2430/initialize?prefCd=31&kikanCd=3111000157&kikanKbn=1", "url2": "https://www.mmwc.or.jp/facilities/access/", "内容": "社会医療法人明和会医療福祉センター渡辺病院【1:病院】【診療科目:精神科_神経科_心療内科】【一般病床数:0療養病床数:0精神病床数:0感染症病床数:0合計病床数:0】鳥取県鳥取市東町３丁目３０７番地" }, "geometry": { "type": "Point", "coordinates": [ 134.233863, 35.508213 ] } },
{ "type": "Feature", "properties": { "ID": 3113111000158, "正式名称": "幡病院", "機関区分": 1, "都道府県コード": 31, "市区町村コード": 201, "所在地": "鳥取県鳥取市雲山５７", "緯度": 35.481244, "経度": 134.239053, "url": "https://www.iryou.teikyouseido.mhlw.go.jp/znk-web/juminkanja/S2430/initialize?prefCd=31&kikanCd=3111000158&kikanKbn=1", "url2": "http://www.hatahosp.com", "内容": "幡病院【1:病院】【診療科目:精神科】【一般病床数:0療養病床数:0精神病床数:120感染症病床数:0合計病床数:120】鳥取県鳥取市雲山５７" }, "geometry": { "type": "Point", "coordinates": [ 134.239053, 35.481244 ] } },
{ "type": "Feature", "properties": { "ID": 3113111000159, "正式名称": "医療法人緑会上田病院", "機関区分": 1, "都道府県コード": 31, "市区町村コード": 201, "所在地": "鳥取県鳥取市西町１丁目４５１番地", "緯度": 35.50445, "経度": 134.235094, "url": "https://www.iryou.teikyouseido.mhlw.go.jp/znk-web/juminkanja/S2430/initialize?prefCd=31&kikanCd=3111000159&kikanKbn=1", "url2": null, "内容": "医療法人緑会上田病院【1:病院】【診療科目:内科_精神科】【一般病床数:0療養病床数:0精神病床数:106感染症病床数:0合計病床数:106】鳥取県鳥取市西町１丁目４５１番地" }, "geometry": { "type": "Point", "coordinates": [ 134.235094, 35.50445 ] } },
{ "type": "Feature", "properties": { "ID": 3113111000161, "正式名称": "鳥取産院", "機関区分": 1, "都道府県コード": 31, "市区町村コード": 201, "所在地": "鳥取県鳥取市吉方温泉１丁目６５３番地", "緯度": 35.495469, "経度": 134.232314, "url": "https://www.iryou.teikyouseido.mhlw.go.jp/znk-web/juminkanja/S2430/initialize?prefCd=31&kikanCd=3111000161&kikanKbn=1", "url2": "https://asupiosu.or.jp", "内容": "鳥取産院【1:病院】【診療科目:小児科_産婦人科】【一般病床数:20療養病床数:0精神病床数:0感染症病床数:0合計病床数:20】鳥取県鳥取市吉方温泉１丁目６５３番地" }, "geometry": { "type": "Point", "coordinates": [ 134.232314, 35.495469 ] } },
{ "type": "Feature", "properties": { "ID": 3113111000162, "正式名称": "医療法人社団尾﨑病院", "機関区分": 1, "都道府県コード": 31, "市区町村コード": 201, "所在地": "鳥取県鳥取市湖山町北２丁目５５５", "緯度": 35.522611, "経度": 134.173989, "url": "https://www.iryou.teikyouseido.mhlw.go.jp/znk-web/juminkanja/S2430/initialize?prefCd=31&kikanCd=3111000162&kikanKbn=1", "url2": "https://www.ozakihp.or.jp/", "内容": "医療法人社団尾﨑病院【1:病院】【診療科目:内科_循環器内科_人工透析内科_神経内科_外科_整形外科_リハビリテーション科】【一般病床数:60療養病床数:120精神病床数:0感染症病床数:0合計病床数:180】鳥取県鳥取市湖山町北２丁目５５５" }, "geometry": { "type": "Point", "coordinates": [ 134.173989, 35.522611 ] } },
{ "type": "Feature", "properties": { "ID": 3113111000192, "正式名称": "鳥取医療生協　鹿野温泉病院", "機関区分": 1, "都道府県コード": 31, "市区町村コード": 201, "所在地": "鳥取県鳥取市鹿野町今市２４２", "緯度": 35.46209, "経度": 134.05048, "url": "https://www.iryou.teikyouseido.mhlw.go.jp/znk-web/juminkanja/S2430/initialize?prefCd=31&kikanCd=3111000192&kikanKbn=1", "url2": "https://shikano.mcoop-tottori.jp/", "内容": "鳥取医療生協　鹿野温泉病院【1:病院】【診療科目:内科_神経内科_外科_脳神経外科_整形外科_精神科_リハビリテーション科】【一般病床数:0療養病床数:141精神病床数:0感染症病床数:0合計病床数:141】鳥取県鳥取市鹿野町今市２４２" }, "geometry": { "type": "Point", "coordinates": [ 134.05048, 35.46209 ] } },
{ "type": "Feature", "properties": { "ID": 3113111000194, "正式名称": "医療法人里仁会　北岡病院", "機関区分": 1, "都道府県コード": 31, "市区町村コード": 203, "所在地": "鳥取県倉吉市明治町１０３１番地５", "緯度": 35.433339, "経度": 133.824247, "url": "https://www.iryou.teikyouseido.mhlw.go.jp/znk-web/juminkanja/S2430/initialize?prefCd=31&kikanCd=3111000194&kikanKbn=1", "url2": "https://kitaoka-hp.jp", "内容": "医療法人里仁会　北岡病院【1:病院】【診療科目:内科_呼吸器内科_外科_消化器外科_整形外科】【一般病床数:72療養病床数:30精神病床数:0感染症病床数:0合計病床数:102】鳥取県倉吉市明治町１０３１番地５" }, "geometry": { "type": "Point", "coordinates": [ 133.824247, 35.433339 ] } },
{ "type": "Feature", "properties": { "ID": 3113111000195, "正式名称": "医療法人清和会　垣田病院", "機関区分": 1, "都道府県コード": 31, "市区町村コード": 203, "所在地": "鳥取県倉吉市上井３０２－１", "緯度": 35.453859, "経度": 133.846049, "url": "https://www.iryou.teikyouseido.mhlw.go.jp/znk-web/juminkanja/S2430/initialize?prefCd=31&kikanCd=3111000195&kikanKbn=1", "url2": "https://kakita-hp.jp/", "内容": "医療法人清和会　垣田病院【1:病院】【診療科目:内科_呼吸器内科_循環器内科_神経内科_眼科】【一般病床数:86療養病床数:0精神病床数:0感染症病床数:0合計病床数:86】鳥取県倉吉市上井３０２－１" }, "geometry": { "type": "Point", "coordinates": [ 133.846049, 35.453859 ] } },
{ "type": "Feature", "properties": { "ID": 3113111000196, "正式名称": "医療法人　専仁会　信生病院", "機関区分": 1, "都道府県コード": 31, "市区町村コード": 203, "所在地": "鳥取県倉吉市清谷町１丁目２８６", "緯度": 35.477677, "経度": 133.849296, "url": "https://www.iryou.teikyouseido.mhlw.go.jp/znk-web/juminkanja/S2430/initialize?prefCd=31&kikanCd=3111000196&kikanKbn=1", "url2": "http://www.ncn-k.net/sinsei/", "内容": "医療法人　専仁会　信生病院【1:病院】【診療科目:内科_血液内科_循環器内科_消化器内科_神経内科_外科_整形外科_リハビリテーション科_放射線診断科_麻酔科】【一般病床数:0療養病床数:92精神病床数:0感染症病床数:0合計病床数:92】鳥取県倉吉市清谷町１丁目２８６" }, "geometry": { "type": "Point", "coordinates": [ 133.849296, 35.477677 ] } },
{ "type": "Feature", "properties": { "ID": 3113111000197, "正式名称": "医療法人清生会　谷口病院", "機関区分": 1, "都道府県コード": 31, "市区町村コード": 203, "所在地": "鳥取県倉吉市上井町１丁目１３番地", "緯度": 35.451625, "経度": 133.850397, "url": "https://www.iryou.teikyouseido.mhlw.go.jp/znk-web/juminkanja/S2430/initialize?prefCd=31&kikanCd=3111000197&kikanKbn=1", "url2": "https://www.seiseikai.jp/", "内容": "医療法人清生会　谷口病院【1:病院】【診療科目:内科_腎臓内科_皮膚科_泌尿器科_リハビリテーション科_麻酔科】【一般病床数:42療養病床数:0精神病床数:0感染症病床数:0合計病床数:42】鳥取県倉吉市上井町１丁目１３番地" }, "geometry": { "type": "Point", "coordinates": [ 133.850397, 35.451625 ] } },
{ "type": "Feature", "properties": { "ID": 3113111000198, "正式名称": "医療福祉センター倉吉病院", "機関区分": 1, "都道府県コード": 31, "市区町村コード": 203, "所在地": "鳥取県倉吉市山根４３", "緯度": 35.452215, "経度": 133.856015, "url": "https://www.iryou.teikyouseido.mhlw.go.jp/znk-web/juminkanja/S2430/initialize?prefCd=31&kikanCd=3111000198&kikanKbn=1", "url2": "https://www.med-wel.jp/", "内容": "医療福祉センター倉吉病院【1:病院】【診療科目:皮膚科_精神科】【一般病床数:0療養病床数:0精神病床数:250感染症病床数:0合計病床数:250】鳥取県倉吉市山根４３" }, "geometry": { "type": "Point", "coordinates": [ 133.856015, 35.452215 ] } },
{ "type": "Feature", "properties": { "ID": 3113111000199, "正式名称": "鳥取県中部医師会立三朝温泉病院", "機関区分": 1, "都道府県コード": 31, "市区町村コード": 364, "所在地": "鳥取県東伯郡三朝町大字山田６９０", "緯度": 35.413275, "経度": 133.883121, "url": "https://www.iryou.teikyouseido.mhlw.go.jp/znk-web/juminkanja/S2430/initialize?prefCd=31&kikanCd=3111000199&kikanKbn=1", "url2": "http://www.hosp.misasa.tottori.jp/", "内容": "鳥取県中部医師会立三朝温泉病院【1:病院】【診療科目:内科_神経内科_外科_整形外科_リウマチ科_リハビリテーション科_麻酔科】【一般病床数:83療養病床数:95精神病床数:0感染症病床数:0合計病床数:178】鳥取県東伯郡三朝町大字山田６９０" }, "geometry": { "type": "Point", "coordinates": [ 133.883121, 35.413275 ] } },
{ "type": "Feature", "properties": { "ID": 3113111000200, "正式名称": "鳥取県立総合療育センター", "機関区分": 1, "都道府県コード": 31, "市区町村コード": 202, "所在地": "鳥取県米子市上福原７丁目１３－３", "緯度": 35.456316, "経度": 133.353828, "url": "https://www.iryou.teikyouseido.mhlw.go.jp/znk-web/juminkanja/S2430/initialize?prefCd=31&kikanCd=3111000200&kikanKbn=1", "url2": "https://www.pref.tottori.lg.jp/sogoryoikucenter/", "内容": "鳥取県立総合療育センター【1:病院】【診療科目:整形外科_小児科_児童精神科_耳鼻いんこう科_皮膚科_歯科_リハビリテーション科】【一般病床数:69療養病床数:0精神病床数:0感染症病床数:0合計病床数:69】鳥取県米子市上福原７丁目１３－３" }, "geometry": { "type": "Point", "coordinates": [ 133.353828, 35.456316 ] } },
{ "type": "Feature", "properties": { "ID": 3113111000201, "正式名称": "医療法人　養和会　養和病院", "機関区分": 1, "都道府県コード": 31, "市区町村コード": 202, "所在地": "鳥取県米子市上後藤３－５－１", "緯度": 35.448418, "経度": 133.318081, "url": "https://www.iryou.teikyouseido.mhlw.go.jp/znk-web/juminkanja/S2430/initialize?prefCd=31&kikanCd=3111000201&kikanKbn=1", "url2": "https://www.yowakai.com/", "内容": "医療法人　養和会　養和病院【1:病院】【診療科目:内科_神経内科_形成外科_精神科_リハビリテーション科】【一般病床数:0療養病床数:60精神病床数:170感染症病床数:0合計病床数:230】鳥取県米子市上後藤３－５－１" }, "geometry": { "type": "Point", "coordinates": [ 133.318081, 35.448418 ] } },
{ "type": "Feature", "properties": { "ID": 3113111000202, "正式名称": "独立行政法人国立病院機構鳥取医療センター", "機関区分": 1, "都道府県コード": 31, "市区町村コード": 201, "所在地": "鳥取県鳥取市三津８７６", "緯度": 35.521689, "経度": 134.149331, "url": "https://www.iryou.teikyouseido.mhlw.go.jp/znk-web/juminkanja/S2430/initialize?prefCd=31&kikanCd=3111000202&kikanKbn=1", "url2": "https://tottori.hosp.go.jp/", "内容": "独立行政法人国立病院機構鳥取医療センター【1:病院】【診療科目:内科_脳神経内科_呼吸器内科_外科_整形外科_小児科_精神科_歯科_リハビリテーション科_放射線科】【一般病床数:304療養病床数:0精神病床数:191感染症病床数:0合計病床数:495】鳥取県鳥取市三津８７６" }, "geometry": { "type": "Point", "coordinates": [ 134.149331, 35.521689 ] } },
{ "type": "Feature", "properties": { "ID": 3113111000203, "正式名称": "医療法人勤誠会米子病院", "機関区分": 1, "都道府県コード": 31, "市区町村コード": 202, "所在地": "鳥取県米子市日原３１９－１", "緯度": 35.410094, "経度": 133.357147, "url": "https://www.iryou.teikyouseido.mhlw.go.jp/znk-web/juminkanja/S2430/initialize?prefCd=31&kikanCd=3111000203&kikanKbn=1", "url2": "HTTP://WWW.YONAGO-HOSPITAL.OR.JP/", "内容": "医療法人勤誠会米子病院【1:病院】【診療科目:精神科】【一般病床数:0療養病床数:0精神病床数:270感染症病床数:0合計病床数:270】鳥取県米子市日原３１９－１" }, "geometry": { "type": "Point", "coordinates": [ 133.357147, 35.410094 ] } },
{ "type": "Feature", "properties": { "ID": 3113111000205, "正式名称": "医療法人友紘会皆生温泉病院", "機関区分": 1, "都道府県コード": 31, "市区町村コード": 202, "所在地": "鳥取県米子市皆生新田３－７－８", "緯度": 35.454656, "経度": 133.368568, "url": "https://www.iryou.teikyouseido.mhlw.go.jp/znk-web/juminkanja/S2430/initialize?prefCd=31&kikanCd=3111000205&kikanKbn=1", "url2": "http://www.yukoukai.com/kaike/", "内容": "医療法人友紘会皆生温泉病院【1:病院】【診療科目:内科_循環器内科_神経内科_脳神経外科_整形外科】【一般病床数:0療養病床数:161精神病床数:0感染症病床数:0合計病床数:161】鳥取県米子市皆生新田３－７－８" }, "geometry": { "type": "Point", "coordinates": [ 133.368568, 35.454656 ] } },
{ "type": "Feature", "properties": { "ID": 3113111000206, "正式名称": "錦海リハビリテーション病院", "機関区分": 1, "都道府県コード": 31, "市区町村コード": 202, "所在地": "鳥取県米子市錦海町３丁目４－５", "緯度": 35.418694, "経度": 133.319883, "url": "https://www.iryou.teikyouseido.mhlw.go.jp/znk-web/juminkanja/S2430/initialize?prefCd=31&kikanCd=3111000206&kikanKbn=1", "url2": "https://www.kinkai-rehab.jp/", "内容": "錦海リハビリテーション病院【1:病院】【診療科目:リハビリテーション科】【一般病床数:0療養病床数:48精神病床数:0感染症病床数:0合計病床数:48】鳥取県米子市錦海町３丁目４－５" }, "geometry": { "type": "Point", "coordinates": [ 133.319883, 35.418694 ] } },
{ "type": "Feature", "properties": { "ID": 3113111000207, "正式名称": "米子東病院", "機関区分": 1, "都道府県コード": 31, "市区町村コード": 202, "所在地": "鳥取県米子市淀江町佐陀２１６９", "緯度": 35.452271, "経度": 133.394679, "url": "https://www.iryou.teikyouseido.mhlw.go.jp/znk-web/juminkanja/S2430/initialize?prefCd=31&kikanCd=3111000207&kikanKbn=1", "url2": "https://www.med-wel.jp/yonagohi/", "内容": "米子東病院【1:病院】【診療科目:内科_脳神経内科_循環器内科_整形外科_精神科_リハビリテーション科】【一般病床数:0療養病床数:95精神病床数:0感染症病床数:0合計病床数:95】鳥取県米子市淀江町佐陀２１６９" }, "geometry": { "type": "Point", "coordinates": [ 133.394679, 35.452271 ] } },
{ "type": "Feature", "properties": { "ID": 3113111000208, "正式名称": "大山リハビリテーション病院", "機関区分": 1, "都道府県コード": 31, "市区町村コード": 390, "所在地": "鳥取県西伯郡伯耆町大原９２７番地１", "緯度": 35.385376, "経度": 133.456526, "url": "https://www.iryou.teikyouseido.mhlw.go.jp/znk-web/juminkanja/S2430/initialize?prefCd=31&kikanCd=3111000208&kikanKbn=1", "url2": "https://drh.or.jp/", "内容": "大山リハビリテーション病院【1:病院】【診療科目:内科_神経内科_リハビリテーション科】【一般病床数:0療養病床数:60精神病床数:0感染症病床数:0合計病床数:60】鳥取県西伯郡伯耆町大原９２７番地１" }, "geometry": { "type": "Point", "coordinates": [ 133.456526, 35.385376 ] } },
{ "type": "Feature", "properties": { "ID": 3113111000210, "正式名称": "医療法人　元町病院", "機関区分": 1, "都道府県コード": 31, "市区町村コード": 204, "所在地": "鳥取県境港市上道町１８９５－１", "緯度": 35.54233, "経度": 133.236007, "url": "https://www.iryou.teikyouseido.mhlw.go.jp/znk-web/juminkanja/S2430/initialize?prefCd=31&kikanCd=3111000210&kikanKbn=1", "url2": "https://www.motomachi-hp.jp/", "内容": "医療法人　元町病院【1:病院】【診療科目:内科_糖尿病内科_呼吸器内科_胃腸内科_整形外科_皮膚科_アレルギー科_リウマチ科_リハビリテーション科_麻酔科】【一般病床数:26療養病床数:50精神病床数:0感染症病床数:0合計病床数:76】鳥取県境港市上道町１８９５－１" }, "geometry": { "type": "Point", "coordinates": [ 133.236007, 35.54233 ] } },
{ "type": "Feature", "properties": { "ID": 3113112000001, "正式名称": "鳥取市立病院", "機関区分": 1, "都道府県コード": 31, "市区町村コード": 201, "所在地": "鳥取県鳥取市的場１ー１", "緯度": 35.474412, "経度": 134.234376, "url": "https://www.iryou.teikyouseido.mhlw.go.jp/znk-web/juminkanja/S2430/initialize?prefCd=31&kikanCd=3112000001&kikanKbn=1", "url2": "https://hospital.tottori.tottori.jp/", "内容": "鳥取市立病院【1:病院】【診療科目:内科_血液内科_循環器内科_消化器内科_神経内科_外科_脳神経外科_消化器外科_整形外科_小児科_産婦人科_眼科_耳鼻いんこう科_皮膚科_泌尿器科_精神科_歯科_リハビリテーション科_放射線科_病理診断科_臨床検査科_救急科_麻酔科】【一般病床数:340療養病床数:0精神病床数:0感染症病床数:0合計病床数:340】鳥取県鳥取市的場１ー１" }, "geometry": { "type": "Point", "coordinates": [ 134.234376, 35.474412 ] } },
{ "type": "Feature", "properties": { "ID": 3113112000002, "正式名称": "鳥取赤十字病院", "機関区分": 1, "都道府県コード": 31, "市区町村コード": 201, "所在地": "鳥取県鳥取市尚徳町１１７", "緯度": 35.501561, "経度": 134.235641, "url": "https://www.iryou.teikyouseido.mhlw.go.jp/znk-web/juminkanja/S2430/initialize?prefCd=31&kikanCd=3112000002&kikanKbn=1", "url2": "https://www.tottori-med.jrc.or.jp/", "内容": "鳥取赤十字病院【1:病院】【診療科目:内科_脳神経内科_循環器内科_消化器内科_外科_脳神経外科_心臓血管外科_頭頸部外科_整形外科_形成外科_小児科_産婦人科_眼科_耳鼻いんこう科_皮膚科_泌尿器科_精神科_歯科口腔外科_リウマチ科_リハビリテーション科_放射線科_病理診断科_救急科_麻酔科】【一般病床数:350療養病床数:0精神病床数:0感染症病床数:0合計病床数:350】鳥取県鳥取市尚徳町１１７" }, "geometry": { "type": "Point", "coordinates": [ 134.235641, 35.501561 ] } },
{ "type": "Feature", "properties": { "ID": 3113112000003, "正式名称": "鳥取生協病院", "機関区分": 1, "都道府県コード": 31, "市区町村コード": 201, "所在地": "鳥取県鳥取市末広温泉町４５８番地", "緯度": 35.494619, "経度": 134.231684, "url": "https://www.iryou.teikyouseido.mhlw.go.jp/znk-web/juminkanja/S2430/initialize?prefCd=31&kikanCd=3112000003&kikanKbn=1", "url2": "https://www.med-seikyo.or.jp/", "内容": "鳥取生協病院【1:病院】【診療科目:内科_呼吸器内科_循環器内科_消化器内科_人工透析内科_神経内科_外科_脳外科_整形外科_小児科_精神科_アレルギー科_リウマチ科_リハビリテーション科_放射線科_麻酔科】【一般病床数:260療養病床数:0精神病床数:0感染症病床数:0合計病床数:260】鳥取県鳥取市末広温泉町４５８番地" }, "geometry": { "type": "Point", "coordinates": [ 134.231684, 35.494619 ] } },
{ "type": "Feature", "properties": { "ID": 3113112000004, "正式名称": "鳥取県立厚生病院", "機関区分": 1, "都道府県コード": 31, "市区町村コード": 203, "所在地": "鳥取県倉吉市東昭和町１５０", "緯度": 35.435811, "経度": 133.8409, "url": "https://www.iryou.teikyouseido.mhlw.go.jp/znk-web/juminkanja/S2430/initialize?prefCd=31&kikanCd=3112000004&kikanKbn=1", "url2": "https://www.pref.tottori.lg.jp/kouseibyouin/", "内容": "鳥取県立厚生病院【1:病院】【診療科目:内科_脳神経内科_呼吸器内科_循環器内科_消化器内科_外科_脳神経外科_消化器外科_整形外科_小児科_産婦人科_眼科_耳鼻いんこう科_皮膚科_泌尿器科_精神科_放射線科】【一般病床数:300療養病床数:0精神病床数:0感染症病床数:4合計病床数:304】鳥取県倉吉市東昭和町１５０" }, "geometry": { "type": "Point", "coordinates": [ 133.8409, 35.435811 ] } },
{ "type": "Feature", "properties": { "ID": 3113112000005, "正式名称": "医療法人共済会清水病院", "機関区分": 1, "都道府県コード": 31, "市区町村コード": 203, "所在地": "鳥取県倉吉市宮川町１２９", "緯度": 35.43393, "経度": 133.834145, "url": "https://www.iryou.teikyouseido.mhlw.go.jp/znk-web/juminkanja/S2430/initialize?prefCd=31&kikanCd=3112000005&kikanKbn=1", "url2": "http://www.shimizuhospital.jp/", "内容": "医療法人共済会清水病院【1:病院】【診療科目:内科_神経内科_外科_乳腺外科_整形外科_形成外科_美容外科_リウマチ科_リハビリテーション科_麻酔科】【一般病床数:98療養病床数:0精神病床数:0感染症病床数:0合計病床数:98】鳥取県倉吉市宮川町１２９" }, "geometry": { "type": "Point", "coordinates": [ 133.834145, 35.43393 ] } },
{ "type": "Feature", "properties": { "ID": 3113112000006, "正式名称": "医療法人十字会　野島病院", "機関区分": 1, "都道府県コード": 31, "市区町村コード": 203, "所在地": "鳥取県倉吉市瀬崎町２７１４番地１", "緯度": 35.431431, "経度": 133.819202, "url": "https://www.iryou.teikyouseido.mhlw.go.jp/znk-web/juminkanja/S2430/initialize?prefCd=31&kikanCd=3112000006&kikanKbn=1", "url2": "https://nojima-hospital.jp", "内容": "医療法人十字会　野島病院【1:病院】【診療科目:内科_神経内科_外科_脳神経外科_心臓血管外科_乳腺・内分泌外科_整形外科_形成外科_消化器科，肛門科_婦人科_眼科_耳鼻いんこう科_泌尿器科_精神科_心療内科_リハビリテーション科_放射線科_麻酔科】【一般病床数:144療養病床数:46精神病床数:0感染症病床数:0合計病床数:190】鳥取県倉吉市瀬崎町２７１４番地１" }, "geometry": { "type": "Point", "coordinates": [ 133.819202, 35.431431 ] } },
{ "type": "Feature", "properties": { "ID": 3113112000007, "正式名称": "藤井政雄記念病院", "機関区分": 1, "都道府県コード": 31, "市区町村コード": 203, "所在地": "鳥取県倉吉市山根４３－１", "緯度": 35.450378, "経度": 133.856315, "url": "https://www.iryou.teikyouseido.mhlw.go.jp/znk-web/juminkanja/S2430/initialize?prefCd=31&kikanCd=3112000007&kikanKbn=1", "url2": "https://www.med-wel.jp/fujii/", "内容": "藤井政雄記念病院【1:病院】【診療科目:内科_呼吸器内科_循環器内科_消化器内科_神経内科_緩和ケア内科_外科_皮膚科_リハビリテーション科_放射線診断科】【一般病床数:68療養病床数:52精神病床数:0感染症病床数:0合計病床数:120】鳥取県倉吉市山根４３－１" }, "geometry": { "type": "Point", "coordinates": [ 133.856315, 35.450378 ] } },
{ "type": "Feature", "properties": { "ID": 3113112000008, "正式名称": "岩美町国民健康保険岩美病院", "機関区分": 1, "都道府県コード": 31, "市区町村コード": 302, "所在地": "鳥取県岩美郡岩美町浦富１０２９番地２", "緯度": 35.573053, "経度": 134.333669, "url": "https://www.iryou.teikyouseido.mhlw.go.jp/znk-web/juminkanja/S2430/initialize?prefCd=31&kikanCd=3112000008&kikanKbn=1", "url2": null, "内容": "岩美町国民健康保険岩美病院【1:病院】【診療科目:内科_脳神経内科_循環器内科_外科_脳神経外科_整形外科_小児科_眼科_耳鼻いんこう科_皮膚科_泌尿器科_精神科_心療内科_歯科_歯科口腔外科_リハビリテーション科_放射線科】【一般病床数:53療養病床数:46精神病床数:0感染症病床数:0合計病床数:99】鳥取県岩美郡岩美町浦富１０２９番地２" }, "geometry": { "type": "Point", "coordinates": [ 134.333669, 35.573053 ] } },
{ "type": "Feature", "properties": { "ID": 3113112000009, "正式名称": "国民健康保険智頭病院", "機関区分": 1, "都道府県コード": 31, "市区町村コード": 328, "所在地": "鳥取県八頭郡智頭町智頭１８７５番地", "緯度": 35.263765, "経度": 134.2242, "url": "https://www.iryou.teikyouseido.mhlw.go.jp/znk-web/juminkanja/S2430/initialize?prefCd=31&kikanCd=3112000009&kikanKbn=1", "url2": "https://www2.town.chizu.tottori.jp", "内容": "国民健康保険智頭病院【1:病院】【診療科目:内科_循環器内科_神経内科_外科_整形外科_小児科_眼科_耳鼻いんこう科_皮膚科_泌尿器科_歯科_リハビリテーション科_放射線科_麻酔科】【一般病床数:52療養病床数:47精神病床数:0感染症病床数:0合計病床数:99】鳥取県八頭郡智頭町智頭１８７５番地" }, "geometry": { "type": "Point", "coordinates": [ 134.2242, 35.263765 ] } },
{ "type": "Feature", "properties": { "ID": 3113112000010, "正式名称": "独立行政法人国立病院機構米子医療センター", "機関区分": 1, "都道府県コード": 31, "市区町村コード": 202, "所在地": "鳥取県米子市車尾４丁目１７－１", "緯度": 35.436023, "経度": 133.36176, "url": "https://www.iryou.teikyouseido.mhlw.go.jp/znk-web/juminkanja/S2430/initialize?prefCd=31&kikanCd=3112000010&kikanKbn=1", "url2": "https://yonago-mc.hosp.go.jp", "内容": "独立行政法人国立病院機構米子医療センター【1:病院】【診療科目:内科_血液・腫瘍内科_糖尿病・代謝内科_呼吸器内科_循環器内科_消化器内科_腎臓内科_肝臓内科_神経内科_緩和ケア内科_透析内科_消化器外科_整形外科_胸部・乳腺外科_小児科_婦人科_眼科_耳鼻いんこう科_泌尿器科_歯科口腔外科_リハビリテーション科_放射線科_麻酔科】【一般病床数:270療養病床数:0精神病床数:0感染症病床数:0合計病床数:270】鳥取県米子市車尾４丁目１７－１" }, "geometry": { "type": "Point", "coordinates": [ 133.36176, 35.436023 ] } },
{ "type": "Feature", "properties": { "ID": 3113112000011, "正式名称": "独立行政法人労働者健康安全機構山陰労災病院", "機関区分": 1, "都道府県コード": 31, "市区町村コード": 202, "所在地": "鳥取県米子市皆生新田１－８－１", "緯度": 35.452733, "経度": 133.362394, "url": "https://www.iryou.teikyouseido.mhlw.go.jp/znk-web/juminkanja/S2430/initialize?prefCd=31&kikanCd=3112000011&kikanKbn=1", "url2": "https://www.saninh.johas.go.jp", "内容": "独立行政法人労働者健康安全機構山陰労災病院【1:病院】【診療科目:内科_糖尿病・代謝内科_脳神経内科_循環器内科_消化器内科_腎臓内科_外科_脳神経外科_心臓血管外科_消化器外科_整形外科_小児科_産婦人科_眼科_耳鼻いんこう科_皮膚科_泌尿器科_精神科_歯科口腔外科_リハビリテーション科_放射線科_病理診断科_麻酔科】【一般病床数:363療養病床数:0精神病床数:0感染症病床数:0合計病床数:363】鳥取県米子市皆生新田１－８－１" }, "geometry": { "type": "Point", "coordinates": [ 133.362394, 35.452733 ] } },
{ "type": "Feature", "properties": { "ID": 3113112000012, "正式名称": "社会医療法人同愛会　博愛病院", "機関区分": 1, "都道府県コード": 31, "市区町村コード": 202, "所在地": "鳥取県米子市両三柳１８８０番地", "緯度": 35.455581, "経度": 133.319232, "url": "https://www.iryou.teikyouseido.mhlw.go.jp/znk-web/juminkanja/S2430/initialize?prefCd=31&kikanCd=3112000012&kikanKbn=1", "url2": "https://hakuai.doaikai.jp/", "内容": "社会医療法人同愛会　博愛病院【1:病院】【診療科目:内科_血液内科_糖尿病内科_内分泌内科_脳神経内科_呼吸器内科_循環器内科_消化器内科_人工透析内科_肝臓内科_アレルギー疾患内科_外科_消化器外科_腎臓外科_乳腺外科_肛門外科_整形外科_産婦人科_眼科_皮膚科_泌尿器科_リハビリテーション科_放射線科_臨床検査科_麻酔科】【一般病床数:161療養病床数:38精神病床数:0感染症病床数:0合計病床数:199】鳥取県米子市両三柳１８８０番地" }, "geometry": { "type": "Point", "coordinates": [ 133.319232, 35.455581 ] } },
{ "type": "Feature", "properties": { "ID": 3113112000013, "正式名称": "医療法人育生会高島病院", "機関区分": 1, "都道府県コード": 31, "市区町村コード": 202, "所在地": "鳥取県米子市西町６番地", "緯度": 35.428896, "経度": 133.326998, "url": "https://www.iryou.teikyouseido.mhlw.go.jp/znk-web/juminkanja/S2430/initialize?prefCd=31&kikanCd=3112000013&kikanKbn=1", "url2": "http://www.takashima-hp.or.jp/", "内容": "医療法人育生会高島病院【1:病院】【診療科目:内科_感染症内科_糖尿病・代謝内科_脳神経内科_呼吸器内科_消化器内科_胃腸内科_神経内科_内視鏡内科_内科_外科_脳神経外科_呼吸器外科_血管外科_消化器外科_胃腸外科_大腸外科_肛門外科_大腸・肛門外科_整形外科_血管外科_皮膚科_リハビリテーション科_救急科_麻酔科】【一般病床数:60療養病床数:59精神病床数:0感染症病床数:0合計病床数:119】鳥取県米子市西町６番地" }, "geometry": { "type": "Point", "coordinates": [ 133.326998, 35.428896 ] } },
{ "type": "Feature", "properties": { "ID": 3113112000014, "正式名称": "新田外科胃腸科病院", "機関区分": 1, "都道府県コード": 31, "市区町村コード": 202, "所在地": "鳥取県米子市中島２－１－４６新田外科胃腸科病院", "緯度": 35.433685, "経度": 133.349525, "url": "https://www.iryou.teikyouseido.mhlw.go.jp/znk-web/juminkanja/S2430/initialize?prefCd=31&kikanCd=3112000014&kikanKbn=1", "url2": "https://shosei-kai.jp/", "内容": "新田外科胃腸科病院【1:病院】【診療科目:内科_呼吸器内科_循環器内科_胃腸内科_外科_整形外科_リハビリテーション科】【一般病床数:0療養病床数:31精神病床数:0感染症病床数:0合計病床数:31】鳥取県米子市中島２－１－４６新田外科胃腸科病院" }, "geometry": { "type": "Point", "coordinates": [ 133.349525, 35.433685 ] } },
{ "type": "Feature", "properties": { "ID": 3113112000015, "正式名称": "鳥取県済生会境港総合病院", "機関区分": 1, "都道府県コード": 31, "市区町村コード": 204, "所在地": "鳥取県境港市米川町４４番地", "緯度": 35.539752, "経度": 133.221925, "url": "https://www.iryou.teikyouseido.mhlw.go.jp/znk-web/juminkanja/S2430/initialize?prefCd=31&kikanCd=3112000015&kikanKbn=1", "url2": "https://www.sakaiminato-saiseikai.jp/", "内容": "鳥取県済生会境港総合病院【1:病院】【診療科目:内科_糖尿病内科_脳神経内科_呼吸器内科_循環器内科_消化器内科_外科_脳神経外科_血管外科_整形外科_形成外科_小児科_婦人科_眼科_耳鼻いんこう科_泌尿器科_精神科_放射線科_麻酔科】【一般病床数:165療養病床数:30精神病床数:0感染症病床数:2合計病床数:197】鳥取県境港市米川町４４番地" }, "geometry": { "type": "Point", "coordinates": [ 133.221925, 35.539752 ] } },
{ "type": "Feature", "properties": { "ID": 3113112000016, "正式名称": "南部町国民健康保険西伯病院", "機関区分": 1, "都道府県コード": 31, "市区町村コード": 389, "所在地": "鳥取県西伯郡南部町倭３９７", "緯度": 35.347588, "経度": 133.325599, "url": "https://www.iryou.teikyouseido.mhlw.go.jp/znk-web/juminkanja/S2430/initialize?prefCd=31&kikanCd=3112000016&kikanKbn=1", "url2": "https://www.saihaku-hospital.com/", "内容": "南部町国民健康保険西伯病院【1:病院】【診療科目:内科_外科_整形外科_小児科_婦人科_耳鼻いんこう科_精神科_神経科_歯科_リハビリテーション科_麻酔科】【一般病床数:49療養病床数:30精神病床数:99感染症病床数:0合計病床数:178】鳥取県西伯郡南部町倭３９７" }, "geometry": { "type": "Point", "coordinates": [ 133.325599, 35.347588 ] } },
{ "type": "Feature", "properties": { "ID": 3113112000017, "正式名称": "日野病院組合日野病院", "機関区分": 1, "都道府県コード": 31, "市区町村コード": 402, "所在地": "鳥取県日野郡日野町野田３３２", "緯度": 35.235978, "経度": 133.4362, "url": "https://www.iryou.teikyouseido.mhlw.go.jp/znk-web/juminkanja/S2430/initialize?prefCd=31&kikanCd=3112000017&kikanKbn=1", "url2": "https://www.hinohp.com/", "内容": "日野病院組合日野病院【1:病院】【診療科目:内科_血液内科_糖尿病内科_呼吸器内科_循環器内科_消化器内科_人工透析内科_神経内科_外科_脳神経外科_心臓血管外科_消化器外科_整形外科_小児科_女性診療科_眼科_耳鼻いんこう科_皮膚科_泌尿器科_心療内科_リハビリテーション科】【一般病床数:99療養病床数:0精神病床数:0感染症病床数:0合計病床数:99】鳥取県日野郡日野町野田３３２" }, "geometry": { "type": "Point", "coordinates": [ 133.4362, 35.235978 ] } },
{ "type": "Feature", "properties": { "ID": 3113112000018, "正式名称": "日南町国民健康保険　日南病院", "機関区分": 1, "都道府県コード": 31, "市区町村コード": 401, "所在地": "鳥取県日野郡日南町生山５１１－７", "緯度": 35.166063, "経度": 133.319883, "url": "https://www.iryou.teikyouseido.mhlw.go.jp/znk-web/juminkanja/S2430/initialize?prefCd=31&kikanCd=3112000018&kikanKbn=1", "url2": "https://nichinan-hospital.jp/", "内容": "日南町国民健康保険　日南病院【1:病院】【診療科目:内科_糖尿病内科_外科_整形外科_小児科_眼科_耳鼻いんこう科_皮膚科】【一般病床数:59療養病床数:40精神病床数:0感染症病床数:0合計病床数:99】鳥取県日野郡日南町生山５１１－７" }, "geometry": { "type": "Point", "coordinates": [ 133.319883, 35.166063 ] } },
{ "type": "Feature", "properties": { "ID": 3113113000001, "正式名称": "鳥取県立中央病院", "機関区分": 1, "都道府県コード": 31, "市区町村コード": 201, "所在地": "鳥取県鳥取市江津７３０", "緯度": 35.523312, "経度": 134.210386, "url": "https://www.iryou.teikyouseido.mhlw.go.jp/znk-web/juminkanja/S2430/initialize?prefCd=31&kikanCd=3113000001&kikanKbn=1", "url2": "https://www.pref.tottori.lg.jp/chuoubyouin/", "内容": "鳥取県立中央病院【1:病院】【診療科目:内科_血液内科_代謝内科_内分泌内科_糖尿病・内分泌内科_糖尿病・代謝内科_脳神経内科_呼吸器内科_心臓内科_消化器内科_腎臓内科_緩和ケア内科_リウマチ・膠原病内科_外科_脳神経外科_呼吸器外科_心臓血管外科_消化器外科_整形外科_形成外科_小児科_小児外科_産婦人科_眼科_耳鼻いんこう科_皮膚科_泌尿器科_精神科_歯科口腔外科_リハビリテーション科_放射線科_救急科_麻酔科】【一般病床数:504療養病床数:0精神病床数:0感染症病床数:4合計病床数:518】鳥取県鳥取市江津７３０" }, "geometry": { "type": "Point", "coordinates": [ 134.210386, 35.523312 ] } },
{ "type": "Feature", "properties": { "ID": 3113113000002, "正式名称": "鳥取大学医学部附属病院", "機関区分": 1, "都道府県コード": 31, "市区町村コード": 202, "所在地": "鳥取県米子市西町３６番地１", "緯度": 35.428811, "経度": 133.324625, "url": "https://www.iryou.teikyouseido.mhlw.go.jp/znk-web/juminkanja/S2430/initialize?prefCd=31&kikanCd=3113000002&kikanKbn=1", "url2": "https://www2.hosp.med.tottori-u.ac.jp/", "内容": "鳥取大学医学部附属病院【1:病院】【診療科目:内科_感染症内科_血液内科_脳神経内科_呼吸器内科_循環器内科_消化器内科_腎臓内科_腫瘍内科_内分泌代謝内科_脳神経外科_呼吸器外科_心臓血管外科_消化器外科_ペインクリニック外科_頭頸部外科_整形外科_形成外科_乳腺内分泌外科_小児科_小児外科_脳神経小児科_産婦人科_眼科_耳鼻咽喉科_皮膚科_泌尿器科_精神科_歯科口腔外科_アレルギー科_リウマチ科_リハビリテーション科_放射線科_放射線治療科_病理診断科_救急科_麻酔科_薬物療法内科】【一般病床数:649療養病床数:0精神病床数:40感染症病床数:2合計病床数:697】鳥取県米子市西町３６番地１" }, "geometry": { "type": "Point", "coordinates": [ 133.324625, 35.428811 ] } }
]
}
