{
"type": "FeatureCollection",
"name": "geo_31_各種学校",
"crs": { "type": "name", "properties": { "name": "urn:ogc:def:crs:EPSG::6668" } },
"features": [
{ "type": "Feature", "properties": { "P29_001": "31201", "P29_002": "H231310000016", "P29_003": "16015", "P29_004": "イナバ自動車学校", "P29_005": "鳥取県鳥取市里仁97-1", "P29_006": "4", "P29_007": "0", "P29_008": "00", "P29_009": null }, "geometry": { "type": "Point", "coordinates": [ 134.191393199337568, 35.498596528647226 ] } },
{ "type": "Feature", "properties": { "P29_001": "31201", "P29_002": "H231310000025", "P29_003": "16015", "P29_004": "鳥取県東部自動車学校", "P29_005": "鳥取県鳥取市松並町3-122", "P29_006": "4", "P29_007": "0", "P29_008": "00", "P29_009": null }, "geometry": { "type": "Point", "coordinates": [ 134.220791435633799, 35.518933030394109 ] } },
{ "type": "Feature", "properties": { "P29_001": "31201", "P29_002": "H231310000034", "P29_003": "16015", "P29_004": "日本海自動車学校", "P29_005": "鳥取県鳥取市湖山町東4-55", "P29_006": "4", "P29_007": "0", "P29_008": "00", "P29_009": null }, "geometry": { "type": "Point", "coordinates": [ 134.189642120893382, 35.515432787389841 ] } },
{ "type": "Feature", "properties": { "P29_001": "31202", "P29_002": "H231310000043", "P29_003": "16015", "P29_004": "山陰中央自動車学校", "P29_005": "鳥取県米子市両三柳3027-5", "P29_006": "4", "P29_007": "0", "P29_008": "00", "P29_009": null }, "geometry": { "type": "Point", "coordinates": [ 133.337934754007165, 35.460958290762093 ] } },
{ "type": "Feature", "properties": { "P29_001": "31202", "P29_002": "H231310000052", "P29_003": "16015", "P29_004": "米子西部自動車学校", "P29_005": "鳥取県米子市二本木250-1", "P29_006": "4", "P29_007": "0", "P29_008": "00", "P29_009": null }, "geometry": { "type": "Point", "coordinates": [ 133.391380799103416, 35.431611508017042 ] } },
{ "type": "Feature", "properties": { "P29_001": "31202", "P29_002": "H231310000061", "P29_003": "16015", "P29_004": "米子自動車学校", "P29_005": "鳥取県米子市旗ヶ崎2-15-1", "P29_006": "4", "P29_007": "0", "P29_008": "00", "P29_009": null }, "geometry": { "type": "Point", "coordinates": [ 133.316994830658587, 35.437498560250674 ] } },
{ "type": "Feature", "properties": { "P29_001": "31203", "P29_002": "H231310000070", "P29_003": "16015", "P29_004": "鳥取県自動車学校", "P29_005": "鳥取県倉吉市西倉吉町137", "P29_006": "4", "P29_007": "0", "P29_008": "00", "P29_009": null }, "geometry": { "type": "Point", "coordinates": [ 133.803647811070675, 35.42535444987751 ] } },
{ "type": "Feature", "properties": { "P29_001": "31203", "P29_002": "H231310000089", "P29_003": "16015", "P29_004": "鳥取県中央自動車学校", "P29_005": "鳥取県倉吉市福庭町1-97", "P29_006": "4", "P29_007": "0", "P29_008": "00", "P29_009": null }, "geometry": { "type": "Point", "coordinates": [ 133.848812708833776, 35.462431410628952 ] } },
{ "type": "Feature", "properties": { "P29_001": "31372", "P29_002": "H231310000098", "P29_003": "16015", "P29_004": "鳥取県倉吉自動車学校", "P29_005": "鳥取県東伯郡北栄町西園866", "P29_006": "4", "P29_007": "0", "P29_008": "00", "P29_009": null }, "geometry": { "type": "Point", "coordinates": [ 133.762984722958066, 35.494428604360706 ] } },
{ "type": "Feature", "properties": { "P29_001": "31203", "P29_002": "H231310000123", "P29_003": "16015", "P29_004": "中央予備校", "P29_005": "鳥取県倉吉市東巌城162-2", "P29_006": "4", "P29_007": "0", "P29_008": "00", "P29_009": null }, "geometry": { "type": "Point", "coordinates": [ 133.843663058296926, 35.435541425492893 ] } },
{ "type": "Feature", "properties": { "P29_001": "31202", "P29_002": "H231310000132", "P29_003": "16015", "P29_004": "伯耆駿英予備校", "P29_005": "鳥取県米子市糀町2-33", "P29_006": "4", "P29_007": "0", "P29_008": "00", "P29_009": null }, "geometry": { "type": "Point", "coordinates": [ 133.337814216040925, 35.429725246736652 ] } },
{ "type": "Feature", "properties": { "P29_001": "31202", "P29_002": "H231310000141", "P29_003": "16015", "P29_004": "米子国際ビジネスカレッジ", "P29_005": "鳥取県米子市明治町178", "P29_006": "4", "P29_007": "0", "P29_008": "00", "P29_009": null }, "geometry": { "type": "Point", "coordinates": [ 133.333726163456902, 35.424837205975372 ] } },
{ "type": "Feature", "properties": { "P29_001": "31203", "P29_002": "H231310000150", "P29_003": "16015", "P29_004": "倉吉鴨水館", "P29_005": "鳥取県倉吉市下田中町801", "P29_006": "4", "P29_007": "0", "P29_008": "00", "P29_009": null }, "geometry": { "type": "Point", "coordinates": [ 133.845904271112005, 35.434316111816322 ] } },
{ "type": "Feature", "properties": { "P29_001": "31201", "P29_002": "H231310000169", "P29_003": "16015", "P29_004": "鳥取城北日本語学校", "P29_005": "鳥取県鳥取市古海字中土居37-4", "P29_006": "4", "P29_007": "0", "P29_008": "00", "P29_009": null }, "geometry": { "type": "Point", "coordinates": [ 134.21157603262759, 35.495359141899705 ] } },
{ "type": "Feature", "properties": { "P29_001": "31202", "P29_002": "H232399900206", "P29_003": "16015", "P29_004": "坪内珠算学校福生校", "P29_005": "鳥取県米子市皆生4-2-1", "P29_006": "4", "P29_007": "0", "P29_008": "00", "P29_009": null }, "geometry": { "type": "Point", "coordinates": [ 133.361227348135742, 35.447359590243863 ] } },
{ "type": "Feature", "properties": { "P29_001": "31202", "P29_002": "H232399900224", "P29_003": "16015", "P29_004": "坪内珠算学校住吉校", "P29_005": "鳥取県米子市旗ヶ崎5-1032-9", "P29_006": "4", "P29_007": "0", "P29_008": "00", "P29_009": null }, "geometry": { "type": "Point", "coordinates": [ 133.311519191209186, 35.444024904213776 ] } }
]
}
