{
"type": "FeatureCollection",
"name": "geo_31_地域密着型通所介護",
"crs": { "type": "name", "properties": { "name": "urn:ogc:def:crs:OGC:1.3:CRS84" } },
"features": [
{ "type": "Feature", "properties": { "内容": "特定非営利活動法人笑風情の会　デイサービスセンター桃の花【地域密着型通所介護】鳥取県鳥取市下砂見529", "url": "https://www.kaigokensaku.mhlw.go.jp/31/index.php?action_kouhyou_detail_004_kani=true&JigyosyoCd=3170101962-00&ServiceCd=780&Type=search", "url2": null }, "geometry": { "type": "Point", "coordinates": [ 134.173472700000048, 35.417857 ] } },
{ "type": "Feature", "properties": { "内容": "はるひなデイサービスセンター【地域密着型通所介護】鳥取県鳥取市用瀬町安蔵918番地6", "url": "https://www.kaigokensaku.mhlw.go.jp/31/index.php?action_kouhyou_detail_004_kani=true&JigyosyoCd=3170101731-00&ServiceCd=780&Type=search", "url2": null }, "geometry": { "type": "Point", "coordinates": [ 134.190689900000052, 35.3148123 ] } },
{ "type": "Feature", "properties": { "内容": "デイサービスきなんせ【地域密着型通所介護】鳥取県鳥取市美萩野1丁目126番地", "url": "https://www.kaigokensaku.mhlw.go.jp/31/index.php?action_kouhyou_detail_004_kani=true&JigyosyoCd=3170102515-00&ServiceCd=780&Type=search", "url2": null }, "geometry": { "type": "Point", "coordinates": [ 134.141482600000018, 35.5224225 ] } },
{ "type": "Feature", "properties": { "内容": "デイサービスセンター　ひなの郷【地域密着型通所介護】鳥取県鳥取市気高町山宮287番地５", "url": "https://www.kaigokensaku.mhlw.go.jp/31/index.php?action_kouhyou_detail_004_kani=true&JigyosyoCd=3170102481-00&ServiceCd=780&Type=search", "url2": null }, "geometry": { "type": "Point", "coordinates": [ 134.037477079911355, 35.479378451674606 ] } },
{ "type": "Feature", "properties": { "内容": "デイサービスきら星【地域密着型通所介護】鳥取県鳥取市大覚寺７７－５６", "url": "https://www.kaigokensaku.mhlw.go.jp/31/index.php?action_kouhyou_detail_004_kani=true&JigyosyoCd=3170102721-00&ServiceCd=780&Type=search", "url2": "http://nico-nico-care-tottori.jimdo.com/" }, "geometry": { "type": "Point", "coordinates": [ 134.2308879, 35.4815433 ] } },
{ "type": "Feature", "properties": { "内容": "ナーシングデイこすもす【地域密着型通所介護】鳥取県鳥取市江津318-1", "url": "https://www.kaigokensaku.mhlw.go.jp/31/index.php?action_kouhyou_detail_004_kani=true&JigyosyoCd=3190100754-00&ServiceCd=780&Type=search", "url2": "https://day-cosmos.jp" }, "geometry": { "type": "Point", "coordinates": [ 134.2137957, 35.5229896 ] } },
{ "type": "Feature", "properties": { "内容": "デイサービス　ありがとうの風【地域密着型通所介護】鳥取県　鳥取市　湖山町東３丁目５０", "url": "https://www.kaigokensaku.mhlw.go.jp/31/index.php?action_kouhyou_detail_004_kani=true&JigyosyoCd=3170103356-00&ServiceCd=780&Type=search", "url2": null }, "geometry": { "type": "Point", "coordinates": [ 134.19064549999996, 35.5172713 ] } },
{ "type": "Feature", "properties": { "内容": "とっとり福祉サービス雲山通所介護事業所【地域密着型通所介護】鳥取県鳥取市雲山４７５番地", "url": "https://www.kaigokensaku.mhlw.go.jp/31/index.php?action_kouhyou_detail_004_kani=true&JigyosyoCd=3170100667-00&ServiceCd=780&Type=search", "url2": "http://www.t-fukushi.co.jp/" }, "geometry": { "type": "Point", "coordinates": [ 134.237755900000025, 35.4748746 ] } },
{ "type": "Feature", "properties": { "内容": "おれんじ湖山デイサービスセンター【地域密着型通所介護】鳥取県鳥取市湖山町東４丁目５１番地", "url": "https://www.kaigokensaku.mhlw.go.jp/31/index.php?action_kouhyou_detail_004_kani=true&JigyosyoCd=3170101368-00&ServiceCd=780&Type=search", "url2": "http://sanbikai.hp.gogo.jp" }, "geometry": { "type": "Point", "coordinates": [ 134.189081900000019, 35.5154354 ] } },
{ "type": "Feature", "properties": { "内容": "デイサービスセンターもみじ庵【地域密着型通所介護】鳥取県鳥取市美萩野一丁目70番地", "url": "https://www.kaigokensaku.mhlw.go.jp/31/index.php?action_kouhyou_detail_004_kani=true&JigyosyoCd=3170101483-00&ServiceCd=780&Type=search", "url2": "https://momijian.wixsite.com/momijian" }, "geometry": { "type": "Point", "coordinates": [ 134.142183105696176, 35.523763583467513 ] } },
{ "type": "Feature", "properties": { "内容": "デイサービスセンター西町友和苑【地域密着型通所介護】烏取市西町2丁目208番地", "url": "https://www.kaigokensaku.mhlw.go.jp/31/index.php?action_kouhyou_detail_004_kani=true&JigyosyoCd=3190100705-00&ServiceCd=780&Type=search", "url2": null }, "geometry": { "type": "Point", "coordinates": [ 134.233968945211359, 35.502048931641703 ] } },
{ "type": "Feature", "properties": { "内容": "ふくべ美咲園【地域密着型通所介護】鳥取県鳥取市福部町湯山967番地3", "url": "https://www.kaigokensaku.mhlw.go.jp/31/index.php?action_kouhyou_detail_004_kani=true&JigyosyoCd=3170101798-00&ServiceCd=780&Type=search", "url2": null }, "geometry": { "type": "Point", "coordinates": [ 134.253438599999981, 35.5408585 ] } },
{ "type": "Feature", "properties": { "内容": "デイサービスセンター立川友和苑【地域密着型通所介護】鳥取県鳥取市立川町6丁目166番地3", "url": "https://www.kaigokensaku.mhlw.go.jp/31/index.php?action_kouhyou_detail_004_kani=true&JigyosyoCd=3170103505-00&ServiceCd=780&Type=search", "url2": null }, "geometry": { "type": "Point", "coordinates": [ 134.251825195067568, 35.485973423490385 ] } },
{ "type": "Feature", "properties": { "内容": "デイサービスセンター田園町友和苑【地域密着型通所介護】烏取市田園町4丁目168番地", "url": "https://www.kaigokensaku.mhlw.go.jp/31/index.php?action_kouhyou_detail_004_kani=true&JigyosyoCd=3190100713-00&ServiceCd=780&Type=search", "url2": null }, "geometry": { "type": "Point", "coordinates": [ 134.224829596564035, 35.513623107844275 ] } },
{ "type": "Feature", "properties": { "内容": "でんでん倶楽部湖山【地域密着型通所介護】鳥取県鳥取市湖山町北2丁目110", "url": "https://www.kaigokensaku.mhlw.go.jp/31/index.php?action_kouhyou_detail_004_kani=true&JigyosyoCd=3170103380-00&ServiceCd=780&Type=search", "url2": "https://www.godai.net/denden-club/index.html" }, "geometry": { "type": "Point", "coordinates": [ 134.173763399999984, 35.5185262 ] } },
{ "type": "Feature", "properties": { "内容": "本町デイサービス　たけだ【地域密着型通所介護】鳥取市本町２－１０９", "url": "https://www.kaigokensaku.mhlw.go.jp/31/index.php?action_kouhyou_detail_004_kani=true&JigyosyoCd=3170102911-00&ServiceCd=780&Type=search", "url2": "takeda-or.jp" }, "geometry": { "type": "Point", "coordinates": [ 134.232258499999944, 35.5018677 ] } },
{ "type": "Feature", "properties": { "内容": "デイサービス　いきいきいっぽ【地域密着型通所介護】鳥取県鳥取市吉方温泉２丁目１６９", "url": "https://www.kaigokensaku.mhlw.go.jp/31/index.php?action_kouhyou_detail_004_kani=true&JigyosyoCd=3170102770-00&ServiceCd=780&Type=search", "url2": "http://zuian.web.fc2.com/" }, "geometry": { "type": "Point", "coordinates": [ 134.235408091262798, 35.495702030505598 ] } },
{ "type": "Feature", "properties": { "内容": "はまゆう中町デイサービスセンター【地域密着型通所介護】鳥取県鳥取市中町49番地", "url": "https://www.kaigokensaku.mhlw.go.jp/31/index.php?action_kouhyou_detail_004_kani=true&JigyosyoCd=3170103125-00&ServiceCd=780&Type=search", "url2": "https://hamayu.or.jp/" }, "geometry": { "type": "Point", "coordinates": [ 134.239555, 35.4992411 ] } },
{ "type": "Feature", "properties": { "内容": "通所介護オ－ルデイズ【地域密着型通所介護】鳥取県鳥取市吉方温泉四丁目４０１", "url": "https://www.kaigokensaku.mhlw.go.jp/31/index.php?action_kouhyou_detail_004_kani=true&JigyosyoCd=3170103471-00&ServiceCd=780&Type=search", "url2": null }, "geometry": { "type": "Point", "coordinates": [ 134.238597, 35.4905088 ] } },
{ "type": "Feature", "properties": { "内容": "デイサービス　まんまるこ【地域密着型通所介護】鳥取県鳥取市吉成　566番地38", "url": "https://www.kaigokensaku.mhlw.go.jp/31/index.php?action_kouhyou_detail_004_kani=true&JigyosyoCd=3170103497-00&ServiceCd=780&Type=search", "url2": null }, "geometry": { "type": "Point", "coordinates": [ 134.217857399999957, 35.4889256 ] } },
{ "type": "Feature", "properties": { "内容": "つどいの里　梅花の庵【地域密着型通所介護】鳥取県鳥取市大杙217-1", "url": "https://www.kaigokensaku.mhlw.go.jp/31/index.php?action_kouhyou_detail_004_kani=true&JigyosyoCd=3170101707-00&ServiceCd=780&Type=search", "url2": null }, "geometry": { "type": "Point", "coordinates": [ 134.24856008186191, 35.483589268751096 ] } },
{ "type": "Feature", "properties": { "内容": "小規模デイサービスつむぎ【地域密着型通所介護】鳥取県鳥取市行徳1丁目312番地デイサービスつむぎ", "url": "https://www.kaigokensaku.mhlw.go.jp/31/index.php?action_kouhyou_detail_004_kani=true&JigyosyoCd=3170103232-00&ServiceCd=780&Type=search", "url2": "http://www.o-tsumugi.com" }, "geometry": { "type": "Point", "coordinates": [ 134.219379099999969, 35.4981856 ] } },
{ "type": "Feature", "properties": { "内容": "しらゆきデイサービスセンター【地域密着型通所介護】鳥取県鳥取市千代水4丁目43番地", "url": "https://www.kaigokensaku.mhlw.go.jp/31/index.php?action_kouhyou_detail_004_kani=true&JigyosyoCd=3170101889-00&ServiceCd=780&Type=search", "url2": null }, "geometry": { "type": "Point", "coordinates": [ 134.195075699999961, 35.5158244 ] } },
{ "type": "Feature", "properties": { "内容": "なないろデイサービスセンター【地域密着型通所介護】鳥取県鳥取市二階町二丁目201-4", "url": "https://www.kaigokensaku.mhlw.go.jp/31/index.php?action_kouhyou_detail_004_kani=true&JigyosyoCd=3170102036-00&ServiceCd=780&Type=search", "url2": "nanairo-kaigo.net" }, "geometry": { "type": "Point", "coordinates": [ 134.2313001, 35.5006493 ] } },
{ "type": "Feature", "properties": { "内容": "デイサービスセンターゆず【地域密着型通所介護】鳥取県鳥取市湯所町2丁目413番地", "url": "https://www.kaigokensaku.mhlw.go.jp/31/index.php?action_kouhyou_detail_004_kani=true&JigyosyoCd=3170102168-00&ServiceCd=780&Type=search", "url2": null }, "geometry": { "type": "Point", "coordinates": [ 134.229820389011024, 35.511098596132072 ] } },
{ "type": "Feature", "properties": { "内容": "のんたんデイサービス【地域密着型通所介護】鳥取県鳥取市気高町浜村41－10", "url": "https://www.kaigokensaku.mhlw.go.jp/31/index.php?action_kouhyou_detail_004_kani=true&JigyosyoCd=3170102267-00&ServiceCd=780&Type=search", "url2": null }, "geometry": { "type": "Point", "coordinates": [ 134.0532187, 35.5088527 ] } },
{ "type": "Feature", "properties": { "内容": "フレッシュプラザなないろ【地域密着型通所介護】鳥取県鳥取市二階町二丁目219", "url": "https://www.kaigokensaku.mhlw.go.jp/31/index.php?action_kouhyou_detail_004_kani=true&JigyosyoCd=3170102697-00&ServiceCd=780&Type=search", "url2": null }, "geometry": { "type": "Point", "coordinates": [ 134.23143349999998, 35.5007687 ] } },
{ "type": "Feature", "properties": { "内容": "デイサービスセンターえんびより【地域密着型通所介護】鳥取県鳥取市数津23番地10", "url": "https://www.kaigokensaku.mhlw.go.jp/31/index.php?action_kouhyou_detail_004_kani=true&JigyosyoCd=3170103067-00&ServiceCd=780&Type=search", "url2": "http://www17.plala.or.jp/enbiyori1127/" }, "geometry": { "type": "Point", "coordinates": [ 134.227538949073733, 35.466881371348684 ] } },
{ "type": "Feature", "properties": { "内容": "レコードブック鳥取西品治【地域密着型通所介護】西品治751-1", "url": "https://www.kaigokensaku.mhlw.go.jp/31/index.php?action_kouhyou_detail_004_kani=true&JigyosyoCd=3190100838-00&ServiceCd=780&Type=search", "url2": "SAUDE(サウージ)│鳥取市で運動＆健康促進をサポートする合同会社(saude-llc.com)" }, "geometry": { "type": "Point", "coordinates": [ 134.222641399999986, 35.5082877 ] } },
{ "type": "Feature", "properties": { "内容": "レコードブック鳥取津ノ井【地域密着型通所介護】鳥取県鳥取市津ノ井613コーポラスFK2", "url": "https://www.kaigokensaku.mhlw.go.jp/31/index.php?action_kouhyou_detail_004_kani=true&JigyosyoCd=3190100846-00&ServiceCd=780&Type=search", "url2": null }, "geometry": { "type": "Point", "coordinates": [ 134.2505794, 35.4615435 ] } },
{ "type": "Feature", "properties": { "内容": "鳥取市社会福祉協議会佐治事業所【地域密着型通所介護】鳥取県鳥取市佐治町加瀬木2171-2", "url": "https://www.kaigokensaku.mhlw.go.jp/31/index.php?action_kouhyou_detail_004_kani=true&JigyosyoCd=3190100861-00&ServiceCd=780&Type=search", "url2": "https://www.tottoricity-syakyo.or.jp/" }, "geometry": { "type": "Point", "coordinates": [ 134.11842630000001, 35.3303397 ] } },
{ "type": "Feature", "properties": { "内容": "デイサービス　心晴【地域密着型通所介護】鳥取県鳥取市二階町3丁目204アイシン二階町ビル", "url": "https://www.kaigokensaku.mhlw.go.jp/31/index.php?action_kouhyou_detail_004_kani=true&JigyosyoCd=3170102952-00&ServiceCd=780&Type=search", "url2": "http://koharu-care.com" }, "geometry": { "type": "Point", "coordinates": [ 134.230180799999971, 35.5016158 ] } },
{ "type": "Feature", "properties": { "内容": "デイサービスセンター暖の里【地域密着型通所介護】鳥取県鳥取市吉岡温泉町52番地1", "url": "https://www.kaigokensaku.mhlw.go.jp/31/index.php?action_kouhyou_detail_004_kani=true&JigyosyoCd=3170102671-00&ServiceCd=780&Type=search", "url2": "http://www.dannosato.jp/" }, "geometry": { "type": "Point", "coordinates": [ 134.134051, 35.4846933 ] } },
{ "type": "Feature", "properties": { "内容": "デイサービス　しゃんしゃん【地域密着型通所介護】鳥取県鳥取市若桜町３９ロゴス文化会館　１Ｆ", "url": "https://www.kaigokensaku.mhlw.go.jp/31/index.php?action_kouhyou_detail_004_kani=true&JigyosyoCd=3170102457-00&ServiceCd=780&Type=search", "url2": null }, "geometry": { "type": "Point", "coordinates": [ 134.233361100000025, 35.5002438 ] } },
{ "type": "Feature", "properties": { "内容": "デイサービスたちばな【地域密着型通所介護】鳥取市行徳3丁目976番地2", "url": "https://www.kaigokensaku.mhlw.go.jp/31/index.php?action_kouhyou_detail_004_kani=true&JigyosyoCd=3170102606-00&ServiceCd=780&Type=search", "url2": null }, "geometry": { "type": "Point", "coordinates": [ 134.22202870000001, 35.502263 ] } },
{ "type": "Feature", "properties": { "内容": "SOISTANCE【地域密着型通所介護】鳥取県米子市塩町１６３", "url": "https://www.kaigokensaku.mhlw.go.jp/31/index.php?action_kouhyou_detail_004_kani=true&JigyosyoCd=3190200562-00&ServiceCd=780&Type=search", "url2": "https://soistance.co.jp/" }, "geometry": { "type": "Point", "coordinates": [ 133.330994086508156, 35.423646185790879 ] } },
{ "type": "Feature", "properties": { "内容": "リハビリデイあしすと　彦名【地域密着型通所介護】鳥取県米子市彦名町２９－７", "url": "https://www.kaigokensaku.mhlw.go.jp/31/index.php?action_kouhyou_detail_004_kani=true&JigyosyoCd=3170202489-00&ServiceCd=780&Type=search", "url2": null }, "geometry": { "type": "Point", "coordinates": [ 133.302078618385309, 35.442595959443949 ] } },
{ "type": "Feature", "properties": { "内容": "デイサービスめぐみ【地域密着型通所介護】鳥取県米子市目久美町38-6", "url": "https://www.kaigokensaku.mhlw.go.jp/31/index.php?action_kouhyou_detail_004_kani=true&JigyosyoCd=3170202042-00&ServiceCd=780&Type=search", "url2": null }, "geometry": { "type": "Point", "coordinates": [ 133.3406526, 35.4226531 ] } },
{ "type": "Feature", "properties": { "内容": "いきいきデイサービス旗ヶ崎【地域密着型通所介護】鳥取県米子市旗ヶ崎1丁目5番6号いきいきデイサービス旗ヶ崎", "url": "https://www.kaigokensaku.mhlw.go.jp/31/index.php?action_kouhyou_detail_004_kani=true&JigyosyoCd=3190200323-00&ServiceCd=780&Type=search", "url2": null }, "geometry": { "type": "Point", "coordinates": [ 133.318495100000064, 35.4379371 ] } },
{ "type": "Feature", "properties": { "内容": "ハピネリハビリテーション颯【地域密着型通所介護】鳥取県米子市米原7-2-18", "url": "https://www.kaigokensaku.mhlw.go.jp/31/index.php?action_kouhyou_detail_004_kani=true&JigyosyoCd=3170202596-00&ServiceCd=780&Type=search", "url2": "http://www.hapine.com./" }, "geometry": { "type": "Point", "coordinates": [ 133.330483, 35.445267200000018 ] } },
{ "type": "Feature", "properties": { "内容": "デイサービスまちくら【地域密着型通所介護】鳥取県米子市西倉吉町８３番地３", "url": "https://www.kaigokensaku.mhlw.go.jp/31/index.php?action_kouhyou_detail_004_kani=true&JigyosyoCd=3170201986-00&ServiceCd=780&Type=search", "url2": "http://www.machikura.com" }, "geometry": { "type": "Point", "coordinates": [ 133.329747399999974, 35.4305409 ] } },
{ "type": "Feature", "properties": { "内容": "デイサービスセンター　ふくよね【地域密着型通所介護】鳥取県　米子市　西福原　7丁目　6-32", "url": "https://www.kaigokensaku.mhlw.go.jp/31/index.php?action_kouhyou_detail_004_kani=true&JigyosyoCd=3170202513-00&ServiceCd=780&Type=search", "url2": "https://www.big-advance.site/s/173/1500" }, "geometry": { "type": "Point", "coordinates": [ 133.3427878, 35.450756 ] } },
{ "type": "Feature", "properties": { "内容": "デイサービスセンター　体アップ米子【地域密着型通所介護】鳥取県米子市道笑町4-4-8", "url": "https://www.kaigokensaku.mhlw.go.jp/31/index.php?action_kouhyou_detail_004_kani=true&JigyosyoCd=3190200604-00&ServiceCd=780&Type=search", "url2": "https://www.purposeoflife.jp" }, "geometry": { "type": "Point", "coordinates": [ 133.344269, 35.424731 ] } },
{ "type": "Feature", "properties": { "内容": "デイサービス　ありがとう【地域密着型通所介護】鳥取県米子市両三柳４５９６－４", "url": "https://www.kaigokensaku.mhlw.go.jp/31/index.php?action_kouhyou_detail_004_kani=true&JigyosyoCd=3170202208-00&ServiceCd=780&Type=search", "url2": null }, "geometry": { "type": "Point", "coordinates": [ 133.3186055, 35.4608017 ] } },
{ "type": "Feature", "properties": { "内容": "デイサービスセンター体アップ皆生【地域密着型通所介護】皆生新田3-11-20", "url": "https://www.kaigokensaku.mhlw.go.jp/31/index.php?action_kouhyou_detail_004_kani=true&JigyosyoCd=3190200760-00&ServiceCd=780&Type=search", "url2": "https://www.purposeoflife.jp/" }, "geometry": { "type": "Point", "coordinates": [ 133.3686061, 35.4520103 ] } },
{ "type": "Feature", "properties": { "内容": "レッツ倶楽部米子南【地域密着型通所介護】鳥取県米子市石井７０１－１", "url": "https://www.kaigokensaku.mhlw.go.jp/31/index.php?action_kouhyou_detail_004_kani=true&JigyosyoCd=3170202372-00&ServiceCd=780&Type=search", "url2": "http://www.lets-club.jp/shop/yonagominami/" }, "geometry": { "type": "Point", "coordinates": [ 133.343681, 35.4030607 ] } },
{ "type": "Feature", "properties": { "内容": "デイサービスいいひ【地域密着型通所介護】大篠津町4631", "url": "https://www.kaigokensaku.mhlw.go.jp/31/index.php?action_kouhyou_detail_004_kani=true&JigyosyoCd=3190200661-00&ServiceCd=780&Type=search", "url2": null }, "geometry": { "type": "Point", "coordinates": [ 133.265219, 35.4925262 ] } },
{ "type": "Feature", "properties": { "内容": "デイサービスセンター暖だん倶楽部【地域密着型通所介護】鳥取県米子市米原8-5-77", "url": "https://www.kaigokensaku.mhlw.go.jp/31/index.php?action_kouhyou_detail_004_kani=true&JigyosyoCd=3170202067-00&ServiceCd=780&Type=search", "url2": "http://www.kohoen.jp" }, "geometry": { "type": "Point", "coordinates": [ 133.335526454457352, 35.447442424411634 ] } },
{ "type": "Feature", "properties": { "内容": "デイサービスやわた橋【地域密着型通所介護】鳥取県米子市八幡365-9", "url": "https://www.kaigokensaku.mhlw.go.jp/31/index.php?action_kouhyou_detail_004_kani=true&JigyosyoCd=3170202232-00&ServiceCd=780&Type=search", "url2": "http://hp.kaipoke.biz/p02/" }, "geometry": { "type": "Point", "coordinates": [ 133.386525317756309, 35.40025763793534 ] } },
{ "type": "Feature", "properties": { "内容": "有限会社新生ケア・サービス　デイサービスセンター　コムハウス【地域密着型通所介護】鳥取県米子市熊党201-2", "url": "https://www.kaigokensaku.mhlw.go.jp/31/index.php?action_kouhyou_detail_004_kani=true&JigyosyoCd=3170200962-00&ServiceCd=780&Type=search", "url2": "https://www.shinsei-care-service.com/" }, "geometry": { "type": "Point", "coordinates": [ 133.375591699999973, 35.4294362 ] } },
{ "type": "Feature", "properties": { "内容": "デイサービスセンター　清願の郷【地域密着型通所介護】鳥取県米子市富益町１５番地３３", "url": "https://www.kaigokensaku.mhlw.go.jp/31/index.php?action_kouhyou_detail_004_kani=true&JigyosyoCd=3170201945-00&ServiceCd=780&Type=search", "url2": "http://www.careservice-yonago.ecnet.jp/" }, "geometry": { "type": "Point", "coordinates": [ 133.292924200000016, 35.4741976 ] } },
{ "type": "Feature", "properties": { "内容": "デイサービス笑家【地域密着型通所介護】鳥取県米子市彦名町4500－73", "url": "https://www.kaigokensaku.mhlw.go.jp/31/index.php?action_kouhyou_detail_004_kani=true&JigyosyoCd=3170202034-00&ServiceCd=780&Type=search", "url2": null }, "geometry": { "type": "Point", "coordinates": [ 133.289772099999936, 35.4569687 ] } },
{ "type": "Feature", "properties": { "内容": "デイサービス　エレファント【地域密着型通所介護】鳥取県米子市熊党129-23", "url": "https://www.kaigokensaku.mhlw.go.jp/31/index.php?action_kouhyou_detail_004_kani=true&JigyosyoCd=3170202588-00&ServiceCd=780&Type=search", "url2": "https://www.loh.co.jp/" }, "geometry": { "type": "Point", "coordinates": [ 133.378578949073813, 35.429148528893286 ] } },
{ "type": "Feature", "properties": { "内容": "デイサービスたんぽぽ【地域密着型通所介護】鳥取県米子市博労町３丁目８０－１", "url": "https://www.kaigokensaku.mhlw.go.jp/31/index.php?action_kouhyou_detail_004_kani=true&JigyosyoCd=3110210980-00&ServiceCd=780&Type=search", "url2": null }, "geometry": { "type": "Point", "coordinates": [ 133.338932800000066, 35.4341574 ] } },
{ "type": "Feature", "properties": { "内容": "デイホーム土屋錦海【地域密着型通所介護】鳥取県米子市錦海町3丁目6－9", "url": "https://www.kaigokensaku.mhlw.go.jp/31/index.php?action_kouhyou_detail_004_kani=true&JigyosyoCd=3190200679-00&ServiceCd=780&Type=search", "url2": "https://tcy.co.jp/service/dayhome/" }, "geometry": { "type": "Point", "coordinates": [ 133.3200722, 35.4177375 ] } },
{ "type": "Feature", "properties": { "内容": "ほねつぎデイサービス米子【地域密着型通所介護】西福原６丁目3-45", "url": "https://www.kaigokensaku.mhlw.go.jp/31/index.php?action_kouhyou_detail_004_kani=true&JigyosyoCd=3190200778-00&ServiceCd=780&Type=search", "url2": "https://www.honetsugi-kaigo.com/news/blog/service-of-kaigoyobou/" }, "geometry": { "type": "Point", "coordinates": [ 133.341397, 35.4477859 ] } },
{ "type": "Feature", "properties": { "内容": "ほかほか倶楽部【地域密着型通所介護】鳥取県米子市目久美町42-1", "url": "https://www.kaigokensaku.mhlw.go.jp/31/index.php?action_kouhyou_detail_004_kani=true&JigyosyoCd=3170202604-00&ServiceCd=780&Type=search", "url2": "https://hhp-yonago.com/seikotsu" }, "geometry": { "type": "Point", "coordinates": [ 133.341497, 35.4226253 ] } },
{ "type": "Feature", "properties": { "内容": "デイサービス　叶結び【地域密着型通所介護】鳥取県米子市淀江町淀江７９４－８", "url": "https://www.kaigokensaku.mhlw.go.jp/31/index.php?action_kouhyou_detail_004_kani=true&JigyosyoCd=3190200786-00&ServiceCd=780&Type=search", "url2": "https://kanaemusubi.hp.peraichi.com/" }, "geometry": { "type": "Point", "coordinates": [ 133.4292624, 35.4592339 ] } },
{ "type": "Feature", "properties": { "内容": "デイサービスセンターわらしべ【地域密着型通所介護】鳥取県米子市福市1685-9", "url": "https://www.kaigokensaku.mhlw.go.jp/31/index.php?action_kouhyou_detail_004_kani=true&JigyosyoCd=3170202349-00&ServiceCd=780&Type=search", "url2": "https://ashitanoki.com/warashibe/" }, "geometry": { "type": "Point", "coordinates": [ 133.3737284, 35.3998754 ] } },
{ "type": "Feature", "properties": { "内容": "デイサービス　ウィズ【地域密着型通所介護】鳥取県米子市米原８丁目４番３号", "url": "https://www.kaigokensaku.mhlw.go.jp/31/index.php?action_kouhyou_detail_004_kani=true&JigyosyoCd=3170202406-00&ServiceCd=780&Type=search", "url2": "https://with-yonago.com/company" }, "geometry": { "type": "Point", "coordinates": [ 133.335517501414387, 35.447829107511829 ] } },
{ "type": "Feature", "properties": { "内容": "寿々【地域密着型通所介護】鳥取県倉吉市山根585-1", "url": "https://www.kaigokensaku.mhlw.go.jp/31/index.php?action_kouhyou_detail_004_kani=true&JigyosyoCd=3170300762-00&ServiceCd=780&Type=search", "url2": null }, "geometry": { "type": "Point", "coordinates": [ 133.848558, 35.449603 ] } },
{ "type": "Feature", "properties": { "内容": "株式会社メディコープとっとり　デイサービス倉吉【地域密着型通所介護】鳥取県倉吉市福庭町１丁目２２５番地鳥取医療生協くらよし会館", "url": "https://www.kaigokensaku.mhlw.go.jp/31/index.php?action_kouhyou_detail_004_kani=true&JigyosyoCd=3170300796-00&ServiceCd=780&Type=search", "url2": "http://www.mcp.mcoop-tottori.jp/" }, "geometry": { "type": "Point", "coordinates": [ 133.848947599999974, 35.4686005 ] } },
{ "type": "Feature", "properties": { "内容": "デイサービスセンターひかり【地域密着型通所介護】鳥取県倉吉市清谷町1丁目254-1", "url": "https://www.kaigokensaku.mhlw.go.jp/31/index.php?action_kouhyou_detail_004_kani=true&JigyosyoCd=3170300713-00&ServiceCd=780&Type=search", "url2": "http://care-net.biz/31/hikari" }, "geometry": { "type": "Point", "coordinates": [ 133.849091967459145, 35.476203174199824 ] } },
{ "type": "Feature", "properties": { "内容": "デイサービスひまわり昭和町【地域密着型通所介護】鳥取県倉吉市東昭和町140", "url": "https://www.kaigokensaku.mhlw.go.jp/31/index.php?action_kouhyou_detail_004_kani=true&JigyosyoCd=3170300754-00&ServiceCd=780&Type=search", "url2": "http://www.siseikai.com/" }, "geometry": { "type": "Point", "coordinates": [ 133.841042799999968, 35.4362847 ] } },
{ "type": "Feature", "properties": { "内容": "デイサービスはるかぜ【地域密着型通所介護】鳥取県倉吉市福庭町１丁目２２５番地", "url": "https://www.kaigokensaku.mhlw.go.jp/31/index.php?action_kouhyou_detail_004_kani=true&JigyosyoCd=3170300960-00&ServiceCd=780&Type=search", "url2": null }, "geometry": { "type": "Point", "coordinates": [ 133.84895950848059, 35.468633719998074 ] } },
{ "type": "Feature", "properties": { "内容": "デイサービスひびの【地域密着型通所介護】鳥取県倉吉市円谷町508-3", "url": "https://www.kaigokensaku.mhlw.go.jp/31/index.php?action_kouhyou_detail_004_kani=true&JigyosyoCd=3190300107-00&ServiceCd=780&Type=search", "url2": null }, "geometry": { "type": "Point", "coordinates": [ 133.846914800000036, 35.4252612 ] } },
{ "type": "Feature", "properties": { "内容": "レッツ倶楽部境港【地域密着型通所介護】鳥取県境港市上道町3737", "url": "https://www.kaigokensaku.mhlw.go.jp/31/index.php?action_kouhyou_detail_004_kani=true&JigyosyoCd=3190400154-00&ServiceCd=780&Type=search", "url2": "https://www.lets-club.jp/" }, "geometry": { "type": "Point", "coordinates": [ 133.2219738, 35.5356658 ] } },
{ "type": "Feature", "properties": { "内容": "デイサービスステーション　リハビりす【地域密着型通所介護】鳥取県境港市外江町3036", "url": "https://www.kaigokensaku.mhlw.go.jp/31/index.php?action_kouhyou_detail_004_kani=true&JigyosyoCd=3190400113-00&ServiceCd=780&Type=search", "url2": null }, "geometry": { "type": "Point", "coordinates": [ 133.208832499999971, 35.5283062 ] } },
{ "type": "Feature", "properties": { "内容": "松風の郷デイサービスセンター【地域密着型通所介護】鳥取県岩美郡岩美町浦富1418-2", "url": "https://www.kaigokensaku.mhlw.go.jp/31/index.php?action_kouhyou_detail_004_kani=true&JigyosyoCd=3171100120-00&ServiceCd=780&Type=search", "url2": "http://hyogofukushi.com/about/" }, "geometry": { "type": "Point", "coordinates": [ 134.331281, 35.583903 ] } },
{ "type": "Feature", "properties": { "内容": "レコードブック岩美大谷【地域密着型通所介護】鳥取県岩美郡岩美町大谷1648-27", "url": "https://www.kaigokensaku.mhlw.go.jp/31/index.php?action_kouhyou_detail_004_kani=true&JigyosyoCd=3191100035-00&ServiceCd=780&Type=search", "url2": "https://www.recordbook.jp/facility/iwamiootani/" }, "geometry": { "type": "Point", "coordinates": [ 134.308296399999989, 35.566449700000014 ] } },
{ "type": "Feature", "properties": { "内容": "デイサービスセンター　あいの手【地域密着型通所介護】鳥取県岩美郡岩美町岩井279番地", "url": "https://www.kaigokensaku.mhlw.go.jp/31/index.php?action_kouhyou_detail_004_kani=true&JigyosyoCd=3171100138-00&ServiceCd=780&Type=search", "url2": null }, "geometry": { "type": "Point", "coordinates": [ 134.363612699999976, 35.5570318 ] } },
{ "type": "Feature", "properties": { "内容": "ながたんの里【地域密着型通所介護】鳥取県岩美郡岩美町長谷814番地", "url": "https://www.kaigokensaku.mhlw.go.jp/31/index.php?action_kouhyou_detail_004_kani=true&JigyosyoCd=3171100153-00&ServiceCd=780&Type=search", "url2": null }, "geometry": { "type": "Point", "coordinates": [ 120.360845499999982, 22.6947932 ] } },
{ "type": "Feature", "properties": { "内容": "若桜町社会福祉協議会　地域密着型通所介護事業所【地域密着型通所介護】鳥取県八頭郡若桜町若桜1247-1若桜町立地域福祉センター・ドリーミー", "url": "https://www.kaigokensaku.mhlw.go.jp/31/index.php?action_kouhyou_detail_004_kani=true&JigyosyoCd=3191200116-00&ServiceCd=780&Type=search", "url2": "wakasa-syakyo.wixsite.com/home" }, "geometry": { "type": "Point", "coordinates": [ 134.3931973, 35.3482565 ] } },
{ "type": "Feature", "properties": { "内容": "デイサービスやすらぎ【地域密着型通所介護】鳥取県八頭郡智頭町中原352-2", "url": "https://www.kaigokensaku.mhlw.go.jp/31/index.php?action_kouhyou_detail_004_kani=true&JigyosyoCd=3191200090-00&ServiceCd=780&Type=search", "url2": "https://inochine.com/" }, "geometry": { "type": "Point", "coordinates": [ 134.2913625, 35.233048 ] } },
{ "type": "Feature", "properties": { "内容": "智頭デイサービス事業所　りんどう【地域密着型通所介護】鳥取県八頭郡智頭町大字三吉１３７－１１", "url": "https://www.kaigokensaku.mhlw.go.jp/31/index.php?action_kouhyou_detail_004_kani=true&JigyosyoCd=3171200433-00&ServiceCd=780&Type=search", "url2": "http://www.t-fukushi.co.jp/" }, "geometry": { "type": "Point", "coordinates": [ 134.226902099999961, 35.2307424 ] } },
{ "type": "Feature", "properties": { "内容": "智頭デイサービス事業所すぎ玉【地域密着型通所介護】鳥取県八頭郡智頭町大字智頭2597-28", "url": "https://www.kaigokensaku.mhlw.go.jp/31/index.php?action_kouhyou_detail_004_kani=true&JigyosyoCd=3171200508-00&ServiceCd=780&Type=search", "url2": "http://www.t-fukushi.co.jp/" }, "geometry": { "type": "Point", "coordinates": [ 134.219743599999987, 35.2608341 ] } },
{ "type": "Feature", "properties": { "内容": "デイサービスセンター春香【地域密着型通所介護】鳥取県八頭郡智頭町智頭1510番地2", "url": "https://www.kaigokensaku.mhlw.go.jp/31/index.php?action_kouhyou_detail_004_kani=true&JigyosyoCd=3171200482-00&ServiceCd=780&Type=search", "url2": null }, "geometry": { "type": "Point", "coordinates": [ 134.229284099999973, 35.2675669 ] } },
{ "type": "Feature", "properties": { "内容": "あっとほーむ【地域密着型通所介護】鳥取県　八頭郡　八頭町　郡家　７６－３５", "url": "https://www.kaigokensaku.mhlw.go.jp/31/index.php?action_kouhyou_detail_004_kani=true&JigyosyoCd=3171200532-00&ServiceCd=780&Type=search", "url2": null }, "geometry": { "type": "Point", "coordinates": [ 134.252523099999962, 35.4133402 ] } },
{ "type": "Feature", "properties": { "内容": "ディサービスセンターれしーぶ【地域密着型通所介護】鳥取県八頭郡八頭町船岡1961番地", "url": "https://www.kaigokensaku.mhlw.go.jp/31/index.php?action_kouhyou_detail_004_kani=true&JigyosyoCd=3171200565-00&ServiceCd=780&Type=search", "url2": "tusyo.day@resi-bu.jp" }, "geometry": { "type": "Point", "coordinates": [ 134.242659927803402, 35.394155370390834 ] } },
{ "type": "Feature", "properties": { "内容": "社会福祉法人　湯梨浜町社会福祉協議会　泊指定地域密着型通所介護事業所【地域密着型通所介護】鳥取県東伯郡湯梨浜町泊１０８５番地１", "url": "https://www.kaigokensaku.mhlw.go.jp/31/index.php?action_kouhyou_detail_004_kani=true&JigyosyoCd=3171400553-00&ServiceCd=780&Type=search", "url2": "http://www.yurihama-shakyo.jp" }, "geometry": { "type": "Point", "coordinates": [ 133.9430979, 35.5143084 ] } },
{ "type": "Feature", "properties": { "内容": "鳥取県東伯郡湯梨浜町はわい温泉31-2【地域密着型通所介護】鳥取県東伯郡湯梨浜町はわい温泉31-2", "url": "https://www.kaigokensaku.mhlw.go.jp/31/index.php?action_kouhyou_detail_004_kani=true&JigyosyoCd=3191400187-00&ServiceCd=780&Type=search", "url2": null }, "geometry": { "type": "Point", "coordinates": [ 133.8828232, 35.4786605 ] } },
{ "type": "Feature", "properties": { "内容": "地域密着型通所介護あすぷらすことうら【地域密着型通所介護】鳥取県東伯郡琴浦町八橋775番地61", "url": "https://www.kaigokensaku.mhlw.go.jp/31/index.php?action_kouhyou_detail_004_kani=true&JigyosyoCd=3191400161-00&ServiceCd=780&Type=search", "url2": "https://us-plus-nekohige.com" }, "geometry": { "type": "Point", "coordinates": [ 133.6742499, 35.4976093 ] } },
{ "type": "Feature", "properties": { "内容": "ばんだの里やすはら通所介護事業所【地域密着型通所介護】鳥取県西伯郡大山町安原1119", "url": "https://www.kaigokensaku.mhlw.go.jp/31/index.php?action_kouhyou_detail_004_kani=true&JigyosyoCd=3171500402-00&ServiceCd=780&Type=search", "url2": null }, "geometry": { "type": "Point", "coordinates": [ 133.441350300000067, 35.4671577 ] } },
{ "type": "Feature", "properties": { "内容": "サンライズデイサービスセンター【地域密着型通所介護】鳥取県西伯郡大山町富長848-1サンライズハウス", "url": "https://www.kaigokensaku.mhlw.go.jp/31/index.php?action_kouhyou_detail_004_kani=true&JigyosyoCd=3171500832-00&ServiceCd=780&Type=search", "url2": null }, "geometry": { "type": "Point", "coordinates": [ 133.479235300000028, 35.5002424 ] } },
{ "type": "Feature", "properties": { "内容": "大山町社会福祉協議会　地域密着型通所介護ほほえみ【地域密着型通所介護】鳥取県西伯郡大山町赤坂764番地大山町福祉センターなかやま", "url": "https://www.kaigokensaku.mhlw.go.jp/31/index.php?action_kouhyou_detail_004_kani=true&JigyosyoCd=3191500093-00&ServiceCd=780&Type=search", "url2": "https://daisensyakyo.org" }, "geometry": { "type": "Point", "coordinates": [ 133.5801424, 35.5159594 ] } },
{ "type": "Feature", "properties": { "内容": "デイサービスセンターゆうらく【地域密着型通所介護】鳥取県西伯郡南部町落合480", "url": "https://www.kaigokensaku.mhlw.go.jp/31/index.php?action_kouhyou_detail_004_kani=true&JigyosyoCd=3191500119-00&ServiceCd=780&Type=search", "url2": "Http：//yuraku-houki.net/" }, "geometry": { "type": "Point", "coordinates": [ 133.3379151, 35.3354555 ] } },
{ "type": "Feature", "properties": { "内容": "デイサービスセンター　ことぶき【地域密着型通所介護】鳥取県西伯郡伯耆町長山１６１番地１", "url": "https://www.kaigokensaku.mhlw.go.jp/31/index.php?action_kouhyou_detail_004_kani=true&JigyosyoCd=3171600194-00&ServiceCd=780&Type=search", "url2": null }, "geometry": { "type": "Point", "coordinates": [ 133.434921300000042, 35.350984200000035 ] } },
{ "type": "Feature", "properties": { "内容": "合同会社いこいの広場らんちゅう【地域密着型通所介護】鳥取県日野郡江府町大字武庫1198番地1", "url": "https://www.kaigokensaku.mhlw.go.jp/31/index.php?action_kouhyou_detail_004_kani=true&JigyosyoCd=3171600376-00&ServiceCd=780&Type=search", "url2": null }, "geometry": { "type": "Point", "coordinates": [ 133.47311566441806, 35.262239605227208 ] } }
]
}
