{
"type": "FeatureCollection",
"name": "geo_31_中学校",
"crs": { "type": "name", "properties": { "name": "urn:ogc:def:crs:EPSG::6668" } },
"features": [
{ "type": "Feature", "properties": { "P29_001": "31201", "P29_002": "C131110000012", "P29_003": "16002", "P29_004": "鳥取大学附属中学校", "P29_005": "鳥取県鳥取市湖山町南4-101", "P29_006": "1", "P29_007": "1", "P29_008": "00", "P29_009": null }, "geometry": { "type": "Point", "coordinates": [ 134.173547447582706, 35.51283188077435 ] } },
{ "type": "Feature", "properties": { "P29_001": "31201", "P29_002": "C131210000010", "P29_003": "16002", "P29_004": "鳥取市立東中学校", "P29_005": "鳥取県鳥取市立川町6-164", "P29_006": "3", "P29_007": "1", "P29_008": "00", "P29_009": null }, "geometry": { "type": "Point", "coordinates": [ 134.250729208896217, 35.486218051447679 ] } },
{ "type": "Feature", "properties": { "P29_001": "31201", "P29_002": "C131210000029", "P29_003": "16002", "P29_004": "鳥取市立西中学校", "P29_005": "鳥取県鳥取市寿町907", "P29_006": "3", "P29_007": "1", "P29_008": "00", "P29_009": null }, "geometry": { "type": "Point", "coordinates": [ 134.225564097397751, 35.505959178112441 ] } },
{ "type": "Feature", "properties": { "P29_001": "31201", "P29_002": "C131210000038", "P29_003": "16002", "P29_004": "鳥取市立南中学校", "P29_005": "鳥取県鳥取市興南町91", "P29_006": "3", "P29_007": "1", "P29_008": "00", "P29_009": null }, "geometry": { "type": "Point", "coordinates": [ 134.230058612379935, 35.486853792302895 ] } },
{ "type": "Feature", "properties": { "P29_001": "31201", "P29_002": "C131210000047", "P29_003": "16002", "P29_004": "鳥取市立北中学校", "P29_005": "鳥取県鳥取市東町3-371-1", "P29_006": "3", "P29_007": "1", "P29_008": "00", "P29_009": null }, "geometry": { "type": "Point", "coordinates": [ 134.234515326582653, 35.509443810923536 ] } },
{ "type": "Feature", "properties": { "P29_001": "31201", "P29_002": "C131210000056", "P29_003": "16002", "P29_004": "鳥取市立高草中学校", "P29_005": "鳥取県鳥取市徳尾108-1", "P29_006": "3", "P29_007": "1", "P29_008": "00", "P29_009": null }, "geometry": { "type": "Point", "coordinates": [ 134.205439302457989, 35.502539061650495 ] } },
{ "type": "Feature", "properties": { "P29_001": "31201", "P29_002": "C131210000065", "P29_003": "16002", "P29_004": "鳥取市立湖東中学校", "P29_005": "鳥取県鳥取市湖山町北6-323", "P29_006": "3", "P29_007": "1", "P29_008": "00", "P29_009": null }, "geometry": { "type": "Point", "coordinates": [ 134.182350571871808, 35.519949662529378 ] } },
{ "type": "Feature", "properties": { "P29_001": "31201", "P29_002": "C131210000074", "P29_003": "16002", "P29_004": "鳥取市立桜ヶ丘中学校", "P29_005": "鳥取県鳥取市桜谷227", "P29_006": "3", "P29_007": "1", "P29_008": "00", "P29_009": null }, "geometry": { "type": "Point", "coordinates": [ 134.248507089020279, 35.469940631004036 ] } },
{ "type": "Feature", "properties": { "P29_001": "31201", "P29_002": "C131210000083", "P29_003": "16002", "P29_004": "鳥取市立中ノ郷中学校", "P29_005": "鳥取県鳥取市浜坂東1-22-17", "P29_006": "3", "P29_007": "1", "P29_008": "00", "P29_009": null }, "geometry": { "type": "Point", "coordinates": [ 134.226876682070468, 35.528933367849888 ] } },
{ "type": "Feature", "properties": { "P29_001": "31202", "P29_002": "C131210000092", "P29_003": "16002", "P29_004": "米子市立東山中学校", "P29_005": "鳥取県米子市車尾617", "P29_006": "3", "P29_007": "1", "P29_008": "00", "P29_009": null }, "geometry": { "type": "Point", "coordinates": [ 133.354889582650969, 35.427230508564179 ] } },
{ "type": "Feature", "properties": { "P29_001": "31202", "P29_002": "C131210000109", "P29_003": "16002", "P29_004": "米子市立福生中学校", "P29_005": "鳥取県米子市上福原20", "P29_006": "3", "P29_007": "1", "P29_008": "00", "P29_009": null }, "geometry": { "type": "Point", "coordinates": [ 133.36591165796753, 35.441549963884519 ] } },
{ "type": "Feature", "properties": { "P29_001": "31202", "P29_002": "C131210000118", "P29_003": "16002", "P29_004": "米子市立湊山中学校", "P29_005": "鳥取県米子市愛宕町84", "P29_006": "3", "P29_007": "1", "P29_008": "00", "P29_009": null }, "geometry": { "type": "Point", "coordinates": [ 133.330366996271721, 35.421364003022738 ] } },
{ "type": "Feature", "properties": { "P29_001": "31202", "P29_002": "C131210000127", "P29_003": "16002", "P29_004": "米子市立後藤ヶ丘中学校", "P29_005": "鳥取県米子市上後藤1-1-1", "P29_006": "3", "P29_007": "1", "P29_008": "00", "P29_009": null }, "geometry": { "type": "Point", "coordinates": [ 133.319283997908514, 35.442612001482466 ] } },
{ "type": "Feature", "properties": { "P29_001": "31202", "P29_002": "C131210000136", "P29_003": "16002", "P29_004": "米子市立美保中学校", "P29_005": "鳥取県米子市大篠津町3657-1", "P29_006": "3", "P29_007": "1", "P29_008": "00", "P29_009": null }, "geometry": { "type": "Point", "coordinates": [ 133.250095735442471, 35.484795483849197 ] } },
{ "type": "Feature", "properties": { "P29_001": "31202", "P29_002": "C131210000145", "P29_003": "16002", "P29_004": "米子市立弓ヶ浜中学校", "P29_005": "鳥取県米子市富益町2070", "P29_006": "3", "P29_007": "1", "P29_008": "00", "P29_009": null }, "geometry": { "type": "Point", "coordinates": [ 133.282019089263514, 35.471777258094136 ] } },
{ "type": "Feature", "properties": { "P29_001": "31202", "P29_002": "C131210000154", "P29_003": "16002", "P29_004": "米子市立尚徳中学校", "P29_005": "鳥取県米子市日原146", "P29_006": "3", "P29_007": "1", "P29_008": "00", "P29_009": null }, "geometry": { "type": "Point", "coordinates": [ 133.358689739435732, 35.406754602891908 ] } },
{ "type": "Feature", "properties": { "P29_001": "31202", "P29_002": "C131210000163", "P29_003": "16002", "P29_004": "米子市立加茂中学校", "P29_005": "鳥取県米子市両三柳3883", "P29_006": "3", "P29_007": "1", "P29_008": "00", "P29_009": null }, "geometry": { "type": "Point", "coordinates": [ 133.314992819284441, 35.45262338979532 ] } },
{ "type": "Feature", "properties": { "P29_001": "31202", "P29_002": "C131210000172", "P29_003": "16002", "P29_004": "米子市日吉津村中学校組合立箕蚊屋中学校", "P29_005": "鳥取県米子市下新印196-4", "P29_006": "3", "P29_007": "1", "P29_008": "00", "P29_009": null }, "geometry": { "type": "Point", "coordinates": [ 133.387920620954645, 35.420923588146536 ] } },
{ "type": "Feature", "properties": { "P29_001": "31202", "P29_002": "C131210000181", "P29_003": "16002", "P29_004": "米子市立福米中学校", "P29_005": "鳥取県米子市新開5-9-1", "P29_006": "3", "P29_007": "1", "P29_008": "00", "P29_009": null }, "geometry": { "type": "Point", "coordinates": [ 133.345951395470223, 35.455160300024566 ] } },
{ "type": "Feature", "properties": { "P29_001": "31203", "P29_002": "C131210000190", "P29_003": "16002", "P29_004": "倉吉市立東中学校", "P29_005": "鳥取県倉吉市宮川町2-76", "P29_006": "3", "P29_007": "1", "P29_008": "00", "P29_009": null }, "geometry": { "type": "Point", "coordinates": [ 133.829575139781525, 35.434472448210137 ] } },
{ "type": "Feature", "properties": { "P29_001": "31203", "P29_002": "C131210000207", "P29_003": "16002", "P29_004": "倉吉市立西中学校", "P29_005": "鳥取県倉吉市西倉吉町170", "P29_006": "3", "P29_007": "1", "P29_008": "00", "P29_009": null }, "geometry": { "type": "Point", "coordinates": [ 133.802726867062859, 35.426530683601435 ] } },
{ "type": "Feature", "properties": { "P29_001": "31203", "P29_002": "C131210000216", "P29_003": "16002", "P29_004": "倉吉市立久米中学校", "P29_005": "鳥取県倉吉市横田568-1", "P29_006": "3", "P29_007": "1", "P29_008": "00", "P29_009": null }, "geometry": { "type": "Point", "coordinates": [ 133.775519185830547, 35.42276952460476 ] } },
{ "type": "Feature", "properties": { "P29_001": "31203", "P29_002": "C131210000225", "P29_003": "16002", "P29_004": "倉吉市立河北中学校", "P29_005": "鳥取県倉吉市上井430", "P29_006": "3", "P29_007": "1", "P29_008": "00", "P29_009": null }, "geometry": { "type": "Point", "coordinates": [ 133.844522402385905, 35.449757339760261 ] } },
{ "type": "Feature", "properties": { "P29_001": "31204", "P29_002": "C131210000234", "P29_003": "16002", "P29_004": "境港市立第一中学校", "P29_005": "鳥取県境港市上道町1840", "P29_006": "3", "P29_007": "1", "P29_008": "00", "P29_009": null }, "geometry": { "type": "Point", "coordinates": [ 133.238066001741117, 35.542376997540842 ] } },
{ "type": "Feature", "properties": { "P29_001": "31204", "P29_002": "C131210000243", "P29_003": "16002", "P29_004": "境港市立第二中学校", "P29_005": "鳥取県境港市竹内町2438", "P29_006": "3", "P29_007": "1", "P29_008": "00", "P29_009": null }, "geometry": { "type": "Point", "coordinates": [ 133.230910080714665, 35.520691496841486 ] } },
{ "type": "Feature", "properties": { "P29_001": "31204", "P29_002": "C131210000252", "P29_003": "16002", "P29_004": "境港市立第三中学校", "P29_005": "鳥取県境港市外江町1372", "P29_006": "3", "P29_007": "1", "P29_008": "00", "P29_009": null }, "geometry": { "type": "Point", "coordinates": [ 133.215800078250254, 35.524831884307204 ] } },
{ "type": "Feature", "properties": { "P29_001": "31201", "P29_002": "C131210000261", "P29_003": "16002", "P29_004": "鳥取市立国府中学校", "P29_005": "鳥取県鳥取市国府町町屋720", "P29_006": "3", "P29_007": "1", "P29_008": "00", "P29_009": null }, "geometry": { "type": "Point", "coordinates": [ 134.274988743716136, 35.473371524752629 ] } },
{ "type": "Feature", "properties": { "P29_001": "31302", "P29_002": "C131210000270", "P29_003": "16002", "P29_004": "岩美町立岩美中学校", "P29_005": "鳥取県岩美郡岩美町浦富707", "P29_006": "3", "P29_007": "1", "P29_008": "00", "P29_009": null }, "geometry": { "type": "Point", "coordinates": [ 134.330185146259765, 35.574846351387066 ] } },
{ "type": "Feature", "properties": { "P29_001": "31201", "P29_002": "C131210000289", "P29_003": "16002", "P29_004": "鳥取市立河原中学校", "P29_005": "鳥取県鳥取市河原町曳田298", "P29_006": "3", "P29_007": "1", "P29_008": "00", "P29_009": null }, "geometry": { "type": "Point", "coordinates": [ 134.198936901175216, 35.395495083479133 ] } },
{ "type": "Feature", "properties": { "P29_001": "31325", "P29_002": "C131210000298", "P29_003": "16002", "P29_004": "若桜町立若桜学園中学校", "P29_005": "鳥取県八頭郡若桜町浅井289", "P29_006": "3", "P29_007": "1", "P29_008": "00", "P29_009": null }, "geometry": { "type": "Point", "coordinates": [ 134.405106984742133, 35.335584471821981 ] } },
{ "type": "Feature", "properties": { "P29_001": "31328", "P29_002": "C131210000305", "P29_003": "16002", "P29_004": "智頭町立智頭中学校", "P29_005": "鳥取県八頭郡智頭町智頭688", "P29_006": "3", "P29_007": "1", "P29_008": "00", "P29_009": null }, "geometry": { "type": "Point", "coordinates": [ 134.236502650096384, 35.265692142426708 ] } },
{ "type": "Feature", "properties": { "P29_001": "31201", "P29_002": "C131210000314", "P29_003": "16002", "P29_004": "鳥取市立気高中学校", "P29_005": "鳥取県鳥取市気高町浜村784-51", "P29_006": "3", "P29_007": "1", "P29_008": "00", "P29_009": null }, "geometry": { "type": "Point", "coordinates": [ 134.061888702286097, 35.517851700481181 ] } },
{ "type": "Feature", "properties": { "P29_001": "31201", "P29_002": "C131210000323", "P29_003": "16002", "P29_004": "鳥取市立青谷中学校", "P29_005": "鳥取県鳥取市青谷町青谷4190-1", "P29_006": "3", "P29_007": "1", "P29_008": "00", "P29_009": null }, "geometry": { "type": "Point", "coordinates": [ 133.996103775997824, 35.512020800375566 ] } },
{ "type": "Feature", "properties": { "P29_001": "31364", "P29_002": "C131210000332", "P29_003": "16002", "P29_004": "三朝町立三朝中学校", "P29_005": "鳥取県東伯郡三朝町本泉430", "P29_006": "3", "P29_007": "1", "P29_008": "00", "P29_009": null }, "geometry": { "type": "Point", "coordinates": [ 133.861232450774935, 35.404918595229184 ] } },
{ "type": "Feature", "properties": { "P29_001": "31203", "P29_002": "C131210000341", "P29_003": "16002", "P29_004": "倉吉市立鴨川中学校", "P29_005": "鳥取県倉吉市関金町大鳥居25", "P29_006": "3", "P29_007": "1", "P29_008": "00", "P29_009": null }, "geometry": { "type": "Point", "coordinates": [ 133.754439286206548, 35.371610500621621 ] } },
{ "type": "Feature", "properties": { "P29_001": "31372", "P29_002": "C131210000350", "P29_003": "16002", "P29_004": "北栄町立大栄中学校", "P29_005": "鳥取県東伯郡北栄町由良宿340", "P29_006": "3", "P29_007": "1", "P29_008": "00", "P29_009": null }, "geometry": { "type": "Point", "coordinates": [ 133.754581904641924, 35.487937809768503 ] } },
{ "type": "Feature", "properties": { "P29_001": "31371", "P29_002": "C131210000369", "P29_003": "16002", "P29_004": "琴浦町立東伯中学校", "P29_005": "鳥取県東伯郡琴浦町徳万236", "P29_006": "3", "P29_007": "1", "P29_008": "00", "P29_009": null }, "geometry": { "type": "Point", "coordinates": [ 133.693915868399984, 35.496778198713471 ] } },
{ "type": "Feature", "properties": { "P29_001": "31371", "P29_002": "C131210000378", "P29_003": "16002", "P29_004": "琴浦町立赤碕中学校", "P29_005": "鳥取県東伯郡琴浦町赤碕1922-1", "P29_006": "3", "P29_007": "1", "P29_008": "00", "P29_009": null }, "geometry": { "type": "Point", "coordinates": [ 133.630453519555687, 35.514935010229344 ] } },
{ "type": "Feature", "properties": { "P29_001": "31389", "P29_002": "C131210000387", "P29_003": "16002", "P29_004": "南部町立法勝寺中学校", "P29_005": "鳥取県西伯郡南部町馬場630-1", "P29_006": "3", "P29_007": "1", "P29_008": "00", "P29_009": null }, "geometry": { "type": "Point", "coordinates": [ 133.3233536450484, 35.336526839355059 ] } },
{ "type": "Feature", "properties": { "P29_001": "31389", "P29_002": "C131210000396", "P29_003": "16002", "P29_004": "南部町立南部中学校", "P29_005": "鳥取県西伯郡南部町天萬583", "P29_006": "3", "P29_007": "1", "P29_008": "00", "P29_009": null }, "geometry": { "type": "Point", "coordinates": [ 133.363367757973975, 35.371928934492281 ] } },
{ "type": "Feature", "properties": { "P29_001": "31390", "P29_002": "C131210000403", "P29_003": "16002", "P29_004": "伯耆町立岸本中学校", "P29_005": "鳥取県西伯郡伯耆町吉長90-1", "P29_006": "3", "P29_007": "1", "P29_008": "00", "P29_009": null }, "geometry": { "type": "Point", "coordinates": [ 133.404055999363692, 35.388700999891057 ] } },
{ "type": "Feature", "properties": { "P29_001": "31202", "P29_002": "C131210000412", "P29_003": "16002", "P29_004": "米子市立淀江中学校", "P29_005": "鳥取県米子市淀江町西原660", "P29_006": "3", "P29_007": "1", "P29_008": "00", "P29_009": null }, "geometry": { "type": "Point", "coordinates": [ 133.421495563273339, 35.453154438304416 ] } },
{ "type": "Feature", "properties": { "P29_001": "31386", "P29_002": "C131210000421", "P29_003": "16002", "P29_004": "大山町立大山中学校", "P29_005": "鳥取県西伯郡大山町所子313", "P29_006": "3", "P29_007": "1", "P29_008": "00", "P29_009": null }, "geometry": { "type": "Point", "coordinates": [ 133.463409001058096, 35.481053996010345 ] } },
{ "type": "Feature", "properties": { "P29_001": "31386", "P29_002": "C131210000430", "P29_003": "16002", "P29_004": "大山町立名和中学校", "P29_005": "鳥取県西伯郡大山町名和648", "P29_006": "3", "P29_007": "1", "P29_008": "00", "P29_009": null }, "geometry": { "type": "Point", "coordinates": [ 133.496955447712935, 35.506043423580216 ] } },
{ "type": "Feature", "properties": { "P29_001": "31386", "P29_002": "C131210000449", "P29_003": "16002", "P29_004": "大山町立中山中学校", "P29_005": "鳥取県西伯郡大山町下甲951-1", "P29_006": "3", "P29_007": "1", "P29_008": "00", "P29_009": null }, "geometry": { "type": "Point", "coordinates": [ 133.577252374913655, 35.519669810626183 ] } },
{ "type": "Feature", "properties": { "P29_001": "31401", "P29_002": "C131210000458", "P29_003": "16002", "P29_004": "日南町立日南中学校", "P29_005": "鳥取県日野郡日南町霞740", "P29_006": "3", "P29_007": "1", "P29_008": "00", "P29_009": null }, "geometry": { "type": "Point", "coordinates": [ 133.308955473254315, 35.166835504180753 ] } },
{ "type": "Feature", "properties": { "P29_001": "31390", "P29_002": "C131210000476", "P29_003": "16002", "P29_004": "伯耆町立溝口中学校", "P29_005": "鳥取県西伯郡伯耆町長山481", "P29_006": "3", "P29_007": "1", "P29_008": "00", "P29_009": null }, "geometry": { "type": "Point", "coordinates": [ 133.438948952708131, 35.346267430489711 ] } },
{ "type": "Feature", "properties": { "P29_001": "31372", "P29_002": "C131210000494", "P29_003": "16002", "P29_004": "北栄町立北条中学校", "P29_005": "鳥取県東伯郡北栄町土下100-1", "P29_006": "3", "P29_007": "1", "P29_008": "00", "P29_009": null }, "geometry": { "type": "Point", "coordinates": [ 133.824140798609335, 35.47859752810087 ] } },
{ "type": "Feature", "properties": { "P29_001": "31202", "P29_002": "C131210000500", "P29_003": "16002", "P29_004": "米子市立福生中学校いずみ分校", "P29_005": "鳥取県米子市泉706", "P29_006": "3", "P29_007": "1", "P29_008": "00", "P29_009": null }, "geometry": { "type": "Point", "coordinates": [ 133.429309201562347, 35.422416113854418 ] } },
{ "type": "Feature", "properties": { "P29_001": "31201", "P29_002": "C131210000519", "P29_003": "16002", "P29_004": "鳥取市立東中学校のぞみ分校", "P29_005": "鳥取県鳥取市立川町5-417", "P29_006": "3", "P29_007": "1", "P29_008": "00", "P29_009": null }, "geometry": { "type": "Point", "coordinates": [ 134.241329469814417, 35.49038221930001 ] } },
{ "type": "Feature", "properties": { "P29_001": "31201", "P29_002": "C131210000528", "P29_003": "16002", "P29_004": "鳥取市立千代南中学校", "P29_005": "鳥取県鳥取市用瀬町別府65", "P29_006": "3", "P29_007": "1", "P29_008": "00", "P29_009": null }, "geometry": { "type": "Point", "coordinates": [ 134.19708660229648, 35.341736573596251 ] } },
{ "type": "Feature", "properties": { "P29_001": "31329", "P29_002": "C131210000537", "P29_003": "16002", "P29_004": "八頭町立八頭中学校", "P29_005": "鳥取県八頭郡八頭町郡家296", "P29_006": "3", "P29_007": "1", "P29_008": "00", "P29_009": null }, "geometry": { "type": "Point", "coordinates": [ 134.252409004484463, 35.410139996187411 ] } },
{ "type": "Feature", "properties": { "P29_001": "31370", "P29_002": "C131210000546", "P29_003": "16002", "P29_004": "湯梨浜町立湯梨浜中学校", "P29_005": "鳥取県東伯郡湯梨浜町長江51", "P29_006": "3", "P29_007": "1", "P29_008": "00", "P29_009": null }, "geometry": { "type": "Point", "coordinates": [ 133.867447498465594, 35.478225564770334 ] } },
{ "type": "Feature", "properties": { "P29_001": "31202", "P29_002": "C131310000018", "P29_003": "16002", "P29_004": "米子北斗中学校", "P29_005": "鳥取県米子市夜見50", "P29_006": "4", "P29_007": "1", "P29_008": "00", "P29_009": null }, "geometry": { "type": "Point", "coordinates": [ 133.295333366345716, 35.45404370986563 ] } },
{ "type": "Feature", "properties": { "P29_001": "31370", "P29_002": "C131310000027", "P29_003": "16002", "P29_004": "湯梨浜学園中学校", "P29_005": "鳥取県東伯郡湯梨浜町田畑32-1", "P29_006": "4", "P29_007": "1", "P29_008": "00", "P29_009": null }, "geometry": { "type": "Point", "coordinates": [ 133.90780567294567, 35.460180424983719 ] } },
{ "type": "Feature", "properties": { "P29_001": "31201", "P29_002": "C131310000036", "P29_003": "16002", "P29_004": "青翔開智中学校", "P29_005": "鳥取県鳥取市国府町新通り3-301-2", "P29_006": "4", "P29_007": "1", "P29_008": "00", "P29_009": null }, "geometry": { "type": "Point", "coordinates": [ 134.256419462091657, 35.482245673646609 ] } }
]
}
