{
"type": "FeatureCollection",
"name": "geo_31_特別支援学校",
"crs": { "type": "name", "properties": { "name": "urn:ogc:def:crs:EPSG::6668" } },
"features": [
{ "type": "Feature", "properties": { "P29_001": "31201", "P29_002": "E131110000017", "P29_003": "16012", "P29_004": "鳥取大学附属特別支援学校", "P29_005": "鳥取県鳥取市湖山町西2-149", "P29_006": "1", "P29_007": "0", "P29_008": "00", "P29_009": null }, "geometry": { "type": "Point", "coordinates": [ 134.1630641739564, 35.523715745715407 ] } },
{ "type": "Feature", "properties": { "P29_001": "31201", "P29_002": "E131210000015", "P29_003": "16012", "P29_004": "鳥取県立鳥取盲学校", "P29_005": "鳥取県鳥取市国府町宮下1265", "P29_006": "2", "P29_007": "0", "P29_008": "00", "P29_009": null }, "geometry": { "type": "Point", "coordinates": [ 134.256149686962573, 35.479607324138115 ] } },
{ "type": "Feature", "properties": { "P29_001": "31201", "P29_002": "E131210000024", "P29_003": "16012", "P29_004": "鳥取県立鳥取聾学校", "P29_005": "鳥取県鳥取市国府町宮下1261", "P29_006": "2", "P29_007": "0", "P29_008": "00", "P29_009": null }, "geometry": { "type": "Point", "coordinates": [ 134.258118844284127, 35.479368047848332 ] } },
{ "type": "Feature", "properties": { "P29_001": "31202", "P29_002": "E131210000033", "P29_003": "16012", "P29_004": "鳥取県立鳥取聾学校ひまわり分校", "P29_005": "鳥取県米子市上福原7-13-1", "P29_006": "2", "P29_007": "0", "P29_008": "00", "P29_009": null }, "geometry": { "type": "Point", "coordinates": [ 133.352430080416013, 35.455429352445556 ] } },
{ "type": "Feature", "properties": { "P29_001": "31202", "P29_002": "E131210000042", "P29_003": "16012", "P29_004": "鳥取県立皆生養護学校", "P29_005": "鳥取県米子市上福原7-13-4", "P29_006": "2", "P29_007": "0", "P29_008": "00", "P29_009": null }, "geometry": { "type": "Point", "coordinates": [ 133.353024139880006, 35.457112551735868 ] } },
{ "type": "Feature", "properties": { "P29_001": "31201", "P29_002": "E131210000051", "P29_003": "16012", "P29_004": "鳥取県立白兎養護学校", "P29_005": "鳥取県鳥取市伏野1550-1", "P29_006": "2", "P29_007": "0", "P29_008": "00", "P29_009": null }, "geometry": { "type": "Point", "coordinates": [ 134.122204285267031, 35.525368995090361 ] } },
{ "type": "Feature", "properties": { "P29_001": "31201", "P29_002": "E131210000060", "P29_003": "16012", "P29_004": "鳥取県立鳥取養護学校", "P29_005": "鳥取県鳥取市江津260", "P29_006": "2", "P29_007": "0", "P29_008": "00", "P29_009": null }, "geometry": { "type": "Point", "coordinates": [ 134.211076847824501, 35.522692904799484 ] } },
{ "type": "Feature", "properties": { "P29_001": "31202", "P29_002": "E131210000079", "P29_003": "16012", "P29_004": "鳥取県立米子養護学校", "P29_005": "鳥取県米子市蚊屋343", "P29_006": "2", "P29_007": "0", "P29_008": "00", "P29_009": null }, "geometry": { "type": "Point", "coordinates": [ 133.382995156510759, 35.425542445641746 ] } },
{ "type": "Feature", "properties": { "P29_001": "31203", "P29_002": "E131210000088", "P29_003": "16012", "P29_004": "鳥取県立倉吉養護学校", "P29_005": "鳥取県倉吉市長坂新町1231", "P29_006": "2", "P29_007": "0", "P29_008": "00", "P29_009": null }, "geometry": { "type": "Point", "coordinates": [ 133.80788764250326, 35.410167882834315 ] } },
{ "type": "Feature", "properties": { "P29_001": "31371", "P29_002": "E131210000097", "P29_003": "16012", "P29_004": "鳥取県立琴の浦高等特別支援学校", "P29_005": "鳥取県東伯郡琴浦町赤崎1957-1", "P29_006": "2", "P29_007": "0", "P29_008": "00", "P29_009": null }, "geometry": { "type": "Point", "coordinates": [ 133.634407720676762, 35.515599423578394 ] } }
]
}
