{
"type": "FeatureCollection",
"name": "geo_31_訪問介護",
"crs": { "type": "name", "properties": { "name": "urn:ogc:def:crs:OGC:1.3:CRS84" } },
"features": [
{ "type": "Feature", "properties": { "内容": "訪問介護　愛真ケア【訪問介護】鳥取県鳥取市岩倉２５０番地１２森田アパート３号", "url": "https://www.kaigokensaku.mhlw.go.jp/31/index.php?action_kouhyou_detail_004_kani=true&JigyosyoCd=3170103034-00&ServiceCd=110&Type=search", "url2": null }, "geometry": { "type": "Point", "coordinates": [ 134.262468006745877, 35.485560372165821 ] } },
{ "type": "Feature", "properties": { "内容": "えがお株式会社【訪問介護】鳥取県鳥取市南吉方一丁目５８番地", "url": "https://www.kaigokensaku.mhlw.go.jp/31/index.php?action_kouhyou_detail_004_kani=true&JigyosyoCd=3170101665-00&ServiceCd=110&Type=search", "url2": "http://egao-tottori.com/" }, "geometry": { "type": "Point", "coordinates": [ 134.232089458058226, 35.489943268588114 ] } },
{ "type": "Feature", "properties": { "内容": "株式会社メディコープとっとり　ヘルパーステーションたんぽぽ【訪問介護】鳥取県鳥取市末広温泉町211番地レインボーセンター別館1Ｆ", "url": "https://www.kaigokensaku.mhlw.go.jp/31/index.php?action_kouhyou_detail_004_kani=true&JigyosyoCd=3170101897-00&ServiceCd=110&Type=search", "url2": "http://mcp.mcoop-tottori.jp/services/tampopo.html" }, "geometry": { "type": "Point", "coordinates": [ 134.230463896958923, 35.495731481252399 ] } },
{ "type": "Feature", "properties": { "内容": "一般社団法人イナバ総合福祉会【訪問介護】鳥取県鳥取市湯所町２丁目２５６番地", "url": "https://www.kaigokensaku.mhlw.go.jp/31/index.php?action_kouhyou_detail_004_kani=true&JigyosyoCd=3170102440-00&ServiceCd=110&Type=search", "url2": null }, "geometry": { "type": "Point", "coordinates": [ 134.231235952839569, 35.50932811307235 ] } },
{ "type": "Feature", "properties": { "内容": "ヘルパーステーション　まさたみの郷【訪問介護】鳥取県鳥取市杉崎５９６番地", "url": "https://www.kaigokensaku.mhlw.go.jp/31/index.php?action_kouhyou_detail_004_kani=true&JigyosyoCd=3170100758-00&ServiceCd=110&Type=search", "url2": "masatami.hs@asupiosu.or.jp" }, "geometry": { "type": "Point", "coordinates": [ 134.2481636, 35.4644758 ] } },
{ "type": "Feature", "properties": { "内容": "訪問介護ふたば【訪問介護】鳥取県鳥取市国府町稲葉丘3-303", "url": "https://www.kaigokensaku.mhlw.go.jp/31/index.php?action_kouhyou_detail_004_kani=true&JigyosyoCd=3170102390-00&ServiceCd=110&Type=search", "url2": null }, "geometry": { "type": "Point", "coordinates": [ 134.26210089999995, 35.4831431 ] } },
{ "type": "Feature", "properties": { "内容": "ヘルパーステーション　　さくら【訪問介護】鳥取県鳥取市西品治７８０番地２前田マンション１０１号", "url": "https://www.kaigokensaku.mhlw.go.jp/31/index.php?action_kouhyou_detail_004_kani=true&JigyosyoCd=3170102069-00&ServiceCd=110&Type=search", "url2": null }, "geometry": { "type": "Point", "coordinates": [ 134.222231299999976, 35.5084428 ] } },
{ "type": "Feature", "properties": { "内容": "ホームケア土屋鳥取【訪問介護】鳥取県鳥取市南安長１丁目１ー２０アーバンノベラA棟A-６", "url": "https://www.kaigokensaku.mhlw.go.jp/31/index.php?action_kouhyou_detail_004_kani=true&JigyosyoCd=3170104305-00&ServiceCd=110&Type=search", "url2": "https://tcy.co.jp/" }, "geometry": { "type": "Point", "coordinates": [ 134.2130635, 35.5041647 ] } },
{ "type": "Feature", "properties": { "内容": "ヘルパーステーションかけはし【訪問介護】鳥取県鳥取市大杙208-1", "url": "https://www.kaigokensaku.mhlw.go.jp/31/index.php?action_kouhyou_detail_004_kani=true&JigyosyoCd=3170104263-00&ServiceCd=110&Type=search", "url2": "https://you-plus.jp/" }, "geometry": { "type": "Point", "coordinates": [ 134.2476687, 35.4835597 ] } },
{ "type": "Feature", "properties": { "内容": "株式会社　鳥取介護サービス【訪問介護】鳥取県鳥取市古海707-1", "url": "https://www.kaigokensaku.mhlw.go.jp/31/index.php?action_kouhyou_detail_004_kani=true&JigyosyoCd=3170101772-00&ServiceCd=110&Type=search", "url2": "https://www.tottorikaigo.com" }, "geometry": { "type": "Point", "coordinates": [ 134.208557716332962, 35.500953669795642 ] } },
{ "type": "Feature", "properties": { "内容": "ハピネヘルパーステーション雲山【訪問介護】鳥取県鳥取市興南町１２４", "url": "https://www.kaigokensaku.mhlw.go.jp/31/index.php?action_kouhyou_detail_004_kani=true&JigyosyoCd=3170101814-00&ServiceCd=110&Type=search", "url2": null }, "geometry": { "type": "Point", "coordinates": [ 134.231839400000013, 35.4864454 ] } },
{ "type": "Feature", "properties": { "内容": "ニチイケアセンター秋里【訪問介護】鳥取県鳥取市秋里1343レジダンスフォンテーヌ103号", "url": "https://www.kaigokensaku.mhlw.go.jp/31/index.php?action_kouhyou_detail_004_kani=true&JigyosyoCd=3170103976-00&ServiceCd=110&Type=search", "url2": null }, "geometry": { "type": "Point", "coordinates": [ 134.2160859, 35.52152 ] } },
{ "type": "Feature", "properties": { "内容": "こころねヘルパーステーション幸町南【訪問介護】鳥取県鳥取市幸町９８番地シニアステージ幸町南館", "url": "https://www.kaigokensaku.mhlw.go.jp/31/index.php?action_kouhyou_detail_004_kani=true&JigyosyoCd=3170103992-00&ServiceCd=110&Type=search", "url2": "http://www.medicalcare.jp/" }, "geometry": { "type": "Point", "coordinates": [ 134.219142611045044, 35.495095413672331 ] } },
{ "type": "Feature", "properties": { "内容": "ニチイケアセンター河原【訪問介護】鳥取県鳥取市河原町袋河原２６アーネスト中央１階５号室", "url": "https://www.kaigokensaku.mhlw.go.jp/31/index.php?action_kouhyou_detail_004_kani=true&JigyosyoCd=3170102424-00&ServiceCd=110&Type=search", "url2": null }, "geometry": { "type": "Point", "coordinates": [ 134.204283300000043, 35.4192631 ] } },
{ "type": "Feature", "properties": { "内容": "訪問介護事業所鳥取北【訪問介護】鳥取県鳥取市秋里1181", "url": "https://www.kaigokensaku.mhlw.go.jp/31/index.php?action_kouhyou_detail_004_kani=true&JigyosyoCd=3170102549-00&ServiceCd=110&Type=search", "url2": "http://www.kohoen.jp/" }, "geometry": { "type": "Point", "coordinates": [ 134.214130927839506, 35.518957175049081 ] } },
{ "type": "Feature", "properties": { "内容": "訪問介護アップル【訪問介護】鳥取県鳥取市商栄町１９２", "url": "https://www.kaigokensaku.mhlw.go.jp/31/index.php?action_kouhyou_detail_004_kani=true&JigyosyoCd=3170102291-00&ServiceCd=110&Type=search", "url2": null }, "geometry": { "type": "Point", "coordinates": [ 134.2087103, 35.51624420000001 ] } },
{ "type": "Feature", "properties": { "内容": "訪問介護オ－ルデイズ【訪問介護】鳥取県鳥取市吉方温泉四丁目401", "url": "https://www.kaigokensaku.mhlw.go.jp/31/index.php?action_kouhyou_detail_004_kani=true&JigyosyoCd=3170102473-00&ServiceCd=110&Type=search", "url2": null }, "geometry": { "type": "Point", "coordinates": [ 134.238630300000068, 35.4904422 ] } },
{ "type": "Feature", "properties": { "内容": "ニチイケアセンター鳥取駅南【訪問介護】鳥取県鳥取市的場2丁目86番地1タウンアローズ86　102号", "url": "https://www.kaigokensaku.mhlw.go.jp/31/index.php?action_kouhyou_detail_004_kani=true&JigyosyoCd=3170100121-00&ServiceCd=110&Type=search", "url2": "http://www.nichiigakkan.co.jp" }, "geometry": { "type": "Point", "coordinates": [ 134.231004818303262, 35.47329423784084 ] } },
{ "type": "Feature", "properties": { "内容": "訪問介護事業所しらゆき【訪問介護】鳥取県鳥取市千代水4丁目43番地", "url": "https://www.kaigokensaku.mhlw.go.jp/31/index.php?action_kouhyou_detail_004_kani=true&JigyosyoCd=3170101418-00&ServiceCd=110&Type=search", "url2": null }, "geometry": { "type": "Point", "coordinates": [ 134.195075699999961, 35.5158244 ] } },
{ "type": "Feature", "properties": { "内容": "ニチイケアセンター鳥取東【訪問介護】鳥取県鳥取市国府町奥谷3丁目306デュエット105号", "url": "https://www.kaigokensaku.mhlw.go.jp/31/index.php?action_kouhyou_detail_004_kani=true&JigyosyoCd=3170104115-00&ServiceCd=110&Type=search", "url2": "hstbq5＠nichiigakkan.co.jp" }, "geometry": { "type": "Point", "coordinates": [ 134.261667038079764, 35.483000369420218 ] } },
{ "type": "Feature", "properties": { "内容": "鳥取福祉会訪問介護ステーション【訪問介護】鳥取県鳥取市的場２丁目１番地", "url": "https://www.kaigokensaku.mhlw.go.jp/31/index.php?action_kouhyou_detail_004_kani=true&JigyosyoCd=3170100360-00&ServiceCd=110&Type=search", "url2": "http://www.tottorifukushikai.jp" }, "geometry": { "type": "Point", "coordinates": [ 134.232161899999937, 35.4754995 ] } },
{ "type": "Feature", "properties": { "内容": "ヘルパ－ステ－ションみやこ苑【訪問介護】鳥取県鳥取市三津1072番地307", "url": "https://www.kaigokensaku.mhlw.go.jp/31/index.php?action_kouhyou_detail_004_kani=true&JigyosyoCd=3170100394-00&ServiceCd=110&Type=search", "url2": "http://www.miyakoen.jp/" }, "geometry": { "type": "Point", "coordinates": [ 134.154028700000026, 35.521642 ] } },
{ "type": "Feature", "properties": { "内容": "訪問介護事業所　はあとふる【訪問介護】鳥取県鳥取市湖山町東4丁目116番地", "url": "https://www.kaigokensaku.mhlw.go.jp/31/index.php?action_kouhyou_detail_004_kani=true&JigyosyoCd=3170101640-00&ServiceCd=110&Type=search", "url2": null }, "geometry": { "type": "Point", "coordinates": [ 134.186902006745868, 35.516863275268086 ] } },
{ "type": "Feature", "properties": { "内容": "ニチイケアセンターふせ【訪問介護】鳥取市布勢422-3", "url": "https://www.kaigokensaku.mhlw.go.jp/31/index.php?action_kouhyou_detail_004_kani=true&JigyosyoCd=3170102101-00&ServiceCd=110&Type=search", "url2": "http://www.nichiigakkan.co.jp" }, "geometry": { "type": "Point", "coordinates": [ 134.180626677415489, 35.505664159738942 ] } },
{ "type": "Feature", "properties": { "内容": "ヘルパーステーション　シェアグレイス商栄【訪問介護】鳥取県鳥取市商栄町271番地5号サービス付き高齢者向け住宅シェアグレイス商栄", "url": "https://www.kaigokensaku.mhlw.go.jp/31/index.php?action_kouhyou_detail_004_kani=true&JigyosyoCd=3170102838-00&ServiceCd=110&Type=search", "url2": null }, "geometry": { "type": "Point", "coordinates": [ 134.206091770500137, 35.51539111781991 ] } },
{ "type": "Feature", "properties": { "内容": "オパール指定訪問介護事業所【訪問介護】鳥取県鳥取市行徳三丁目３１７番地", "url": "https://www.kaigokensaku.mhlw.go.jp/31/index.php?action_kouhyou_detail_004_kani=true&JigyosyoCd=3170103711-00&ServiceCd=110&Type=search", "url2": null }, "geometry": { "type": "Point", "coordinates": [ 134.224129887781118, 35.500688453579954 ] } },
{ "type": "Feature", "properties": { "内容": "こころねヘルパーステーション幸町【訪問介護】鳥取県鳥取市幸町112番地", "url": "https://www.kaigokensaku.mhlw.go.jp/31/index.php?action_kouhyou_detail_004_kani=true&JigyosyoCd=3170103786-00&ServiceCd=110&Type=search", "url2": null }, "geometry": { "type": "Point", "coordinates": [ 134.219565467615894, 35.495708198803811 ] } },
{ "type": "Feature", "properties": { "内容": "ともいきの杜樗谿【訪問介護】鳥取県鳥取市上町19-1", "url": "https://www.kaigokensaku.mhlw.go.jp/31/index.php?action_kouhyou_detail_004_kani=true&JigyosyoCd=3170103794-00&ServiceCd=110&Type=search", "url2": null }, "geometry": { "type": "Point", "coordinates": [ 134.241493900000023, 35.4989481 ] } },
{ "type": "Feature", "properties": { "内容": "こころねヘルパーステーション南吉方【訪問介護】鳥取県鳥取市南吉方2丁目68番地1株式会社サードライフモア　シニアステージ南吉方", "url": "https://www.kaigokensaku.mhlw.go.jp/31/index.php?action_kouhyou_detail_004_kani=true&JigyosyoCd=3170104107-00&ServiceCd=110&Type=search", "url2": "http://thirdlifemore.jp/" }, "geometry": { "type": "Point", "coordinates": [ 134.234104938623034, 35.484906944186704 ] } },
{ "type": "Feature", "properties": { "内容": "けあビジョンホーム鳥取訪問介護【訪問介護】鳥取県鳥取市福部町海士526", "url": "https://www.kaigokensaku.mhlw.go.jp/31/index.php?action_kouhyou_detail_004_kani=true&JigyosyoCd=3170104248-00&ServiceCd=110&Type=search", "url2": null }, "geometry": { "type": "Point", "coordinates": [ 134.275870200000014, 35.5479971 ] } },
{ "type": "Feature", "properties": { "内容": "ヘルパーステーション　ゆくり【訪問介護】鳥取県鳥取市永楽温泉町６２２番地", "url": "https://www.kaigokensaku.mhlw.go.jp/31/index.php?action_kouhyou_detail_004_kani=true&JigyosyoCd=3170104180-00&ServiceCd=110&Type=search", "url2": "https://yukuri.asupiosu.or.jp" }, "geometry": { "type": "Point", "coordinates": [ 134.23230146256563, 35.492989994181897 ] } },
{ "type": "Feature", "properties": { "内容": "ホームヘルプひまわり鳥取【訪問介護】鳥取県鳥取市桂木784番地", "url": "https://www.kaigokensaku.mhlw.go.jp/31/index.php?action_kouhyou_detail_004_kani=true&JigyosyoCd=3170101194-00&ServiceCd=110&Type=search", "url2": "http://www.siseikai.com/" }, "geometry": { "type": "Point", "coordinates": [ 134.252588400000036, 35.458046 ] } },
{ "type": "Feature", "properties": { "内容": "訪問介護事業所エルスリー鳥取【訪問介護】卯垣5-30D-16", "url": "https://www.kaigokensaku.mhlw.go.jp/31/index.php?action_kouhyou_detail_004_kani=true&JigyosyoCd=3170103638-00&ServiceCd=110&Type=search", "url2": null }, "geometry": { "type": "Point", "coordinates": [ 134.257081505914812, 35.492505927495166 ] } },
{ "type": "Feature", "properties": { "内容": "訪問介護ステーションくろーばー【訪問介護】鳥取県鳥取市賀露町北2丁目10-23", "url": "https://www.kaigokensaku.mhlw.go.jp/31/index.php?action_kouhyou_detail_004_kani=true&JigyosyoCd=3170104255-00&ServiceCd=110&Type=search", "url2": null }, "geometry": { "type": "Point", "coordinates": [ 134.1890057, 35.533958900000016 ] } },
{ "type": "Feature", "properties": { "内容": "訪問介護事業所松のねっこ【訪問介護】鳥取県鳥取市大覚寺１７４番地１６", "url": "https://www.kaigokensaku.mhlw.go.jp/31/index.php?action_kouhyou_detail_004_kani=true&JigyosyoCd=3170103570-00&ServiceCd=110&Type=search", "url2": null }, "geometry": { "type": "Point", "coordinates": [ 134.233917199999951, 35.48047949999998 ] } },
{ "type": "Feature", "properties": { "内容": "ヘルパーステーションよろずや【訪問介護】鳥取県鳥取市浜坂4丁目2番11号1号室", "url": "https://www.kaigokensaku.mhlw.go.jp/31/index.php?action_kouhyou_detail_004_kani=true&JigyosyoCd=3170104347-00&ServiceCd=110&Type=search", "url2": "https://www.gori-yorozuya.com/" }, "geometry": { "type": "Point", "coordinates": [ 134.209193386816168, 35.530052340835518 ] } },
{ "type": "Feature", "properties": { "内容": "訪問介護ステーション　寄り添い【訪問介護】鳥取県鳥取市大杙229－16", "url": "https://www.kaigokensaku.mhlw.go.jp/31/index.php?action_kouhyou_detail_004_kani=true&JigyosyoCd=3170104040-00&ServiceCd=110&Type=search", "url2": "tomonowa‐tottori.com" }, "geometry": { "type": "Point", "coordinates": [ 134.2496136, 35.4829722 ] } },
{ "type": "Feature", "properties": { "内容": "ホームヘルプステーション暖の里【訪問介護】鳥取県鳥取市吉岡温泉町５２番地１", "url": "https://www.kaigokensaku.mhlw.go.jp/31/index.php?action_kouhyou_detail_004_kani=true&JigyosyoCd=3170100733-00&ServiceCd=110&Type=search", "url2": "http://www.dannosato.jp/" }, "geometry": { "type": "Point", "coordinates": [ 134.134051, 35.4846933 ] } },
{ "type": "Feature", "properties": { "内容": "ALKU【訪問介護】鳥取県鳥取市的場163-11西山テナント2階北", "url": "https://www.kaigokensaku.mhlw.go.jp/31/index.php?action_kouhyou_detail_004_kani=true&JigyosyoCd=3170104362-00&ServiceCd=110&Type=search", "url2": null }, "geometry": { "type": "Point", "coordinates": [ 134.2259154, 35.4787854 ] } },
{ "type": "Feature", "properties": { "内容": "株式会社smileあーさ訪問介護事業所【訪問介護】鳥取県米子市福市932", "url": "https://www.kaigokensaku.mhlw.go.jp/31/index.php?action_kouhyou_detail_004_kani=true&JigyosyoCd=3170203180-00&ServiceCd=110&Type=search", "url2": "http://hp.kaipoke.biz/4x9/" }, "geometry": { "type": "Point", "coordinates": [ 133.36429050000001, 35.4070509 ] } },
{ "type": "Feature", "properties": { "内容": "けあビジョンホーム米子上後藤【訪問介護】鳥取県米子市上後藤５丁目7-15", "url": "https://www.kaigokensaku.mhlw.go.jp/31/index.php?action_kouhyou_detail_004_kani=true&JigyosyoCd=3170203289-00&ServiceCd=110&Type=search", "url2": null }, "geometry": { "type": "Point", "coordinates": [ 133.315921800000012, 35.4463885 ] } },
{ "type": "Feature", "properties": { "内容": "ヘルパーステーションりんどうの郷【訪問介護】鳥取県米子市灘町1丁目102番地", "url": "https://www.kaigokensaku.mhlw.go.jp/31/index.php?action_kouhyou_detail_004_kani=true&JigyosyoCd=3170202927-00&ServiceCd=110&Type=search", "url2": "http//www.rindounosato.com" }, "geometry": { "type": "Point", "coordinates": [ 133.322356303704851, 35.433406911705994 ] } },
{ "type": "Feature", "properties": { "内容": "ハピネヘルパーステーションハッピー米子【訪問介護】鳥取県米子市米原7-2-18", "url": "https://www.kaigokensaku.mhlw.go.jp/31/index.php?action_kouhyou_detail_004_kani=true&JigyosyoCd=3170202802-00&ServiceCd=110&Type=search", "url2": null }, "geometry": { "type": "Point", "coordinates": [ 133.330051150147483, 35.445570237214369 ] } },
{ "type": "Feature", "properties": { "内容": "ヘルパーステーションつなぐ手【訪問介護】米子市西福原8丁目6-39", "url": "https://www.kaigokensaku.mhlw.go.jp/31/index.php?action_kouhyou_detail_004_kani=true&JigyosyoCd=3170203099-00&ServiceCd=110&Type=search", "url2": "www.tunagu-te.jp" }, "geometry": { "type": "Point", "coordinates": [ 133.3398951, 35.4525381 ] } },
{ "type": "Feature", "properties": { "内容": "ヘルパーステーションよつば【訪問介護】鳥取県米子市上福原5丁目1番16号", "url": "https://www.kaigokensaku.mhlw.go.jp/31/index.php?action_kouhyou_detail_004_kani=true&JigyosyoCd=3170202778-00&ServiceCd=110&Type=search", "url2": null }, "geometry": { "type": "Point", "coordinates": [ 133.351248599999963, 35.447551 ] } },
{ "type": "Feature", "properties": { "内容": "ヘルパーステーションおおたか【訪問介護】鳥取県米子市尾高1812メディケアコートにじの里おおたか", "url": "https://www.kaigokensaku.mhlw.go.jp/31/index.php?action_kouhyou_detail_004_kani=true&JigyosyoCd=3170202661-00&ServiceCd=110&Type=search", "url2": "http://www.ymc-net.or.jp" }, "geometry": { "type": "Point", "coordinates": [ 133.406633432371507, 35.424129017714343 ] } },
{ "type": "Feature", "properties": { "内容": "こころね訪問介護ステーション米原【訪問介護】鳥取県米子市米原7丁目2-9シニアステージ米原", "url": "https://www.kaigokensaku.mhlw.go.jp/31/index.php?action_kouhyou_detail_004_kani=true&JigyosyoCd=3170203222-00&ServiceCd=110&Type=search", "url2": null }, "geometry": { "type": "Point", "coordinates": [ 133.330837308073455, 35.44503227913485 ] } },
{ "type": "Feature", "properties": { "内容": "こころね訪問介護ステーション西福原【訪問介護】鳥取県米子市西福原5丁目５番33号", "url": "https://www.kaigokensaku.mhlw.go.jp/31/index.php?action_kouhyou_detail_004_kani=true&JigyosyoCd=3170203230-00&ServiceCd=110&Type=search", "url2": null }, "geometry": { "type": "Point", "coordinates": [ 133.3392728, 35.4469724 ] } },
{ "type": "Feature", "properties": { "内容": "訪問介護事業所よなご幸朋苑【訪問介護】鳥取県米子市両三柳１４００アザレアコートこうほうえん", "url": "https://www.kaigokensaku.mhlw.go.jp/31/index.php?action_kouhyou_detail_004_kani=true&JigyosyoCd=3170200012-00&ServiceCd=110&Type=search", "url2": "http://www.kohoen.jp" }, "geometry": { "type": "Point", "coordinates": [ 133.316172649984765, 35.449950245891394 ] } },
{ "type": "Feature", "properties": { "内容": "ヘルパーステーションまちくら【訪問介護】鳥取県米子市西倉吉町83番地3", "url": "https://www.kaigokensaku.mhlw.go.jp/31/index.php?action_kouhyou_detail_004_kani=true&JigyosyoCd=3170200350-00&ServiceCd=110&Type=search", "url2": "http://www.machikura.com" }, "geometry": { "type": "Point", "coordinates": [ 133.329689586403418, 35.430444805973842 ] } },
{ "type": "Feature", "properties": { "内容": "あいわ訪問介護ステーション・米子【訪問介護】鳥取県米子市西福原６－１８－１１", "url": "https://www.kaigokensaku.mhlw.go.jp/31/index.php?action_kouhyou_detail_004_kani=true&JigyosyoCd=3170202554-00&ServiceCd=110&Type=search", "url2": null }, "geometry": { "type": "Point", "coordinates": [ 133.341971199999989, 35.4481979 ] } },
{ "type": "Feature", "properties": { "内容": "いきいきヘルパーステーション灘町【訪問介護】鳥取県米子市灘町3丁目76いきいシニアステージ灘町", "url": "https://www.kaigokensaku.mhlw.go.jp/31/index.php?action_kouhyou_detail_004_kani=true&JigyosyoCd=3170202257-00&ServiceCd=110&Type=search", "url2": "http://www.medicalcare.jp/" }, "geometry": { "type": "Point", "coordinates": [ 133.324078, 35.4363373 ] } },
{ "type": "Feature", "properties": { "内容": "ニチイケアセンター米子【訪問介護】鳥取県米子市加茂町2-113　加茂町ビル2F", "url": "https://www.kaigokensaku.mhlw.go.jp/31/index.php?action_kouhyou_detail_004_kani=true&JigyosyoCd=3170200269-00&ServiceCd=110&Type=search", "url2": null }, "geometry": { "type": "Point", "coordinates": [ 133.330937100000028, 35.4272063 ] } },
{ "type": "Feature", "properties": { "内容": "訪問介護弓浜真誠会【訪問介護】鳥取県米子市河崎580", "url": "https://www.kaigokensaku.mhlw.go.jp/31/index.php?action_kouhyou_detail_004_kani=true&JigyosyoCd=3170200459-00&ServiceCd=110&Type=search", "url2": "http://www.hospitown.or.jp/" }, "geometry": { "type": "Point", "coordinates": [ 133.3110285, 35.457018700000035 ] } },
{ "type": "Feature", "properties": { "内容": "ニチイケアセンター米子東【訪問介護】鳥取県米子市上福原3丁目8番1号あさひビル1Ｆ　Ｃ事務所", "url": "https://www.kaigokensaku.mhlw.go.jp/31/index.php?action_kouhyou_detail_004_kani=true&JigyosyoCd=3170201259-00&ServiceCd=110&Type=search", "url2": null }, "geometry": { "type": "Point", "coordinates": [ 133.3536484, 35.4398851 ] } },
{ "type": "Feature", "properties": { "内容": "ケアステーションつつじ【訪問介護】鳥取県米子市米原６丁目９番２３号米子ヘルスケアつつじ", "url": "https://www.kaigokensaku.mhlw.go.jp/31/index.php?action_kouhyou_detail_004_kani=true&JigyosyoCd=3170202315-00&ServiceCd=110&Type=search", "url2": "http://www.nissyoukai.com/" }, "geometry": { "type": "Point", "coordinates": [ 133.334710500000028, 35.4446396 ] } },
{ "type": "Feature", "properties": { "内容": "こころね訪問介護ステーション観音寺新町【訪問介護】鳥取県米子市観音寺新町4-6-20シニアステージ観音寺新町", "url": "https://www.kaigokensaku.mhlw.go.jp/31/index.php?action_kouhyou_detail_004_kani=true&JigyosyoCd=3170202901-00&ServiceCd=110&Type=search", "url2": null }, "geometry": { "type": "Point", "coordinates": [ 133.360992, 35.4241699 ] } },
{ "type": "Feature", "properties": { "内容": "ニチイケアセンター両三柳【訪問介護】鳥取県米子市両三柳323-1大共ビル2Ｆ", "url": "https://www.kaigokensaku.mhlw.go.jp/31/index.php?action_kouhyou_detail_004_kani=true&JigyosyoCd=3170203040-00&ServiceCd=110&Type=search", "url2": null }, "geometry": { "type": "Point", "coordinates": [ 133.322543399999972, 35.4495969 ] } },
{ "type": "Feature", "properties": { "内容": "こころね訪問介護ステーション東福原【訪問介護】鳥取県米子市東福原3-9-1シニアステージ東福原", "url": "https://www.kaigokensaku.mhlw.go.jp/31/index.php?action_kouhyou_detail_004_kani=true&JigyosyoCd=3170203065-00&ServiceCd=110&Type=search", "url2": null }, "geometry": { "type": "Point", "coordinates": [ 133.3460045, 35.4421744 ] } },
{ "type": "Feature", "properties": { "内容": "訪問介護事業所なんぶ幸朋苑【訪問介護】鳥取県米子市石井1238", "url": "https://www.kaigokensaku.mhlw.go.jp/31/index.php?action_kouhyou_detail_004_kani=true&JigyosyoCd=3150280174-00&ServiceCd=110&Type=search", "url2": "http//www.kohoen.jp" }, "geometry": { "type": "Point", "coordinates": [ 133.35145250000005, 35.4022552 ] } },
{ "type": "Feature", "properties": { "内容": "ケアサービス米子訪問介護事業所【訪問介護】鳥取県米子市両三柳２６７", "url": "https://www.kaigokensaku.mhlw.go.jp/31/index.php?action_kouhyou_detail_004_kani=true&JigyosyoCd=3170200020-00&ServiceCd=110&Type=search", "url2": "http://www.careservice-yonago.ecnet.jp/" }, "geometry": { "type": "Point", "coordinates": [ 133.323547100000042, 35.4478918 ] } },
{ "type": "Feature", "properties": { "内容": "ライブアシスト訪問介護事業所【訪問介護】鳥取県米子市長砂町300-3", "url": "https://www.kaigokensaku.mhlw.go.jp/31/index.php?action_kouhyou_detail_004_kani=true&JigyosyoCd=3170201754-00&ServiceCd=110&Type=search", "url2": "http://y-liveassist.com" }, "geometry": { "type": "Point", "coordinates": [ 133.352838507006823, 35.422654650031525 ] } },
{ "type": "Feature", "properties": { "内容": "いきいきヘルパーステーション上後藤【訪問介護】鳥取県米子市上後藤4丁目16番1号いきいきシニアステージ上後藤", "url": "https://www.kaigokensaku.mhlw.go.jp/31/index.php?action_kouhyou_detail_004_kani=true&JigyosyoCd=3170202422-00&ServiceCd=110&Type=search", "url2": null }, "geometry": { "type": "Point", "coordinates": [ 133.317783800000029, 35.44527530000002 ] } },
{ "type": "Feature", "properties": { "内容": "いきいきヘルパーステーション西福原【訪問介護】鳥取県米子市西福原5丁目6番３９号いきいきシニアステージ福米", "url": "https://www.kaigokensaku.mhlw.go.jp/31/index.php?action_kouhyou_detail_004_kani=true&JigyosyoCd=3170202638-00&ServiceCd=110&Type=search", "url2": "http://www.medicalcare.jp/" }, "geometry": { "type": "Point", "coordinates": [ 133.340388, 35.4464785 ] } },
{ "type": "Feature", "properties": { "内容": "こころね訪問介護ステーション錦町【訪問介護】米原1丁目1-1シニアステージ錦町", "url": "https://www.kaigokensaku.mhlw.go.jp/31/index.php?action_kouhyou_detail_004_kani=true&JigyosyoCd=3170203016-00&ServiceCd=110&Type=search", "url2": null }, "geometry": { "type": "Point", "coordinates": [ 133.329918600000042, 35.4402568 ] } },
{ "type": "Feature", "properties": { "内容": "ニチイケアセンターみのかや【訪問介護】二本木1124-1", "url": "https://www.kaigokensaku.mhlw.go.jp/31/index.php?action_kouhyou_detail_004_kani=true&JigyosyoCd=3170203057-00&ServiceCd=110&Type=search", "url2": null }, "geometry": { "type": "Point", "coordinates": [ 133.389427500000039, 35.441595700000015 ] } },
{ "type": "Feature", "properties": { "内容": "ホームヘルパー孫の手【訪問介護】鳥取県米子市両三柳825あらかると孫の手２F", "url": "https://www.kaigokensaku.mhlw.go.jp/31/index.php?action_kouhyou_detail_004_kani=true&JigyosyoCd=3170400059-00&ServiceCd=110&Type=search", "url2": "http://www.t-a-d.jp/" }, "geometry": { "type": "Point", "coordinates": [ 133.316475399999945, 35.4521664 ] } },
{ "type": "Feature", "properties": { "内容": "有限会社　新生ケア・サービス　訪問介護事業所【訪問介護】鳥取県米子市熊党200-1", "url": "https://www.kaigokensaku.mhlw.go.jp/31/index.php?action_kouhyou_detail_004_kani=true&JigyosyoCd=3170200087-00&ServiceCd=110&Type=search", "url2": "https://www.shinsei-care-service.com/" }, "geometry": { "type": "Point", "coordinates": [ 133.3758, 35.4291973 ] } },
{ "type": "Feature", "properties": { "内容": "ヘルパーステーション博愛【訪問介護】鳥取県米子市両三柳1880", "url": "https://www.kaigokensaku.mhlw.go.jp/31/index.php?action_kouhyou_detail_004_kani=true&JigyosyoCd=3170200335-00&ServiceCd=110&Type=search", "url2": "https://hakuai.doaikai.jp" }, "geometry": { "type": "Point", "coordinates": [ 133.31927989999997, 35.4553949 ] } },
{ "type": "Feature", "properties": { "内容": "訪問介護仁風荘こうやまち【訪問介護】鳥取県米子市紺屋町104-2", "url": "https://www.kaigokensaku.mhlw.go.jp/31/index.php?action_kouhyou_detail_004_kani=true&JigyosyoCd=3170202133-00&ServiceCd=110&Type=search", "url2": "http://www.yowakai.com/" }, "geometry": { "type": "Point", "coordinates": [ 133.334611099999961, 35.4289134 ] } },
{ "type": "Feature", "properties": { "内容": "訪問介護ステーション　ガーデンハウスよどえ【訪問介護】鳥取県米子市淀江町佐陀1423", "url": "https://www.kaigokensaku.mhlw.go.jp/31/index.php?action_kouhyou_detail_004_kani=true&JigyosyoCd=3170202281-00&ServiceCd=110&Type=search", "url2": "https://www.med-wel.jp/gardenyodoe/" }, "geometry": { "type": "Point", "coordinates": [ 133.393811899999946, 35.4519341 ] } },
{ "type": "Feature", "properties": { "内容": "ヘルパーステーションオルカ【訪問介護】鳥取県米子市熊党181-2", "url": "https://www.kaigokensaku.mhlw.go.jp/31/index.php?action_kouhyou_detail_004_kani=true&JigyosyoCd=3170202760-00&ServiceCd=110&Type=search", "url2": "http://www.loh.co.jp/" }, "geometry": { "type": "Point", "coordinates": [ 133.377074247607425, 35.428924031134478 ] } },
{ "type": "Feature", "properties": { "内容": "ニチイケアセンターながえ【訪問介護】鳥取県米子市永江560番地セゾン青山203号室", "url": "https://www.kaigokensaku.mhlw.go.jp/31/index.php?action_kouhyou_detail_004_kani=true&JigyosyoCd=3170203149-00&ServiceCd=110&Type=search", "url2": null }, "geometry": { "type": "Point", "coordinates": [ 133.369379199999969, 35.3961975 ] } },
{ "type": "Feature", "properties": { "内容": "エルルのホームヘルパー【訪問介護】鳥取県米子市両三柳206-1", "url": "https://www.kaigokensaku.mhlw.go.jp/31/index.php?action_kouhyou_detail_004_kani=true&JigyosyoCd=3170202141-00&ServiceCd=110&Type=search", "url2": "http://elfith.com/" }, "geometry": { "type": "Point", "coordinates": [ 133.327061959138518, 35.448323051502314 ] } },
{ "type": "Feature", "properties": { "内容": "訪問介護ゆめ【訪問介護】鳥取県米子市角盤町1丁目14", "url": "https://www.kaigokensaku.mhlw.go.jp/31/index.php?action_kouhyou_detail_004_kani=true&JigyosyoCd=3170200319-00&ServiceCd=110&Type=search", "url2": null }, "geometry": { "type": "Point", "coordinates": [ 133.334930399999962, 35.4307382 ] } },
{ "type": "Feature", "properties": { "内容": "メディカルヘルパーステーション【訪問介護】西町90", "url": "https://www.kaigokensaku.mhlw.go.jp/31/index.php?action_kouhyou_detail_004_kani=true&JigyosyoCd=3170202711-00&ServiceCd=110&Type=search", "url2": "http://my-nurse.jp/" }, "geometry": { "type": "Point", "coordinates": [ 133.327114950927609, 35.429663355995643 ] } },
{ "type": "Feature", "properties": { "内容": "もえぎケアセンター訪問介護事業所【訪問介護】鳥取県米子市両三柳5293レックハウスヴォアリエ102号", "url": "https://www.kaigokensaku.mhlw.go.jp/31/index.php?action_kouhyou_detail_004_kani=true&JigyosyoCd=3170400448-00&ServiceCd=110&Type=search", "url2": null }, "geometry": { "type": "Point", "coordinates": [ 133.315336299999984, 35.4636068 ] } },
{ "type": "Feature", "properties": { "内容": "いきいきヘルパーステーション【訪問介護】鳥取県米子市彦名町８番地１", "url": "https://www.kaigokensaku.mhlw.go.jp/31/index.php?action_kouhyou_detail_004_kani=true&JigyosyoCd=3170201762-00&ServiceCd=110&Type=search", "url2": "http://www.medicalcare.jp/" }, "geometry": { "type": "Point", "coordinates": [ 133.303993499999933, 35.4420812 ] } },
{ "type": "Feature", "properties": { "内容": "ヘルパーステーション　ウィズ【訪問介護】鳥取県米子市花園町108-4", "url": "https://www.kaigokensaku.mhlw.go.jp/31/index.php?action_kouhyou_detail_004_kani=true&JigyosyoCd=3170203115-00&ServiceCd=110&Type=search", "url2": null }, "geometry": { "type": "Point", "coordinates": [ 133.320892635686789, 35.435993668882929 ] } },
{ "type": "Feature", "properties": { "内容": "ヘルパーステーション蔵まち【訪問介護】鳥取県倉吉市東巌城町219番地", "url": "https://www.kaigokensaku.mhlw.go.jp/31/index.php?action_kouhyou_detail_004_kani=true&JigyosyoCd=3170300390-00&ServiceCd=110&Type=search", "url2": "http://www.machikura.com" }, "geometry": { "type": "Point", "coordinates": [ 133.842087244488511, 35.438959790288521 ] } },
{ "type": "Feature", "properties": { "内容": "訪問介護ステーションあげい【訪問介護】鳥取県倉吉市上井町1丁目13谷口病院3階", "url": "https://www.kaigokensaku.mhlw.go.jp/31/index.php?action_kouhyou_detail_004_kani=true&JigyosyoCd=3170300952-00&ServiceCd=110&Type=search", "url2": "http://www.seiseikai.jp" }, "geometry": { "type": "Point", "coordinates": [ 133.850417134777445, 35.451484109420953 ] } },
{ "type": "Feature", "properties": { "内容": "ニチイケアセンター倉吉【訪問介護】鳥取県倉吉市東巌城町120-1プライムスクエアビル1Ｆ", "url": "https://www.kaigokensaku.mhlw.go.jp/31/index.php?action_kouhyou_detail_004_kani=true&JigyosyoCd=3170300135-00&ServiceCd=110&Type=search", "url2": null }, "geometry": { "type": "Point", "coordinates": [ 133.843604, 35.438676 ] } },
{ "type": "Feature", "properties": { "内容": "野島病院【訪問介護】鳥取県倉吉市瀬崎町2714-1", "url": "https://www.kaigokensaku.mhlw.go.jp/31/index.php?action_kouhyou_detail_004_kani=true&JigyosyoCd=3110310277-00&ServiceCd=110&Type=search", "url2": "https://nojima-hospital.jp/publics/index/191/" }, "geometry": { "type": "Point", "coordinates": [ 133.819186599999966, 35.4314068 ] } },
{ "type": "Feature", "properties": { "内容": "訪問介護のぞみ【訪問介護】鳥取県倉吉市下余戸１６１－１", "url": "https://www.kaigokensaku.mhlw.go.jp/31/index.php?action_kouhyou_detail_004_kani=true&JigyosyoCd=3170300820-00&ServiceCd=110&Type=search", "url2": "https://www.nagomikikaku.net" }, "geometry": { "type": "Point", "coordinates": [ 133.849525535581989, 35.436870044837043 ] } },
{ "type": "Feature", "properties": { "内容": "（施設）地域ケアセンターマグノリア　　（事業所）ホームヘルプセンターマグノリア【訪問介護】鳥取県倉吉市上井町１丁目２番１", "url": "https://www.kaigokensaku.mhlw.go.jp/31/index.php?action_kouhyou_detail_004_kani=true&JigyosyoCd=3170300085-00&ServiceCd=110&Type=search", "url2": "https://www.med-wel.jp/" }, "geometry": { "type": "Point", "coordinates": [ 133.852544500000022, 35.4524498 ] } },
{ "type": "Feature", "properties": { "内容": "ホームヘルパーステーション　せいわ【訪問介護】鳥取県倉吉市上井300番地ケアハウスうつぶき", "url": "https://www.kaigokensaku.mhlw.go.jp/31/index.php?action_kouhyou_detail_004_kani=true&JigyosyoCd=3170300309-00&ServiceCd=110&Type=search", "url2": "https://www.utsubuki.com/blank-4" }, "geometry": { "type": "Point", "coordinates": [ 133.846078873016381, 35.454405678935963 ] } },
{ "type": "Feature", "properties": { "内容": "ヘルパーステーションこもれび【訪問介護】鳥取県倉吉市福守町492-1", "url": "https://www.kaigokensaku.mhlw.go.jp/31/index.php?action_kouhyou_detail_004_kani=true&JigyosyoCd=3170300853-00&ServiceCd=110&Type=search", "url2": "https://www.minorifukusikai.com/" }, "geometry": { "type": "Point", "coordinates": [ 133.805718699999943, 35.434681 ] } },
{ "type": "Feature", "properties": { "内容": "こころねヘルパーステーション【訪問介護】鳥取県倉吉市伊木２１７番地シニアステージ上井内", "url": "https://www.kaigokensaku.mhlw.go.jp/31/index.php?action_kouhyou_detail_004_kani=true&JigyosyoCd=3170301000-00&ServiceCd=110&Type=search", "url2": "www.medicalcare.jp" }, "geometry": { "type": "Point", "coordinates": [ 133.848719800000026, 35.447305800000045 ] } },
{ "type": "Feature", "properties": { "内容": "ケアステーションはるかぜ【訪問介護】鳥取県倉吉市福庭町１丁目２２５番地", "url": "https://www.kaigokensaku.mhlw.go.jp/31/index.php?action_kouhyou_detail_004_kani=true&JigyosyoCd=3170301075-00&ServiceCd=110&Type=search", "url2": null }, "geometry": { "type": "Point", "coordinates": [ 133.8490353, 35.4686188 ] } },
{ "type": "Feature", "properties": { "内容": "ホームヘルプひまわり昭和町【訪問介護】鳥取県倉吉市伊木215-3", "url": "https://www.kaigokensaku.mhlw.go.jp/31/index.php?action_kouhyou_detail_004_kani=true&JigyosyoCd=3170300333-00&ServiceCd=110&Type=search", "url2": "http://www.siseikai.com/" }, "geometry": { "type": "Point", "coordinates": [ 133.84989748867909, 35.447502800617016 ] } },
{ "type": "Feature", "properties": { "内容": "けあビジョンホーム境港訪問介護【訪問介護】外江町2225-1", "url": "https://www.kaigokensaku.mhlw.go.jp/31/index.php?action_kouhyou_detail_004_kani=true&JigyosyoCd=3170400489-00&ServiceCd=110&Type=search", "url2": null }, "geometry": { "type": "Point", "coordinates": [ 133.2110307, 35.5303716 ] } },
{ "type": "Feature", "properties": { "内容": "こころね訪問介護ステーション中野町別館【訪問介護】鳥取県境港市中野町5311シニアステージ中野町別館", "url": "https://www.kaigokensaku.mhlw.go.jp/31/index.php?action_kouhyou_detail_004_kani=true&JigyosyoCd=3170400471-00&ServiceCd=110&Type=search", "url2": null }, "geometry": { "type": "Point", "coordinates": [ 133.2364315, 35.5325353 ] } },
{ "type": "Feature", "properties": { "内容": "訪問介護事業所　さかい幸朋苑【訪問介護】鳥取県境港市誠道町2083番地", "url": "https://www.kaigokensaku.mhlw.go.jp/31/index.php?action_kouhyou_detail_004_kani=true&JigyosyoCd=3170400018-00&ServiceCd=110&Type=search", "url2": "http://www.kohoen.jp" }, "geometry": { "type": "Point", "coordinates": [ 133.23531980000007, 35.5185576 ] } },
{ "type": "Feature", "properties": { "内容": "いきいきヘルパーステーション境港【訪問介護】鳥取県境港市馬場埼町３１２いきいきシニアステージ境港", "url": "https://www.kaigokensaku.mhlw.go.jp/31/index.php?action_kouhyou_detail_004_kani=true&JigyosyoCd=3170400307-00&ServiceCd=110&Type=search", "url2": "http://www.medicalcare.jp/" }, "geometry": { "type": "Point", "coordinates": [ 133.22895589999996, 35.5387639 ] } },
{ "type": "Feature", "properties": { "内容": "訪問介護事業所境港すずかけの樹【訪問介護】鳥取県境港市清水町761番地1", "url": "https://www.kaigokensaku.mhlw.go.jp/31/index.php?action_kouhyou_detail_004_kani=true&JigyosyoCd=3170400331-00&ServiceCd=110&Type=search", "url2": null }, "geometry": { "type": "Point", "coordinates": [ 133.217164799999978, 35.5403719 ] } },
{ "type": "Feature", "properties": { "内容": "こころね訪問介護ステーション中野町【訪問介護】鳥取県境港市中野町5285-1シニアステージ中野町", "url": "https://www.kaigokensaku.mhlw.go.jp/31/index.php?action_kouhyou_detail_004_kani=true&JigyosyoCd=3170400422-00&ServiceCd=110&Type=search", "url2": null }, "geometry": { "type": "Point", "coordinates": [ 133.2322522, 35.5326736 ] } },
{ "type": "Feature", "properties": { "内容": "鳥取県済生会ホームヘルプステーション白鴎【訪問介護】鳥取県境港市蓮池町78-1", "url": "https://www.kaigokensaku.mhlw.go.jp/31/index.php?action_kouhyou_detail_004_kani=true&JigyosyoCd=3170400075-00&ServiceCd=110&Type=search", "url2": "http://www.sakaiminato-saiseikai.jp" }, "geometry": { "type": "Point", "coordinates": [ 133.223675599999979, 35.5394111 ] } },
{ "type": "Feature", "properties": { "内容": "こころね訪問介護ステーション浜ノ町【訪問介護】鳥取県境港市浜ノ町62-1シニアステージ浜ノ町", "url": "https://www.kaigokensaku.mhlw.go.jp/31/index.php?action_kouhyou_detail_004_kani=true&JigyosyoCd=3170400430-00&ServiceCd=110&Type=search", "url2": "https://region-design.co.jp/" }, "geometry": { "type": "Point", "coordinates": [ 133.222309599999988, 35.5427268 ] } },
{ "type": "Feature", "properties": { "内容": "こころね訪問介護ステーション上道町【訪問介護】鳥取県境港市上道町2052-1シニアステージ上道町", "url": "https://www.kaigokensaku.mhlw.go.jp/31/index.php?action_kouhyou_detail_004_kani=true&JigyosyoCd=3170400463-00&ServiceCd=110&Type=search", "url2": null }, "geometry": { "type": "Point", "coordinates": [ 133.239180299999987, 35.5420476 ] } },
{ "type": "Feature", "properties": { "内容": "ファミリー・ケア【訪問介護】鳥取県境港市財ノ木町1060番地3", "url": "https://www.kaigokensaku.mhlw.go.jp/31/index.php?action_kouhyou_detail_004_kani=true&JigyosyoCd=3170400083-00&ServiceCd=110&Type=search", "url2": "https://www.daito-family.com/company" }, "geometry": { "type": "Point", "coordinates": [ 133.249193800000057, 35.5029068 ] } },
{ "type": "Feature", "properties": { "内容": "社会福祉法人　岩美町社会福祉協議会　訪問介護事業所【訪問介護】鳥取県岩美郡岩美町大字浦富６４５番地", "url": "https://www.kaigokensaku.mhlw.go.jp/31/index.php?action_kouhyou_detail_004_kani=true&JigyosyoCd=3171100021-00&ServiceCd=110&Type=search", "url2": "https://iwamishakyo.wixsite.com/shakyo" }, "geometry": { "type": "Point", "coordinates": [ 134.331345100000021, 35.5792757 ] } },
{ "type": "Feature", "properties": { "内容": "ほのぼのホームヘルパーステーション【訪問介護】鳥取県八頭郡智頭町大字智頭1875番地", "url": "https://www.kaigokensaku.mhlw.go.jp/31/index.php?action_kouhyou_detail_004_kani=true&JigyosyoCd=3171200391-00&ServiceCd=110&Type=search", "url2": "http://chizushakyo.jp" }, "geometry": { "type": "Point", "coordinates": [ 134.2243517, 35.263275399999984 ] } },
{ "type": "Feature", "properties": { "内容": "訪問介護事業所すこやか【訪問介護】鳥取県八頭郡八頭町宮谷１２３番地", "url": "https://www.kaigokensaku.mhlw.go.jp/31/index.php?action_kouhyou_detail_004_kani=true&JigyosyoCd=3151280215-00&ServiceCd=110&Type=search", "url2": "https://swc-yazu.studio.site/" }, "geometry": { "type": "Point", "coordinates": [ 134.258492, 35.4138208 ] } },
{ "type": "Feature", "properties": { "内容": "社会福祉法人　八頭町社会福祉協議会　本所【訪問介護】鳥取県八頭郡八頭町宮谷254番地１", "url": "https://www.kaigokensaku.mhlw.go.jp/31/index.php?action_kouhyou_detail_004_kani=true&JigyosyoCd=3171200359-00&ServiceCd=110&Type=search", "url2": "https://yazu-syakyo.or.jp/" }, "geometry": { "type": "Point", "coordinates": [ 134.255287605345927, 35.418408699157368 ] } },
{ "type": "Feature", "properties": { "内容": "社会福祉法人　三朝町社会福祉協議会　基準該当訪問介護事業所【訪問介護】鳥取県東伯郡三朝町大字横手50番地の4", "url": "https://www.kaigokensaku.mhlw.go.jp/31/index.php?action_kouhyou_detail_004_kani=true&JigyosyoCd=3181400031-00&ServiceCd=110&Type=search", "url2": "www.misasa-syakyo.or.jp" }, "geometry": { "type": "Point", "coordinates": [ 133.882598300000012, 35.4117376 ] } },
{ "type": "Feature", "properties": { "内容": "ニチイケアセンターゆりはま【訪問介護】鳥取県東伯郡湯梨浜町上浅津385-7上浅津湯村店舗1階101号室", "url": "https://www.kaigokensaku.mhlw.go.jp/31/index.php?action_kouhyou_detail_004_kani=true&JigyosyoCd=3171401015-00&ServiceCd=110&Type=search", "url2": "https://www.nichiigakkan.co.jp/" }, "geometry": { "type": "Point", "coordinates": [ 133.877069971200967, 35.481780666932394 ] } },
{ "type": "Feature", "properties": { "内容": "ヘルパーステーションゆりはま【訪問介護】鳥取県東伯郡湯梨浜町田後224－1シニアコートゆりはま内", "url": "https://www.kaigokensaku.mhlw.go.jp/31/index.php?action_kouhyou_detail_004_kani=true&JigyosyoCd=3171400876-00&ServiceCd=110&Type=search", "url2": "https://www.lifecare-y.jp/" }, "geometry": { "type": "Point", "coordinates": [ 133.856899876721144, 35.484274289803146 ] } },
{ "type": "Feature", "properties": { "内容": "ヘルパーステーションことうら【訪問介護】鳥取県東伯郡琴浦町箆津245番地1", "url": "https://www.kaigokensaku.mhlw.go.jp/31/index.php?action_kouhyou_detail_004_kani=true&JigyosyoCd=3171401031-00&ServiceCd=110&Type=search", "url2": null }, "geometry": { "type": "Point", "coordinates": [ 133.617072900000011, 35.515187400000023 ] } },
{ "type": "Feature", "properties": { "内容": "百寿苑ホームヘルパーセンター【訪問介護】鳥取県東伯郡琴浦町赤碕1060番地25", "url": "https://www.kaigokensaku.mhlw.go.jp/31/index.php?action_kouhyou_detail_004_kani=true&JigyosyoCd=3171400041-00&ServiceCd=110&Type=search", "url2": "www.hyakujyuen.jp" }, "geometry": { "type": "Point", "coordinates": [ 133.631892938028699, 35.517157074335366 ] } },
{ "type": "Feature", "properties": { "内容": "ニチイケアセンター大栄【訪問介護】鳥取県東伯郡北栄町西園506-1", "url": "https://www.kaigokensaku.mhlw.go.jp/31/index.php?action_kouhyou_detail_004_kani=true&JigyosyoCd=3171400520-00&ServiceCd=110&Type=search", "url2": "http://www.nichiigakkan.co.jp" }, "geometry": { "type": "Point", "coordinates": [ 133.7658017, 35.4888385 ] } },
{ "type": "Feature", "properties": { "内容": "株式会社べるびゅー大栄【訪問介護】鳥取県東伯郡北栄町六尾２００５", "url": "https://www.kaigokensaku.mhlw.go.jp/31/index.php?action_kouhyou_detail_004_kani=true&JigyosyoCd=3171400488-00&ServiceCd=110&Type=search", "url2": null }, "geometry": { "type": "Point", "coordinates": [ 133.760806922753886, 35.480984204972223 ] } },
{ "type": "Feature", "properties": { "内容": "大山町社会福祉協議会訪問介護だいせん【訪問介護】鳥取県西伯郡大山町末長５０３番地大山町保健福祉センターだいせん", "url": "https://www.kaigokensaku.mhlw.go.jp/31/index.php?action_kouhyou_detail_004_kani=true&JigyosyoCd=3171500675-00&ServiceCd=110&Type=search", "url2": null }, "geometry": { "type": "Point", "coordinates": [ 133.459334300000023, 35.4810624 ] } },
{ "type": "Feature", "properties": { "内容": "医療法人　佐々木医院【訪問介護】鳥取県西伯郡大山町田中1383介護老人保健施設はまなす内", "url": "https://www.kaigokensaku.mhlw.go.jp/31/index.php?action_kouhyou_detail_004_kani=true&JigyosyoCd=3111510453-00&ServiceCd=110&Type=search", "url2": "sasakicl.jp" }, "geometry": { "type": "Point", "coordinates": [ 133.588916700000027, 35.5200274 ] } },
{ "type": "Feature", "properties": { "内容": "ばんだの里訪問介護事業所【訪問介護】鳥取県西伯郡大山町安原1119", "url": "https://www.kaigokensaku.mhlw.go.jp/31/index.php?action_kouhyou_detail_004_kani=true&JigyosyoCd=3171500402-00&ServiceCd=110&Type=search", "url2": null }, "geometry": { "type": "Point", "coordinates": [ 133.441350300000067, 35.4671577 ] } },
{ "type": "Feature", "properties": { "内容": "ホームヘルパーセンター玉真園【訪問介護】鳥取県西伯郡大山町大塚７１７番地軽費老人ホーム玉真園", "url": "https://www.kaigokensaku.mhlw.go.jp/31/index.php?action_kouhyou_detail_004_kani=true&JigyosyoCd=3171500881-00&ServiceCd=110&Type=search", "url2": "http://gyokushinen.com/heisetu/" }, "geometry": { "type": "Point", "coordinates": [ 134.237735599999951, 35.5038906 ] } },
{ "type": "Feature", "properties": { "内容": "サポートセンターなごみ【訪問介護】鳥取県西伯郡南部町福成742-3", "url": "https://www.kaigokensaku.mhlw.go.jp/31/index.php?action_kouhyou_detail_004_kani=true&JigyosyoCd=3171500923-00&ServiceCd=110&Type=search", "url2": "www.syouwakai.jp" }, "geometry": { "type": "Point", "coordinates": [ 133.3318801, 35.3705513 ] } },
{ "type": "Feature", "properties": { "内容": "ヘルパーステーション　あゆみ【訪問介護】鳥取県西伯郡伯耆町大殿１０８９－８", "url": "https://www.kaigokensaku.mhlw.go.jp/31/index.php?action_kouhyou_detail_004_kani=true&JigyosyoCd=3171500865-00&ServiceCd=110&Type=search", "url2": "http://akari-ayumi.jp" }, "geometry": { "type": "Point", "coordinates": [ 133.398065775275597, 35.38715840574374 ] } },
{ "type": "Feature", "properties": { "内容": "社会福祉法人　伯耆町社会福祉協議会　溝口訪問介護事業所【訪問介護】鳥取県西伯郡伯耆町溝口281-2", "url": "https://www.kaigokensaku.mhlw.go.jp/31/index.php?action_kouhyou_detail_004_kani=true&JigyosyoCd=3171500600-00&ServiceCd=110&Type=search", "url2": "http://www.houki-shakyo.jp/" }, "geometry": { "type": "Point", "coordinates": [ 133.4349327, 35.3446543 ] } },
{ "type": "Feature", "properties": { "内容": "ホームヘルプセンター　にちなん【訪問介護】鳥取県日野郡日南町下石見2315番地", "url": "https://www.kaigokensaku.mhlw.go.jp/31/index.php?action_kouhyou_detail_004_kani=true&JigyosyoCd=3171600301-00&ServiceCd=110&Type=search", "url2": "http://www.n-akane.jp/index.html" }, "geometry": { "type": "Point", "coordinates": [ 133.330450271243905, 35.151986584674844 ] } },
{ "type": "Feature", "properties": { "内容": "医療法人社団日翔会　おしどり荘訪問介護事業所【訪問介護】鳥取県日野郡日野町根雨８９９－１", "url": "https://www.kaigokensaku.mhlw.go.jp/31/index.php?action_kouhyou_detail_004_kani=true&JigyosyoCd=3171600244-00&ServiceCd=110&Type=search", "url2": null }, "geometry": { "type": "Point", "coordinates": [ 133.440103300000033, 35.234317 ] } },
{ "type": "Feature", "properties": { "内容": "訪問介護事業所江美の郷【訪問介護】鳥取県日野郡江府町大字久連7番地", "url": "https://www.kaigokensaku.mhlw.go.jp/31/index.php?action_kouhyou_detail_004_kani=true&JigyosyoCd=3171600418-00&ServiceCd=110&Type=search", "url2": "http://www.syoujin.or.jp/" }, "geometry": { "type": "Point", "coordinates": [ 133.483059, 35.2818538 ] } }
]
}
