{
"type": "FeatureCollection",
"name": "geo_31_特定施設入居者生活介護（有料老人ホーム）",
"crs": { "type": "name", "properties": { "name": "urn:ogc:def:crs:OGC:1.3:CRS84" } },
"features": [
{ "type": "Feature", "properties": { "内容": "有料老人ホームきらめき館［新館］【特定施設入居者生活介護（有料老人ホーム）】覚寺61番地17", "url": "https://www.kaigokensaku.mhlw.go.jp/31/index.php?action_kouhyou_detail_004_kani=true&JigyosyoCd=3170104164-00&ServiceCd=331&Type=search", "url2": "https://www.kiramekikan.com" }, "geometry": { "type": "Point", "coordinates": [ 134.228167, 35.521353 ] } },
{ "type": "Feature", "properties": { "内容": "介護付有料老人ホームかろ美咲園【特定施設入居者生活介護（有料老人ホーム）】鳥取県鳥取市賀露町南5丁目1757-336", "url": "https://www.kaigokensaku.mhlw.go.jp/31/index.php?action_kouhyou_detail_004_kani=true&JigyosyoCd=3170101491-00&ServiceCd=331&Type=search", "url2": null }, "geometry": { "type": "Point", "coordinates": [ 134.191297299999974, 35.5326029 ] } },
{ "type": "Feature", "properties": { "内容": "和温【特定施設入居者生活介護（有料老人ホーム）】鳥取県鳥取市正蓮寺38-3", "url": "https://www.kaigokensaku.mhlw.go.jp/31/index.php?action_kouhyou_detail_004_kani=true&JigyosyoCd=3170101343-00&ServiceCd=331&Type=search", "url2": null }, "geometry": { "type": "Point", "coordinates": [ 134.245165433566569, 35.471910830410103 ] } },
{ "type": "Feature", "properties": { "内容": "さとにメディケアホーム菜のか【特定施設入居者生活介護（有料老人ホーム）】鳥取県鳥取市里仁45番地", "url": "https://www.kaigokensaku.mhlw.go.jp/31/index.php?action_kouhyou_detail_004_kani=true&JigyosyoCd=3170104206-00&ServiceCd=331&Type=search", "url2": "https://satoni-denen-clinic.jp/" }, "geometry": { "type": "Point", "coordinates": [ 134.193747747221408, 35.503685868913465 ] } },
{ "type": "Feature", "properties": { "内容": "エルフィス観音寺新町【特定施設入居者生活介護（有料老人ホーム）】鳥取県米子市観音寺新町３丁目5-33", "url": "https://www.kaigokensaku.mhlw.go.jp/31/index.php?action_kouhyou_detail_004_kani=true&JigyosyoCd=3170203354-00&ServiceCd=331&Type=search", "url2": "http://elfith.com" }, "geometry": { "type": "Point", "coordinates": [ 133.3603511, 35.4239324 ] } },
{ "type": "Feature", "properties": { "内容": "介護付き有料老人ホーム睦月【特定施設入居者生活介護（有料老人ホーム）】鳥取県米子市淀江町1282-1", "url": "https://www.kaigokensaku.mhlw.go.jp/31/index.php?action_kouhyou_detail_004_kani=true&JigyosyoCd=3170203362-00&ServiceCd=331&Type=search", "url2": "https://noblelife.co.jp/" }, "geometry": { "type": "Point", "coordinates": [ 133.399065453274943, 35.450350353911205 ] } },
{ "type": "Feature", "properties": { "内容": "介護付有料老人ホーム　カルム皆生【特定施設入居者生活介護（有料老人ホーム）】鳥取県米子市皆生温泉2丁目13-39", "url": "https://www.kaigokensaku.mhlw.go.jp/31/index.php?action_kouhyou_detail_004_kani=true&JigyosyoCd=3170201689-00&ServiceCd=331&Type=search", "url2": "https://calmekaigo.jp/kaike/" }, "geometry": { "type": "Point", "coordinates": [ 133.364867099999969, 35.4550838 ] } },
{ "type": "Feature", "properties": { "内容": "ゆうゆう壱番館よなご【特定施設入居者生活介護（有料老人ホーム）】鳥取県米子市皆生2丁目13番13号", "url": "https://www.kaigokensaku.mhlw.go.jp/31/index.php?action_kouhyou_detail_004_kani=true&JigyosyoCd=3170200988-00&ServiceCd=331&Type=search", "url2": "http://www.yuyu-yonago.co.jp" }, "geometry": { "type": "Point", "coordinates": [ 133.3686113, 35.448114900000014 ] } },
{ "type": "Feature", "properties": { "内容": "有料老人ホーム　高砂苑【特定施設入居者生活介護（有料老人ホーム）】鳥取県米子市彦名町２０７８", "url": "https://www.kaigokensaku.mhlw.go.jp/31/index.php?action_kouhyou_detail_004_kani=true&JigyosyoCd=3170201135-00&ServiceCd=331&Type=search", "url2": "http://www.hapine.com" }, "geometry": { "type": "Point", "coordinates": [ 133.289325100000042, 35.4497693 ] } },
{ "type": "Feature", "properties": { "内容": "いきいきシニアステージ旗ヶ崎【特定施設入居者生活介護（有料老人ホーム）】鳥取県米子市旗ヶ崎2丁目18番28号いきいきシニアステージ旗ヶ崎", "url": "https://www.kaigokensaku.mhlw.go.jp/31/index.php?action_kouhyou_detail_004_kani=true&JigyosyoCd=3170201416-00&ServiceCd=331&Type=search", "url2": "http://www.medicalcare.jp/" }, "geometry": { "type": "Point", "coordinates": [ 133.315706399999954, 35.4383009 ] } },
{ "type": "Feature", "properties": { "内容": "特定施設入居者生活介護事業所　いずみの苑【特定施設入居者生活介護（有料老人ホーム）】鳥取県米子市淀江町淀江1075番地", "url": "https://www.kaigokensaku.mhlw.go.jp/31/index.php?action_kouhyou_detail_004_kani=true&JigyosyoCd=3171500279-00&ServiceCd=331&Type=search", "url2": "https://www.izuminosono.or.jp" }, "geometry": { "type": "Point", "coordinates": [ 133.433632100000068, 35.4573423 ] } },
{ "type": "Feature", "properties": { "内容": "介護付有料老人ホーム翠のさと【特定施設入居者生活介護（有料老人ホーム）】鳥取県米子市西福原７－４－１", "url": "https://www.kaigokensaku.mhlw.go.jp/31/index.php?action_kouhyou_detail_004_kani=true&JigyosyoCd=3170201747-00&ServiceCd=331&Type=search", "url2": "https://midorinosato.info/" }, "geometry": { "type": "Point", "coordinates": [ 133.344585, 35.4490479 ] } },
{ "type": "Feature", "properties": { "内容": "介護老人ホーム長砂のかぜ付有料【特定施設入居者生活介護（有料老人ホーム）】鳥取県米子市長砂町875番地", "url": "https://www.kaigokensaku.mhlw.go.jp/31/index.php?action_kouhyou_detail_004_kani=true&JigyosyoCd=3170203347-00&ServiceCd=331&Type=search", "url2": "https://tsuduri.jp" }, "geometry": { "type": "Point", "coordinates": [ 133.3522357, 35.4207104 ] } }
]
}
