{
"type": "FeatureCollection",
"name": "geo_31_福祉用具貸与",
"crs": { "type": "name", "properties": { "name": "urn:ogc:def:crs:OGC:1.3:CRS84" } },
"features": [
{ "type": "Feature", "properties": { "内容": "日本家具株式会社【福祉用具貸与】鳥取県鳥取市千代水2丁目１０１", "url": "https://www.kaigokensaku.mhlw.go.jp/31/index.php?action_kouhyou_detail_004_kani=true&JigyosyoCd=3170100956-00&ServiceCd=170&Type=search", "url2": null }, "geometry": { "type": "Point", "coordinates": [ 134.2000974, 35.5150941 ] } },
{ "type": "Feature", "properties": { "内容": "株式会社ウィードメディカル【福祉用具貸与】鳥取県鳥取市南隈715", "url": "https://www.kaigokensaku.mhlw.go.jp/31/index.php?action_kouhyou_detail_004_kani=true&JigyosyoCd=3170100402-00&ServiceCd=170&Type=search", "url2": "http://kaigo-fukushi.jpn.com/" }, "geometry": { "type": "Point", "coordinates": [ 134.19606851934347, 35.521332369215358 ] } },
{ "type": "Feature", "properties": { "内容": "福祉用具トータルゲート【福祉用具貸与】鳥取県鳥取市吉成２３９－３", "url": "https://www.kaigokensaku.mhlw.go.jp/31/index.php?action_kouhyou_detail_004_kani=true&JigyosyoCd=3170103984-00&ServiceCd=170&Type=search", "url2": "http://total-gate.com" }, "geometry": { "type": "Point", "coordinates": [ 134.227481200000057, 35.483616 ] } },
{ "type": "Feature", "properties": { "内容": "株式会社シサマ【福祉用具貸与】鳥取県鳥取市二階町4丁目203", "url": "https://www.kaigokensaku.mhlw.go.jp/31/index.php?action_kouhyou_detail_004_kani=true&JigyosyoCd=3170102747-00&ServiceCd=170&Type=search", "url2": "http://www.shisama.com/" }, "geometry": { "type": "Point", "coordinates": [ 134.228393517059004, 35.502904768138848 ] } },
{ "type": "Feature", "properties": { "内容": "ＣＫライフプラン【福祉用具貸与】鳥取県鳥取市的場2丁目81番地リバティー的場8号", "url": "https://www.kaigokensaku.mhlw.go.jp/31/index.php?action_kouhyou_detail_004_kani=true&JigyosyoCd=3170102200-00&ServiceCd=170&Type=search", "url2": "http://cklifeplan.blog101.fc2.com/" }, "geometry": { "type": "Point", "coordinates": [ 134.2317842, 35.4732915 ] } },
{ "type": "Feature", "properties": { "内容": "ジャパンケアサポート株式会社【福祉用具貸与】鳥取県鳥取市南栄町60番地13", "url": "https://www.kaigokensaku.mhlw.go.jp/31/index.php?action_kouhyou_detail_004_kani=true&JigyosyoCd=3170103042-00&ServiceCd=170&Type=search", "url2": "http://japan-caresupport.com/index.html" }, "geometry": { "type": "Point", "coordinates": [ 134.240803300000039, 35.4591264 ] } },
{ "type": "Feature", "properties": { "内容": "久大ライフケア【福祉用具貸与】鳥取県烏取市古海693-1", "url": "https://www.kaigokensaku.mhlw.go.jp/31/index.php?action_kouhyou_detail_004_kani=true&JigyosyoCd=3170101467-00&ServiceCd=170&Type=search", "url2": "www.kyudai.co.jp/lifecare/" }, "geometry": { "type": "Point", "coordinates": [ 134.207932199999959, 35.495536 ] } },
{ "type": "Feature", "properties": { "内容": "やまだや【福祉用具貸与】鳥取県鳥取市大覚寺150-87", "url": "https://www.kaigokensaku.mhlw.go.jp/31/index.php?action_kouhyou_detail_004_kani=true&JigyosyoCd=3170103018-00&ServiceCd=170&Type=search", "url2": "https://t-bang.jp/" }, "geometry": { "type": "Point", "coordinates": [ 134.232331199999976, 35.481087700000018 ] } },
{ "type": "Feature", "properties": { "内容": "鳥取医療器株式会社　福祉事業部【福祉用具貸与】鳥取県鳥取市西品治８１５番地８", "url": "https://www.kaigokensaku.mhlw.go.jp/31/index.php?action_kouhyou_detail_004_kani=true&JigyosyoCd=3170100386-00&ServiceCd=170&Type=search", "url2": "http://t-iryoki.co.jp/" }, "geometry": { "type": "Point", "coordinates": [ 134.222706199999948, 35.5086372 ] } },
{ "type": "Feature", "properties": { "内容": "福祉住環境コンサルタントニシウラ【福祉用具貸与】鳥取県鳥取市河原町佐貫1093-8", "url": "https://www.kaigokensaku.mhlw.go.jp/31/index.php?action_kouhyou_detail_004_kani=true&JigyosyoCd=3170101251-00&ServiceCd=170&Type=search", "url2": "http://www.nishiura.jp" }, "geometry": { "type": "Point", "coordinates": [ 134.196307100000013, 35.3822478 ] } },
{ "type": "Feature", "properties": { "内容": "有限会社　ライフ・エイド【福祉用具貸与】鳥取県　鳥取市千代水２丁目１３７番地", "url": "https://www.kaigokensaku.mhlw.go.jp/31/index.php?action_kouhyou_detail_004_kani=true&JigyosyoCd=3170101293-00&ServiceCd=170&Type=search", "url2": null }, "geometry": { "type": "Point", "coordinates": [ 134.19768369999997, 35.5152162 ] } },
{ "type": "Feature", "properties": { "内容": "㈱ハピネライフ一光鳥取支社【福祉用具貸与】鳥取県鳥取市湖山町東1-117-4", "url": "https://www.kaigokensaku.mhlw.go.jp/31/index.php?action_kouhyou_detail_004_kani=true&JigyosyoCd=3170100196-00&ServiceCd=170&Type=search", "url2": "http://www.hapine.com" }, "geometry": { "type": "Point", "coordinates": [ 134.184480162379629, 35.516879336581646 ] } },
{ "type": "Feature", "properties": { "内容": "株式会社　健美堂　鳥取営業所【福祉用具貸与】鳥取県鳥取市国府町新通り4丁目408-1国府テナントビル105号", "url": "https://www.kaigokensaku.mhlw.go.jp/31/index.php?action_kouhyou_detail_004_kani=true&JigyosyoCd=3170103489-00&ServiceCd=170&Type=search", "url2": "https://kenbido-kaigo.com/" }, "geometry": { "type": "Point", "coordinates": [ 134.254333081614675, 35.482051221750105 ] } },
{ "type": "Feature", "properties": { "内容": "合同会社ライフケアーズ【福祉用具貸与】鳥取市南安長１丁目15-21", "url": "https://www.kaigokensaku.mhlw.go.jp/31/index.php?action_kouhyou_detail_004_kani=true&JigyosyoCd=3170103364-00&ServiceCd=170&Type=search", "url2": "https://lifecareslckids.wixsite.com/life-cares" }, "geometry": { "type": "Point", "coordinates": [ 134.212399199999936, 35.5053373 ] } },
{ "type": "Feature", "properties": { "内容": "株式会社　原商　鳥取事業所【福祉用具貸与】鳥取県鳥取市賀露町4058-2", "url": "https://www.kaigokensaku.mhlw.go.jp/31/index.php?action_kouhyou_detail_004_kani=true&JigyosyoCd=3170102705-00&ServiceCd=170&Type=search", "url2": null }, "geometry": { "type": "Point", "coordinates": [ 134.196602799999937, 35.5288926 ] } },
{ "type": "Feature", "properties": { "内容": "ゆたかケアにっしん【福祉用具貸与】鳥取県米子市旗ヶ崎７丁目１２番１２号", "url": "https://www.kaigokensaku.mhlw.go.jp/31/index.php?action_kouhyou_detail_004_kani=true&JigyosyoCd=3170203024-00&ServiceCd=170&Type=search", "url2": null }, "geometry": { "type": "Point", "coordinates": [ 133.307235399999968, 35.4393881 ] } },
{ "type": "Feature", "properties": { "内容": "ウェルネス介護センター米子【福祉用具貸与】鳥取県米子市旗ヶ崎6丁目2-47", "url": "https://www.kaigokensaku.mhlw.go.jp/31/index.php?action_kouhyou_detail_004_kani=true&JigyosyoCd=3170202687-00&ServiceCd=170&Type=search", "url2": "http://www.ｗellness-web.co.jp" }, "geometry": { "type": "Point", "coordinates": [ 133.310054199999968, 35.4376232 ] } },
{ "type": "Feature", "properties": { "内容": "株式会社ウィードメディカル　米子営業所【福祉用具貸与】鳥取県米子市西福原9丁目15番地13", "url": "https://www.kaigokensaku.mhlw.go.jp/31/index.php?action_kouhyou_detail_004_kani=true&JigyosyoCd=3170202968-00&ServiceCd=170&Type=search", "url2": "https://kaigo-fukushi.jpn.com/" }, "geometry": { "type": "Point", "coordinates": [ 133.336641236770674, 35.454649033091094 ] } },
{ "type": "Feature", "properties": { "内容": "株式会社　キンタカふくしサービスセンター【福祉用具貸与】鳥取県米子市淀江町西原1188-5", "url": "https://www.kaigokensaku.mhlw.go.jp/31/index.php?action_kouhyou_detail_004_kani=true&JigyosyoCd=3171500105-00&ServiceCd=170&Type=search", "url2": "https://kintaka.co.jp/" }, "geometry": { "type": "Point", "coordinates": [ 133.417284099999961, 35.4529844 ] } },
{ "type": "Feature", "properties": { "内容": "株式会社原商米子事業所【福祉用具貸与】鳥取県米子市夜見町2048", "url": "https://www.kaigokensaku.mhlw.go.jp/31/index.php?action_kouhyou_detail_004_kani=true&JigyosyoCd=3170202026-00&ServiceCd=170&Type=search", "url2": "http://www.harasho.co.jp" }, "geometry": { "type": "Point", "coordinates": [ 133.300340300000016, 35.4648763 ] } },
{ "type": "Feature", "properties": { "内容": "福祉用具の楽らく【福祉用具貸与】鳥取県米子市富益町63-50", "url": "https://www.kaigokensaku.mhlw.go.jp/31/index.php?action_kouhyou_detail_004_kani=true&JigyosyoCd=3170202695-00&ServiceCd=170&Type=search", "url2": null }, "geometry": { "type": "Point", "coordinates": [ 133.288616699633849, 35.47667291217207 ] } },
{ "type": "Feature", "properties": { "内容": "ハピネライフ一光　米子支社【福祉用具貸与】鳥取県米子市両三柳4489-1", "url": "https://www.kaigokensaku.mhlw.go.jp/31/index.php?action_kouhyou_detail_004_kani=true&JigyosyoCd=3170200186-00&ServiceCd=170&Type=search", "url2": "http://www.hapine.com" }, "geometry": { "type": "Point", "coordinates": [ 133.316961200000037, 35.4590518 ] } },
{ "type": "Feature", "properties": { "内容": "日本エスタ株式会社【福祉用具貸与】鳥取県米子市富益町3614番地", "url": "https://www.kaigokensaku.mhlw.go.jp/31/index.php?action_kouhyou_detail_004_kani=true&JigyosyoCd=3170200699-00&ServiceCd=170&Type=search", "url2": "http://nihonsta.jp/" }, "geometry": { "type": "Point", "coordinates": [ 133.280941900000016, 35.470595 ] } },
{ "type": "Feature", "properties": { "内容": "白鳥ケアサービス福祉用具貸与事業所【福祉用具貸与】鳥取県米子市二本木538-1", "url": "https://www.kaigokensaku.mhlw.go.jp/31/index.php?action_kouhyou_detail_004_kani=true&JigyosyoCd=3170200103-00&ServiceCd=170&Type=search", "url2": "http://www.hakuchou-care.jp" }, "geometry": { "type": "Point", "coordinates": [ 133.386060400000019, 35.433596899999984 ] } },
{ "type": "Feature", "properties": { "内容": "有限会社　濱本商会　米子支店【福祉用具貸与】米子市車尾2-5-17", "url": "https://www.kaigokensaku.mhlw.go.jp/31/index.php?action_kouhyou_detail_004_kani=true&JigyosyoCd=3170200277-00&ServiceCd=170&Type=search", "url2": null }, "geometry": { "type": "Point", "coordinates": [ 133.351634800000056, 35.4329579 ] } },
{ "type": "Feature", "properties": { "内容": "福祉用具貸与事業所　幸朋苑【福祉用具貸与】鳥取県米子市夜見町3081-11福祉用具貸与事業所　幸朋苑", "url": "https://www.kaigokensaku.mhlw.go.jp/31/index.php?action_kouhyou_detail_004_kani=true&JigyosyoCd=3170200525-00&ServiceCd=170&Type=search", "url2": "http://www.kohoen.jp" }, "geometry": { "type": "Point", "coordinates": [ 133.304734087959019, 35.471257911807562 ] } },
{ "type": "Feature", "properties": { "内容": "福祉用具貸与事業生活支援隊【福祉用具貸与】鳥取県米子市河崎５５５番地２　２階", "url": "https://www.kaigokensaku.mhlw.go.jp/31/index.php?action_kouhyou_detail_004_kani=true&JigyosyoCd=3170202166-00&ServiceCd=170&Type=search", "url2": "https://seikatusientai.com/" }, "geometry": { "type": "Point", "coordinates": [ 133.311057442852757, 35.457025078366911 ] } },
{ "type": "Feature", "properties": { "内容": "ケアサポート福祉用具貸与事業所【福祉用具貸与】鳥取県米子市昭和町７１－４", "url": "https://www.kaigokensaku.mhlw.go.jp/31/index.php?action_kouhyou_detail_004_kani=true&JigyosyoCd=3170202307-00&ServiceCd=170&Type=search", "url2": null }, "geometry": { "type": "Point", "coordinates": [ 133.342777299999966, 35.425361200000033 ] } },
{ "type": "Feature", "properties": { "内容": "すまいるケアはくあい【福祉用具貸与】鳥取県米子市両三柳1880番地", "url": "https://www.kaigokensaku.mhlw.go.jp/31/index.php?action_kouhyou_detail_004_kani=true&JigyosyoCd=3170202570-00&ServiceCd=170&Type=search", "url2": null }, "geometry": { "type": "Point", "coordinates": [ 133.318810788989595, 35.455436830739437 ] } },
{ "type": "Feature", "properties": { "内容": "有限会社げんき堂米子営業所【福祉用具貸与】福市1851-2", "url": "https://www.kaigokensaku.mhlw.go.jp/31/index.php?action_kouhyou_detail_004_kani=true&JigyosyoCd=3170203321-00&ServiceCd=170&Type=search", "url2": "genkido-info.jimdo.com" }, "geometry": { "type": "Point", "coordinates": [ 133.3690023, 35.4034838 ] } },
{ "type": "Feature", "properties": { "内容": "有限会社　ホームケア渡部建築【福祉用具貸与】鳥取県米子市大崎290-1", "url": "https://www.kaigokensaku.mhlw.go.jp/31/index.php?action_kouhyou_detail_004_kani=true&JigyosyoCd=3170201622-00&ServiceCd=170&Type=search", "url2": "https://www.homecarewatanabe.com/" }, "geometry": { "type": "Point", "coordinates": [ 133.269065299999966, 35.4663367 ] } },
{ "type": "Feature", "properties": { "内容": "ライフケアくらよし【福祉用具貸与】鳥取県倉吉市関金町郡家７２１－１", "url": "https://www.kaigokensaku.mhlw.go.jp/31/index.php?action_kouhyou_detail_004_kani=true&JigyosyoCd=3170300945-00&ServiceCd=170&Type=search", "url2": null }, "geometry": { "type": "Point", "coordinates": [ 133.75014950000002, 35.356968199999983 ] } },
{ "type": "Feature", "properties": { "内容": "あさひほーむ【福祉用具貸与】鳥取県倉吉市昭和町二丁目２３６番地", "url": "https://www.kaigokensaku.mhlw.go.jp/31/index.php?action_kouhyou_detail_004_kani=true&JigyosyoCd=3170300382-00&ServiceCd=170&Type=search", "url2": "http://asahihom.jp/" }, "geometry": { "type": "Point", "coordinates": [ 133.838287400000013, 35.4365429 ] } },
{ "type": "Feature", "properties": { "内容": "有限会社　濱本商会【福祉用具貸与】鳥取県倉吉市魚町２５６０", "url": "https://www.kaigokensaku.mhlw.go.jp/31/index.php?action_kouhyou_detail_004_kani=true&JigyosyoCd=3170300119-00&ServiceCd=170&Type=search", "url2": null }, "geometry": { "type": "Point", "coordinates": [ 133.825369300000034, 35.4315403 ] } },
{ "type": "Feature", "properties": { "内容": "福祉用具あーち【福祉用具貸与】鳥取県境港市上道町2181-4", "url": "https://www.kaigokensaku.mhlw.go.jp/31/index.php?action_kouhyou_detail_004_kani=true&JigyosyoCd=3170400364-00&ServiceCd=170&Type=search", "url2": null }, "geometry": { "type": "Point", "coordinates": [ 133.243191269311495, 35.544216112127557 ] } },
{ "type": "Feature", "properties": { "内容": "株式会社　健美堂【福祉用具貸与】鳥取県八頭郡智頭町智頭１８９３－４", "url": "https://www.kaigokensaku.mhlw.go.jp/31/index.php?action_kouhyou_detail_004_kani=true&JigyosyoCd=3171200151-00&ServiceCd=170&Type=search", "url2": "https://kenbido-kaigo.com/" }, "geometry": { "type": "Point", "coordinates": [ 134.223423599999933, 35.2646338 ] } },
{ "type": "Feature", "properties": { "内容": "有限会社　ウエルアップ【福祉用具貸与】鳥取県東伯郡北栄町西穂波36", "url": "https://www.kaigokensaku.mhlw.go.jp/31/index.php?action_kouhyou_detail_004_kani=true&JigyosyoCd=3171400371-00&ServiceCd=170&Type=search", "url2": null }, "geometry": { "type": "Point", "coordinates": [ 133.760791499999982, 35.4759063 ] } }
]
}
