{
"type": "FeatureCollection",
"name": "geo_31_認知症対応型共同生活介護",
"crs": { "type": "name", "properties": { "name": "urn:ogc:def:crs:OGC:1.3:CRS84" } },
"features": [
{ "type": "Feature", "properties": { "内容": "ぐるーぷほーむ和温【認知症対応型共同生活介護】鳥取県鳥取市正連寺38番地3", "url": "https://www.kaigokensaku.mhlw.go.jp/31/index.php?action_kouhyou_detail_004_kani=true&JigyosyoCd=3190100747-00&ServiceCd=320&Type=search", "url2": null }, "geometry": { "type": "Point", "coordinates": [ 134.245125, 35.4718862 ] } },
{ "type": "Feature", "properties": { "内容": "グループホームふたば【認知症対応型共同生活介護】鳥取県鳥取市国府町稲葉丘３丁目３０３", "url": "https://www.kaigokensaku.mhlw.go.jp/31/index.php?action_kouhyou_detail_004_kani=true&JigyosyoCd=3170101186-00&ServiceCd=320&Type=search", "url2": "https://www.yamawakiiin.com/" }, "geometry": { "type": "Point", "coordinates": [ 134.262137, 35.4839403 ] } },
{ "type": "Feature", "properties": { "内容": "キリンの里グループホーム西町【認知症対応型共同生活介護】鳥取県鳥取市西町2丁目122番地8", "url": "https://www.kaigokensaku.mhlw.go.jp/31/index.php?action_kouhyou_detail_004_kani=true&JigyosyoCd=3190100739-00&ServiceCd=320&Type=search", "url2": null }, "geometry": { "type": "Point", "coordinates": [ 134.234406199999967, 35.5023988 ] } },
{ "type": "Feature", "properties": { "内容": "けあビジョンホーム鳥取福部【認知症対応型共同生活介護】福部町海士５２６", "url": "https://www.kaigokensaku.mhlw.go.jp/31/index.php?action_kouhyou_detail_004_kani=true&JigyosyoCd=3190100879-00&ServiceCd=320&Type=search", "url2": null }, "geometry": { "type": "Point", "coordinates": [ 134.2759405, 35.5482899 ] } },
{ "type": "Feature", "properties": { "内容": "グループホームいくのさん家【認知症対応型共同生活介護】鳥取県鳥取市湖山町西2丁目237番地2", "url": "https://www.kaigokensaku.mhlw.go.jp/31/index.php?action_kouhyou_detail_004_kani=true&JigyosyoCd=3170100659-00&ServiceCd=320&Type=search", "url2": "http://ikunosange.com" }, "geometry": { "type": "Point", "coordinates": [ 134.157337204893423, 35.522601755226837 ] } },
{ "type": "Feature", "properties": { "内容": "グループホーム若葉台緑の郷【認知症対応型共同生活介護】鳥取市若葉台南4丁目2番27号", "url": "https://www.kaigokensaku.mhlw.go.jp/31/index.php?action_kouhyou_detail_004_kani=true&JigyosyoCd=3170100220-00&ServiceCd=320&Type=search", "url2": "http://www.tottorifukushikai.jp/shisetsu/midori.html" }, "geometry": { "type": "Point", "coordinates": [ 134.269154100000037, 35.4451282 ] } },
{ "type": "Feature", "properties": { "内容": "グループホームはまさか【認知症対応型共同生活介護】鳥取県鳥取市浜坂253-1", "url": "https://www.kaigokensaku.mhlw.go.jp/31/index.php?action_kouhyou_detail_004_kani=true&JigyosyoCd=3170100410-00&ServiceCd=320&Type=search", "url2": "http://www.kohoen.jp" }, "geometry": { "type": "Point", "coordinates": [ 134.226330400000052, 35.5240965 ] } },
{ "type": "Feature", "properties": { "内容": "グループホームさくらはうす・つばきはうす【認知症対応型共同生活介護】鳥取県鳥取市覚寺180番地", "url": "https://www.kaigokensaku.mhlw.go.jp/31/index.php?action_kouhyou_detail_004_kani=true&JigyosyoCd=3170100923-00&ServiceCd=320&Type=search", "url2": "http://www.mmwc.or.jp/" }, "geometry": { "type": "Point", "coordinates": [ 134.23378809999997, 35.523166 ] } },
{ "type": "Feature", "properties": { "内容": "マロニエの樹【認知症対応型共同生活介護】南吉方二丁目２８番地２", "url": "https://www.kaigokensaku.mhlw.go.jp/31/index.php?action_kouhyou_detail_004_kani=true&JigyosyoCd=3190100689-00&ServiceCd=320&Type=search", "url2": "http://www.tottorifukushikai.jp/" }, "geometry": { "type": "Point", "coordinates": [ 134.234910320237759, 35.487238702899035 ] } },
{ "type": "Feature", "properties": { "内容": "けあビジョンホーム鳥取【認知症対応型共同生活介護】鳥取県鳥取市三津850番地１", "url": "https://www.kaigokensaku.mhlw.go.jp/31/index.php?action_kouhyou_detail_004_kani=true&JigyosyoCd=3190100796-00&ServiceCd=320&Type=search", "url2": null }, "geometry": { "type": "Point", "coordinates": [ 134.14479, 35.5201677 ] } },
{ "type": "Feature", "properties": { "内容": "けあビジョンホーム鳥取賀露【認知症対応型共同生活介護】鳥取県鳥取市賀露町94-1", "url": "https://www.kaigokensaku.mhlw.go.jp/31/index.php?action_kouhyou_detail_004_kani=true&JigyosyoCd=3190100812-00&ServiceCd=320&Type=search", "url2": null }, "geometry": { "type": "Point", "coordinates": [ 134.1779587, 35.5290686 ] } },
{ "type": "Feature", "properties": { "内容": "グループホームオータムハウス【認知症対応型共同生活介護】鳥取県鳥取市覚寺５１－５", "url": "https://www.kaigokensaku.mhlw.go.jp/31/index.php?action_kouhyou_detail_004_kani=true&JigyosyoCd=3170100683-00&ServiceCd=320&Type=search", "url2": "http://www.mmwc.or.jp" }, "geometry": { "type": "Point", "coordinates": [ 134.227344300000027, 35.5211857 ] } },
{ "type": "Feature", "properties": { "内容": "グループホーム　まさたみの郷【認知症対応型共同生活介護】鳥取県鳥取市杉崎596番地", "url": "https://www.kaigokensaku.mhlw.go.jp/31/index.php?action_kouhyou_detail_004_kani=true&JigyosyoCd=3170100766-00&ServiceCd=320&Type=search", "url2": "http://www.masataminosato.jp/" }, "geometry": { "type": "Point", "coordinates": [ 134.2481636, 35.4644758 ] } },
{ "type": "Feature", "properties": { "内容": "グループホーム　はまゆうの里【認知症対応型共同生活介護】鳥取県鳥取市服部204-1", "url": "https://www.kaigokensaku.mhlw.go.jp/31/index.php?action_kouhyou_detail_004_kani=true&JigyosyoCd=3170100899-00&ServiceCd=320&Type=search", "url2": "http://www.hamayu.or.jp/" }, "geometry": { "type": "Point", "coordinates": [ 134.205284300000017, 35.4748852 ] } },
{ "type": "Feature", "properties": { "内容": "グループホームゆう【認知症対応型共同生活介護】鳥取県鳥取市佐治町古市８－２", "url": "https://www.kaigokensaku.mhlw.go.jp/31/index.php?action_kouhyou_detail_004_kani=true&JigyosyoCd=3190100358-00&ServiceCd=320&Type=search", "url2": null }, "geometry": { "type": "Point", "coordinates": [ 134.165355299999987, 35.3426302 ] } },
{ "type": "Feature", "properties": { "内容": "認知症高齢者　グループホームはまむら【認知症対応型共同生活介護】鳥取県鳥取市気高町新町2丁目11番地ガーデンハウスはまむら", "url": "https://www.kaigokensaku.mhlw.go.jp/31/index.php?action_kouhyou_detail_004_kani=true&JigyosyoCd=3190100531-00&ServiceCd=320&Type=search", "url2": "https://www.med-wel.jp/gardenhama/" }, "geometry": { "type": "Point", "coordinates": [ 134.047405135057005, 35.513320695243479 ] } },
{ "type": "Feature", "properties": { "内容": "グループホーム三希堂【認知症対応型共同生活介護】鳥取県鳥取市行徳二丁目４４５－１", "url": "https://www.kaigokensaku.mhlw.go.jp/31/index.php?action_kouhyou_detail_004_kani=true&JigyosyoCd=3190100549-00&ServiceCd=320&Type=search", "url2": null }, "geometry": { "type": "Point", "coordinates": [ 134.2238314, 35.4994022 ] } },
{ "type": "Feature", "properties": { "内容": "グループホーム高草あすなろ【認知症対応型共同生活介護】鳥取市大桷330", "url": "https://www.kaigokensaku.mhlw.go.jp/31/index.php?action_kouhyou_detail_004_kani=true&JigyosyoCd=3170100691-00&ServiceCd=320&Type=search", "url2": "http://www.t-asunaro.or.jp/index.shtml" }, "geometry": { "type": "Point", "coordinates": [ 134.181483500000013, 35.4909798 ] } },
{ "type": "Feature", "properties": { "内容": "グループホーム　風紋館【認知症対応型共同生活介護】鳥取県鳥取市立川町5丁目312番地1", "url": "https://www.kaigokensaku.mhlw.go.jp/31/index.php?action_kouhyou_detail_004_kani=true&JigyosyoCd=3170100840-00&ServiceCd=320&Type=search", "url2": "http://huumonkan.jp/" }, "geometry": { "type": "Point", "coordinates": [ 134.241788232540898, 35.49026797114211 ] } },
{ "type": "Feature", "properties": { "内容": "認知症高齢者グループホームしかの【認知症対応型共同生活介護】鳥取県鳥取市鹿野町今市８０", "url": "https://www.kaigokensaku.mhlw.go.jp/31/index.php?action_kouhyou_detail_004_kani=true&JigyosyoCd=3190100127-00&ServiceCd=320&Type=search", "url2": "https://www.med-wel.jp/" }, "geometry": { "type": "Point", "coordinates": [ 134.050270400000045, 35.4607305 ] } },
{ "type": "Feature", "properties": { "内容": "グループホームわかばの家河原【認知症対応型共同生活介護】鳥取県鳥取市河原町渡一木１５６番地１", "url": "https://www.kaigokensaku.mhlw.go.jp/31/index.php?action_kouhyou_detail_004_kani=true&JigyosyoCd=3190100200-00&ServiceCd=320&Type=search", "url2": "http://www.jainaba.com/kaigo/wakaba.htm" }, "geometry": { "type": "Point", "coordinates": [ 134.200687099999982, 35.4001736 ] } },
{ "type": "Feature", "properties": { "内容": "グループホームわかばの家青谷【認知症対応型共同生活介護】鳥取県鳥取市青谷町亀尻163番地１", "url": "https://www.kaigokensaku.mhlw.go.jp/31/index.php?action_kouhyou_detail_004_kani=true&JigyosyoCd=3190100366-00&ServiceCd=320&Type=search", "url2": "http://www.jainaba.com/kaigo/wakaba.htm" }, "geometry": { "type": "Point", "coordinates": [ 133.985411200000044, 35.4985158 ] } },
{ "type": "Feature", "properties": { "内容": "グループホームわかばの家福部【認知症対応型共同生活介護】鳥取県鳥取市福部町湯山1433番地", "url": "https://www.kaigokensaku.mhlw.go.jp/31/index.php?action_kouhyou_detail_004_kani=true&JigyosyoCd=3190100374-00&ServiceCd=320&Type=search", "url2": "http://www.jainaba.com/kaigo/wakaba.htm" }, "geometry": { "type": "Point", "coordinates": [ 134.248391699999956, 35.5436999 ] } },
{ "type": "Feature", "properties": { "内容": "認知症グループホーム　くつろぎ【認知症対応型共同生活介護】鳥取県鳥取市伏野2259-17", "url": "https://www.kaigokensaku.mhlw.go.jp/31/index.php?action_kouhyou_detail_004_kani=true&JigyosyoCd=3190100572-00&ServiceCd=320&Type=search", "url2": "https://www.tottori-kousei.jp/kutsurogigaiyou.html" }, "geometry": { "type": "Point", "coordinates": [ 134.152037947686381, 35.524194137133762 ] } },
{ "type": "Feature", "properties": { "内容": "グループホームわかばの家勝谷【認知症対応型共同生活介護】鳥取県鳥取市鹿野町寺内137番地2", "url": "https://www.kaigokensaku.mhlw.go.jp/31/index.php?action_kouhyou_detail_004_kani=true&JigyosyoCd=3190100762-00&ServiceCd=320&Type=search", "url2": "katutani@wakaba-home.jp" }, "geometry": { "type": "Point", "coordinates": [ 134.0537203, 35.4781858 ] } },
{ "type": "Feature", "properties": { "内容": "キリンの里もちがせ【認知症対応型共同生活介護】鳥取県鳥取市用瀬町鷹狩７３７－１", "url": "https://www.kaigokensaku.mhlw.go.jp/31/index.php?action_kouhyou_detail_004_kani=true&JigyosyoCd=3190100663-00&ServiceCd=320&Type=search", "url2": null }, "geometry": { "type": "Point", "coordinates": [ 134.207387199999971, 35.3555657 ] } },
{ "type": "Feature", "properties": { "内容": "ぐるーぷほーむなかしま【認知症対応型共同生活介護】鳥取県米子市中島二丁目1番38号", "url": "https://www.kaigokensaku.mhlw.go.jp/31/index.php?action_kouhyou_detail_004_kani=true&JigyosyoCd=3190200695-00&ServiceCd=320&Type=search", "url2": "https://www.yonagochuo-clinic.jp/" }, "geometry": { "type": "Point", "coordinates": [ 135.424506799999989, 34.696088 ] } },
{ "type": "Feature", "properties": { "内容": "ぬくもりのすまい　エルル両三柳【認知症対応型共同生活介護】鳥取県米子市両三柳206-1", "url": "https://www.kaigokensaku.mhlw.go.jp/31/index.php?action_kouhyou_detail_004_kani=true&JigyosyoCd=3190200315-00&ServiceCd=320&Type=search", "url2": "http://elfith.com" }, "geometry": { "type": "Point", "coordinates": [ 133.326852499999973, 35.4488779 ] } },
{ "type": "Feature", "properties": { "内容": "グループホーム東福原の家【認知症対応型共同生活介護】鳥取県米子市東福原7-10-35", "url": "https://www.kaigokensaku.mhlw.go.jp/31/index.php?action_kouhyou_detail_004_kani=true&JigyosyoCd=3170201184-00&ServiceCd=320&Type=search", "url2": null }, "geometry": { "type": "Point", "coordinates": [ 133.350956191401679, 35.449303789780402 ] } },
{ "type": "Feature", "properties": { "内容": "グループホーム白鳥の里【認知症対応型共同生活介護】鳥取県米子市彦名町1250番地", "url": "https://www.kaigokensaku.mhlw.go.jp/31/index.php?action_kouhyou_detail_004_kani=true&JigyosyoCd=3170200517-00&ServiceCd=320&Type=search", "url2": "http://www.chukai.or.jp/hakucho/" }, "geometry": { "type": "Point", "coordinates": [ 133.294283706745858, 35.446074640665678 ] } },
{ "type": "Feature", "properties": { "内容": "グループホームみのりの里【認知症対応型共同生活介護】鳥取県米子市一部440番地", "url": "https://www.kaigokensaku.mhlw.go.jp/31/index.php?action_kouhyou_detail_004_kani=true&JigyosyoCd=3190200307-00&ServiceCd=320&Type=search", "url2": "http://www.hakuaikai-smile.jp/" }, "geometry": { "type": "Point", "coordinates": [ 133.397747617752088, 35.406550753334891 ] } },
{ "type": "Feature", "properties": { "内容": "グループホーム花つつじ【認知症対応型共同生活介護】鳥取県米子市上福原1丁目10番15号", "url": "https://www.kaigokensaku.mhlw.go.jp/31/index.php?action_kouhyou_detail_004_kani=true&JigyosyoCd=3190200448-00&ServiceCd=320&Type=search", "url2": null }, "geometry": { "type": "Point", "coordinates": [ 133.362692299999907, 35.4427182 ] } },
{ "type": "Feature", "properties": { "内容": "けあビジョンホーム米子上後藤【認知症対応型共同生活介護】鳥取県米子市上後藤５丁目７－１５", "url": "https://www.kaigokensaku.mhlw.go.jp/31/index.php?action_kouhyou_detail_004_kani=true&JigyosyoCd=3190200653-00&ServiceCd=320&Type=search", "url2": null }, "geometry": { "type": "Point", "coordinates": [ 133.3159741, 35.4463966 ] } },
{ "type": "Feature", "properties": { "内容": "けあビジョンホーム米子陰田【認知症対応型共同生活介護】鳥取県米子市陰田町292番1", "url": "https://www.kaigokensaku.mhlw.go.jp/31/index.php?action_kouhyou_detail_004_kani=true&JigyosyoCd=3190200737-00&ServiceCd=320&Type=search", "url2": null }, "geometry": { "type": "Point", "coordinates": [ 133.3270517, 35.4084508 ] } },
{ "type": "Feature", "properties": { "内容": "グループホーム仁風荘【認知症対応型共同生活介護】鳥取県米子市上後藤8-5-15", "url": "https://www.kaigokensaku.mhlw.go.jp/31/index.php?action_kouhyou_detail_004_kani=true&JigyosyoCd=3190200802-00&ServiceCd=320&Type=search", "url2": "http://www.yowakai.com/" }, "geometry": { "type": "Point", "coordinates": [ 133.3155629, 35.4494008 ] } },
{ "type": "Feature", "properties": { "内容": "グループホーム　はたがさき【認知症対応型共同生活介護】鳥取県米子市両旗ヶ崎6丁目2-57", "url": "https://www.kaigokensaku.mhlw.go.jp/31/index.php?action_kouhyou_detail_004_kani=true&JigyosyoCd=3170200152-00&ServiceCd=320&Type=search", "url2": "http://www.kohoen.jp" }, "geometry": { "type": "Point", "coordinates": [ 133.311405233837803, 35.435589203861696 ] } },
{ "type": "Feature", "properties": { "内容": "グループホーム　なるみ【認知症対応型共同生活介護】鳥取県米子市奥谷１１８２－１", "url": "https://www.kaigokensaku.mhlw.go.jp/31/index.php?action_kouhyou_detail_004_kani=true&JigyosyoCd=3170201093-00&ServiceCd=320&Type=search", "url2": "http://www.kohoen.jp" }, "geometry": { "type": "Point", "coordinates": [ 133.346147100000053, 35.4097767 ] } },
{ "type": "Feature", "properties": { "内容": "グループホーム青松庵【認知症対応型共同生活介護】鳥取県米子市富益町235番地8", "url": "https://www.kaigokensaku.mhlw.go.jp/31/index.php?action_kouhyou_detail_004_kani=true&JigyosyoCd=3170201101-00&ServiceCd=320&Type=search", "url2": "http://www.hospitown.or.jp/" }, "geometry": { "type": "Point", "coordinates": [ 133.2779865, 35.4827545 ] } },
{ "type": "Feature", "properties": { "内容": "グループホーム高砂【認知症対応型共同生活介護】鳥取県米子市彦名町２０７８", "url": "https://www.kaigokensaku.mhlw.go.jp/31/index.php?action_kouhyou_detail_004_kani=true&JigyosyoCd=3170201127-00&ServiceCd=320&Type=search", "url2": "http://www.hapine.com" }, "geometry": { "type": "Point", "coordinates": [ 133.289325100000042, 35.4497693 ] } },
{ "type": "Feature", "properties": { "内容": "グループホームつつじ【認知症対応型共同生活介護】鳥取県米子市米原６丁目９番２３号", "url": "https://www.kaigokensaku.mhlw.go.jp/31/index.php?action_kouhyou_detail_004_kani=true&JigyosyoCd=3170201457-00&ServiceCd=320&Type=search", "url2": "http://www.nissyoukai.com/" }, "geometry": { "type": "Point", "coordinates": [ 133.334710500000028, 35.4446396 ] } },
{ "type": "Feature", "properties": { "内容": "グループホーム椿庵・桜庵【認知症対応型共同生活介護】鳥取県米子市和田町1722番地グループホーム椿庵・桜庵", "url": "https://www.kaigokensaku.mhlw.go.jp/31/index.php?action_kouhyou_detail_004_kani=true&JigyosyoCd=3190200265-00&ServiceCd=320&Type=search", "url2": "http://www.hospitown.or.jp/" }, "geometry": { "type": "Point", "coordinates": [ 133.267723400000023, 35.4851817 ] } },
{ "type": "Feature", "properties": { "内容": "グループホーム　　かみごとう【認知症対応型共同生活介護】鳥取県米子市両三柳1374グループホーム　かみごとう", "url": "https://www.kaigokensaku.mhlw.go.jp/31/index.php?action_kouhyou_detail_004_kani=true&JigyosyoCd=3170201085-00&ServiceCd=320&Type=search", "url2": "http://www.kohoen.jp" }, "geometry": { "type": "Point", "coordinates": [ 133.317853471163971, 35.448929360254837 ] } },
{ "type": "Feature", "properties": { "内容": "グループホーム　カルム米子【認知症対応型共同生活介護】鳥取県米子市冨士見町2丁目132番地", "url": "https://www.kaigokensaku.mhlw.go.jp/31/index.php?action_kouhyou_detail_004_kani=true&JigyosyoCd=3170201515-00&ServiceCd=320&Type=search", "url2": "https://calmekaigo.jp/yonago/" }, "geometry": { "type": "Point", "coordinates": [ 133.334147, 35.4323713 ] } },
{ "type": "Feature", "properties": { "内容": "けあビジョンホーム米子【認知症対応型共同生活介護】青木853番7", "url": "https://www.kaigokensaku.mhlw.go.jp/31/index.php?action_kouhyou_detail_004_kani=true&JigyosyoCd=3190200588-00&ServiceCd=320&Type=search", "url2": null }, "geometry": { "type": "Point", "coordinates": [ 133.365314, 35.39605 ] } },
{ "type": "Feature", "properties": { "内容": "グループホーム　はあとピア【認知症対応型共同生活介護】鳥取県米子市久米町２００番地", "url": "https://www.kaigokensaku.mhlw.go.jp/31/index.php?action_kouhyou_detail_004_kani=true&JigyosyoCd=3170200376-00&ServiceCd=320&Type=search", "url2": "http://www.hapine.com" }, "geometry": { "type": "Point", "coordinates": [ 133.3264646, 35.4252414 ] } },
{ "type": "Feature", "properties": { "内容": "グループホームサワヤカ【認知症対応型共同生活介護】皆生温泉1丁目16-10", "url": "https://www.kaigokensaku.mhlw.go.jp/31/index.php?action_kouhyou_detail_004_kani=true&JigyosyoCd=3170200830-00&ServiceCd=320&Type=search", "url2": null }, "geometry": { "type": "Point", "coordinates": [ 133.360106299999984, 35.4558115 ] } },
{ "type": "Feature", "properties": { "内容": "グループホーム　いずみの苑【認知症対応型共同生活介護】鳥取県米子市淀江町淀江1075番地", "url": "https://www.kaigokensaku.mhlw.go.jp/31/index.php?action_kouhyou_detail_004_kani=true&JigyosyoCd=3171500279-00&ServiceCd=320&Type=search", "url2": "https://www.izuminosono.or.jp" }, "geometry": { "type": "Point", "coordinates": [ 133.433632100000068, 35.4573423 ] } },
{ "type": "Feature", "properties": { "内容": "グループホームやまと【認知症対応型共同生活介護】鳥取県米子市淀江町佐陀1015-14", "url": "https://www.kaigokensaku.mhlw.go.jp/31/index.php?action_kouhyou_detail_004_kani=true&JigyosyoCd=3190200398-00&ServiceCd=320&Type=search", "url2": "https://www.med-wel.jp" }, "geometry": { "type": "Point", "coordinates": [ 133.399658600000066, 35.4489651 ] } },
{ "type": "Feature", "properties": { "内容": "グループホームすずかぜ【認知症対応型共同生活介護】鳥取県米子市二本木1108-7", "url": "https://www.kaigokensaku.mhlw.go.jp/31/index.php?action_kouhyou_detail_004_kani=true&JigyosyoCd=3190200430-00&ServiceCd=320&Type=search", "url2": null }, "geometry": { "type": "Point", "coordinates": [ 133.3894656, 35.4416572 ] } },
{ "type": "Feature", "properties": { "内容": "グループホームつばき【認知症対応型共同生活介護】鳥取県倉吉市余戸谷町３０５１番地１", "url": "https://www.kaigokensaku.mhlw.go.jp/31/index.php?action_kouhyou_detail_004_kani=true&JigyosyoCd=3170300531-00&ServiceCd=320&Type=search", "url2": "http://www.nissyoukai.com" }, "geometry": { "type": "Point", "coordinates": [ 133.811343099999931, 35.4279653 ] } },
{ "type": "Feature", "properties": { "内容": "グループホーム華つばき【認知症対応型共同生活介護】鳥取県倉吉市中河原７７１番地１", "url": "https://www.kaigokensaku.mhlw.go.jp/31/index.php?action_kouhyou_detail_004_kani=true&JigyosyoCd=3190300057-00&ServiceCd=320&Type=search", "url2": "http://www.nissyoukai.com" }, "geometry": { "type": "Point", "coordinates": [ 133.804081464170849, 35.415532368943531 ] } },
{ "type": "Feature", "properties": { "内容": "認知症高齢者グループホームいわきの里【認知症対応型共同生活介護】鳥取県倉吉市宮川町153-7", "url": "https://www.kaigokensaku.mhlw.go.jp/31/index.php?action_kouhyou_detail_004_kani=true&JigyosyoCd=3170300473-00&ServiceCd=320&Type=search", "url2": "http://kensuikai.net/gh_iwaki_no_sato.html" }, "geometry": { "type": "Point", "coordinates": [ 133.832349199999953, 35.4333764 ] } },
{ "type": "Feature", "properties": { "内容": "認知症高齢者グループホームしみず苑【認知症対応型共同生活介護】鳥取県倉吉市宮川町155-18", "url": "https://www.kaigokensaku.mhlw.go.jp/31/index.php?action_kouhyou_detail_004_kani=true&JigyosyoCd=3170300481-00&ServiceCd=320&Type=search", "url2": "http://kensuikai.net/gh_shimizu_en.html" }, "geometry": { "type": "Point", "coordinates": [ 133.832174200000054, 35.4331542 ] } },
{ "type": "Feature", "properties": { "内容": "グループホームそらいろ【認知症対応型共同生活介護】鳥取県倉吉市三江1281番1", "url": "https://www.kaigokensaku.mhlw.go.jp/31/index.php?action_kouhyou_detail_004_kani=true&JigyosyoCd=3190300115-00&ServiceCd=320&Type=search", "url2": "http://lightup-ltd.com" }, "geometry": { "type": "Point", "coordinates": [ 133.7693146, 35.4105052 ] } },
{ "type": "Feature", "properties": { "内容": "みのりグループホーム【認知症対応型共同生活介護】鳥取県倉吉市福守町490-3", "url": "https://www.kaigokensaku.mhlw.go.jp/31/index.php?action_kouhyou_detail_004_kani=true&JigyosyoCd=3170300283-00&ServiceCd=320&Type=search", "url2": "https://minorifukusikai.com" }, "geometry": { "type": "Point", "coordinates": [ 133.805677, 35.4352254 ] } },
{ "type": "Feature", "properties": { "内容": "（施設）地域ケアセンターマグノリア　　（事業所）グループホーム　マグノリア【認知症対応型共同生活介護】鳥取県倉吉市上井町１丁目２番１", "url": "https://www.kaigokensaku.mhlw.go.jp/31/index.php?action_kouhyou_detail_004_kani=true&JigyosyoCd=3170300408-00&ServiceCd=320&Type=search", "url2": "http://www.med-wel.jp" }, "geometry": { "type": "Point", "coordinates": [ 133.852544500000022, 35.4524498 ] } },
{ "type": "Feature", "properties": { "内容": "インターグループホーム【認知症対応型共同生活介護】鳥取県倉吉市福守町407-12", "url": "https://www.kaigokensaku.mhlw.go.jp/31/index.php?action_kouhyou_detail_004_kani=true&JigyosyoCd=3170300515-00&ServiceCd=320&Type=search", "url2": "https://minorifukusikai.com/" }, "geometry": { "type": "Point", "coordinates": [ 133.807215700000029, 35.4371336 ] } },
{ "type": "Feature", "properties": { "内容": "グループホームひまわり昭和町【認知症対応型共同生活介護】鳥取県倉吉市東昭和町143番地", "url": "https://www.kaigokensaku.mhlw.go.jp/31/index.php?action_kouhyou_detail_004_kani=true&JigyosyoCd=3170300267-00&ServiceCd=320&Type=search", "url2": "http://www.siseikai.com/" }, "geometry": { "type": "Point", "coordinates": [ 133.841373299999987, 35.4360847 ] } },
{ "type": "Feature", "properties": { "内容": "グループホームひまわり関金【認知症対応型共同生活介護】鳥取県倉吉市関金町関金宿1886番地", "url": "https://www.kaigokensaku.mhlw.go.jp/31/index.php?action_kouhyou_detail_004_kani=true&JigyosyoCd=3171400447-00&ServiceCd=320&Type=search", "url2": "http://www.siseikai.com/" }, "geometry": { "type": "Point", "coordinates": [ 133.762729, 35.3579321 ] } },
{ "type": "Feature", "properties": { "内容": "関金みのりグループホーム【認知症対応型共同生活介護】鳥取県倉吉市関金町関金宿1429-2", "url": "https://www.kaigokensaku.mhlw.go.jp/31/index.php?action_kouhyou_detail_004_kani=true&JigyosyoCd=3171400611-00&ServiceCd=320&Type=search", "url2": "https://minorifukusikai.com/" }, "geometry": { "type": "Point", "coordinates": [ 133.762806700000027, 35.3612373 ] } },
{ "type": "Feature", "properties": { "内容": "倉吉グループホームあずま園【認知症対応型共同生活介護】鳥取県倉吉市東巌城町472番地", "url": "https://www.kaigokensaku.mhlw.go.jp/31/index.php?action_kouhyou_detail_004_kani=true&JigyosyoCd=3190300065-00&ServiceCd=320&Type=search", "url2": null }, "geometry": { "type": "Point", "coordinates": [ 133.844107176057406, 35.44070544394571 ] } },
{ "type": "Feature", "properties": { "内容": "グループホームかりん【認知症対応型共同生活介護】鳥取県倉吉市西倉吉町17-4", "url": "https://www.kaigokensaku.mhlw.go.jp/31/index.php?action_kouhyou_detail_004_kani=true&JigyosyoCd=3190300081-00&ServiceCd=320&Type=search", "url2": "http://www.med-wel.jp" }, "geometry": { "type": "Point", "coordinates": [ 133.80523, 35.4263792 ] } },
{ "type": "Feature", "properties": { "内容": "グループホームひまわり昭和町Ⅱ【認知症対応型共同生活介護】鳥取県倉吉市東昭和町134番地", "url": "https://www.kaigokensaku.mhlw.go.jp/31/index.php?action_kouhyou_detail_004_kani=true&JigyosyoCd=3190300099-00&ServiceCd=320&Type=search", "url2": "http://www.siseikai.com/" }, "geometry": { "type": "Point", "coordinates": [ 133.840816252674472, 35.43665015279992 ] } },
{ "type": "Feature", "properties": { "内容": "グループホーム　あがりみち【認知症対応型共同生活介護】鳥取県境港市上道町２０８７－２", "url": "https://www.kaigokensaku.mhlw.go.jp/31/index.php?action_kouhyou_detail_004_kani=true&JigyosyoCd=3190400030-00&ServiceCd=320&Type=search", "url2": "http://www.kohoen.jp" }, "geometry": { "type": "Point", "coordinates": [ 133.240224500000068, 35.5418804 ] } },
{ "type": "Feature", "properties": { "内容": "けあビジョンホーム境港【認知症対応型共同生活介護】境港外江町2225-1", "url": "https://www.kaigokensaku.mhlw.go.jp/31/index.php?action_kouhyou_detail_004_kani=true&JigyosyoCd=3190400121-00&ServiceCd=320&Type=search", "url2": null }, "geometry": { "type": "Point", "coordinates": [ 133.2122875, 35.5366943 ] } },
{ "type": "Feature", "properties": { "内容": "グループホーム　みなと【認知症対応型共同生活介護】鳥取県境港市上道町2053-6", "url": "https://www.kaigokensaku.mhlw.go.jp/31/index.php?action_kouhyou_detail_004_kani=true&JigyosyoCd=3190400139-00&ServiceCd=320&Type=search", "url2": "http//www.kohoen.jp" }, "geometry": { "type": "Point", "coordinates": [ 133.239516200000025, 35.5421526 ] } },
{ "type": "Feature", "properties": { "内容": "グループホーム　ひので【認知症対応型共同生活介護】鳥取県境港市日ノ出町７８－２", "url": "https://www.kaigokensaku.mhlw.go.jp/31/index.php?action_kouhyou_detail_004_kani=true&JigyosyoCd=3170400190-00&ServiceCd=320&Type=search", "url2": "http://www.kohoen.jp" }, "geometry": { "type": "Point", "coordinates": [ 133.23086950000004, 35.5447579 ] } },
{ "type": "Feature", "properties": { "内容": "社会福祉法人　境港福祉会　グループホーム夕日ヶ丘【認知症対応型共同生活介護】鳥取県境港市夕日ヶ丘二丁目１００番地", "url": "https://www.kaigokensaku.mhlw.go.jp/31/index.php?action_kouhyou_detail_004_kani=true&JigyosyoCd=3170400182-00&ServiceCd=320&Type=search", "url2": "http://shakaifukushisakaiminatofukushikai.hp.gogo.jp/pc/index.html" }, "geometry": { "type": "Point", "coordinates": [ 133.219871300000023, 35.5068751 ] } },
{ "type": "Feature", "properties": { "内容": "社会福祉法人　境港福祉会　グループホーム夕日ヶ丘二番館【認知症対応型共同生活介護】鳥取県境港市夕日ヶ丘二丁目92番地", "url": "https://www.kaigokensaku.mhlw.go.jp/31/index.php?action_kouhyou_detail_004_kani=true&JigyosyoCd=3190400048-00&ServiceCd=320&Type=search", "url2": "http://shakaifukushisakaiminatofukushikai.hp.gogo.jp/pc/info.html" }, "geometry": { "type": "Point", "coordinates": [ 133.220390700000053, 35.5063724 ] } },
{ "type": "Feature", "properties": { "内容": "グループホーム　松風の郷　浦富【認知症対応型共同生活介護】鳥取県岩美郡岩美町浦富1418-2", "url": "https://www.kaigokensaku.mhlw.go.jp/31/index.php?action_kouhyou_detail_004_kani=true&JigyosyoCd=3171100104-00&ServiceCd=320&Type=search", "url2": "http://www.hyogofukushi.com" }, "geometry": { "type": "Point", "coordinates": [ 134.331281, 35.583903 ] } },
{ "type": "Feature", "properties": { "内容": "グループホーム　松風の郷　東浜【認知症対応型共同生活介護】鳥取県岩美郡岩美町大字陸上４９４番地", "url": "https://www.kaigokensaku.mhlw.go.jp/31/index.php?action_kouhyou_detail_004_kani=true&JigyosyoCd=3171100112-00&ServiceCd=320&Type=search", "url2": "https://hyogofukushi.com/about/" }, "geometry": { "type": "Point", "coordinates": [ 134.363264100000038, 35.5999656 ] } },
{ "type": "Feature", "properties": { "内容": "グループホーム幸風【認知症対応型共同生活介護】鳥取県岩美郡岩美町大字浦富字小堤４３４－２５", "url": "https://www.kaigokensaku.mhlw.go.jp/31/index.php?action_kouhyou_detail_004_kani=true&JigyosyoCd=3171100096-00&ServiceCd=320&Type=search", "url2": null }, "geometry": { "type": "Point", "coordinates": [ 134.332089699999983, 35.5759927 ] } },
{ "type": "Feature", "properties": { "内容": "グループホーム陽だまりの家ふなおか【認知症対応型共同生活介護】鳥取県八頭郡八頭町船岡４８６－２", "url": "https://www.kaigokensaku.mhlw.go.jp/31/index.php?action_kouhyou_detail_004_kani=true&JigyosyoCd=3171200417-00&ServiceCd=320&Type=search", "url2": null }, "geometry": { "type": "Point", "coordinates": [ 134.251704300000029, 35.392065 ] } },
{ "type": "Feature", "properties": { "内容": "グループホーム　仁の里【認知症対応型共同生活介護】鳥取県東伯郡三朝町山田１０８番５", "url": "https://www.kaigokensaku.mhlw.go.jp/31/index.php?action_kouhyou_detail_004_kani=true&JigyosyoCd=3191400120-00&ServiceCd=320&Type=search", "url2": "http://www.sankien.jp" }, "geometry": { "type": "Point", "coordinates": [ 133.8883763, 35.414135 ] } },
{ "type": "Feature", "properties": { "内容": "グル－プホ－ム　なの花【認知症対応型共同生活介護】鳥取県東伯郡三朝町大瀬1012番地グル－プホ－ム　なの花", "url": "https://www.kaigokensaku.mhlw.go.jp/31/index.php?action_kouhyou_detail_004_kani=true&JigyosyoCd=3191400013-00&ServiceCd=320&Type=search", "url2": "http://aikeikai-nanohana.jp/" }, "geometry": { "type": "Point", "coordinates": [ 133.863769600000069, 35.4084746 ] } },
{ "type": "Feature", "properties": { "内容": "グループホームみのりかじか【認知症対応型共同生活介護】鳥取県東伯郡三朝町山田653-1", "url": "https://www.kaigokensaku.mhlw.go.jp/31/index.php?action_kouhyou_detail_004_kani=true&JigyosyoCd=3171400454-00&ServiceCd=320&Type=search", "url2": "https://www.minorifukusikai.com" }, "geometry": { "type": "Point", "coordinates": [ 133.886084699999969, 35.4135712 ] } },
{ "type": "Feature", "properties": { "内容": "グループホーム　ル・サンテリオン東郷【認知症対応型共同生活介護】鳥取県東伯郡湯梨浜町野花443番地1", "url": "https://www.kaigokensaku.mhlw.go.jp/31/index.php?action_kouhyou_detail_004_kani=true&JigyosyoCd=3171400405-00&ServiceCd=320&Type=search", "url2": "https://www.med-wel.jp/" }, "geometry": { "type": "Point", "coordinates": [ 133.890257099999985, 35.4637077 ] } },
{ "type": "Feature", "properties": { "内容": "グループホーム　信生　ゆりはまの里【認知症対応型共同生活介護】鳥取県東伯郡湯梨浜町はわい温泉58-6", "url": "https://www.kaigokensaku.mhlw.go.jp/31/index.php?action_kouhyou_detail_004_kani=true&JigyosyoCd=3171400710-00&ServiceCd=320&Type=search", "url2": "http//sinseiso.tkc.best-hp.jp" }, "geometry": { "type": "Point", "coordinates": [ 133.87978279999993, 35.4757754 ] } },
{ "type": "Feature", "properties": { "内容": "はわいグループホームあずま園【認知症対応型共同生活介護】鳥取県東伯郡湯梨浜町光吉107－35", "url": "https://www.kaigokensaku.mhlw.go.jp/31/index.php?action_kouhyou_detail_004_kani=true&JigyosyoCd=3191400146-00&ServiceCd=320&Type=search", "url2": "http://www.azumaen.net/" }, "geometry": { "type": "Point", "coordinates": [ 133.878657400000066, 35.4918953 ] } },
{ "type": "Feature", "properties": { "内容": "グループホーム　ゆりはま【認知症対応型共同生活介護】鳥取県東伯郡湯梨浜町長江310-77", "url": "https://www.kaigokensaku.mhlw.go.jp/31/index.php?action_kouhyou_detail_004_kani=true&JigyosyoCd=3191400153-00&ServiceCd=320&Type=search", "url2": "https://www.med-wel.jp/" }, "geometry": { "type": "Point", "coordinates": [ 133.87732041145432, 35.47488221982271 ] } },
{ "type": "Feature", "properties": { "内容": "グループホーム陽だまりの家とうはく【認知症対応型共同生活介護】鳥取県東伯郡琴浦町徳万７０－１", "url": "https://www.kaigokensaku.mhlw.go.jp/31/index.php?action_kouhyou_detail_004_kani=true&JigyosyoCd=3171400421-00&ServiceCd=320&Type=search", "url2": "http://www.solhem.jp" }, "geometry": { "type": "Point", "coordinates": [ 133.696097300000019, 35.5018558 ] } },
{ "type": "Feature", "properties": { "内容": "グループホーム　陽だまりの家ことうら【認知症対応型共同生活介護】鳥取県東伯郡琴浦町逢束１２３－１", "url": "https://www.kaigokensaku.mhlw.go.jp/31/index.php?action_kouhyou_detail_004_kani=true&JigyosyoCd=3191400088-00&ServiceCd=320&Type=search", "url2": "http://www.solhem.jp/" }, "geometry": { "type": "Point", "coordinates": [ 133.709001199999989, 35.5036695 ] } },
{ "type": "Feature", "properties": { "内容": "グループホームともさん家【認知症対応型共同生活介護】鳥取県東伯郡琴浦町大字逢束１２１３番地１", "url": "https://www.kaigokensaku.mhlw.go.jp/31/index.php?action_kouhyou_detail_004_kani=true&JigyosyoCd=3171400348-00&ServiceCd=320&Type=search", "url2": "https://www.morimoto-med1977.jp" }, "geometry": { "type": "Point", "coordinates": [ 133.697147200000018, 35.5000837 ] } },
{ "type": "Feature", "properties": { "内容": "グループホームあかさき【認知症対応型共同生活介護】鳥取県東伯郡琴浦町赤碕１０６２－４", "url": "https://www.kaigokensaku.mhlw.go.jp/31/index.php?action_kouhyou_detail_004_kani=true&JigyosyoCd=3171400397-00&ServiceCd=320&Type=search", "url2": "https://www.hyakujuen.jp/" }, "geometry": { "type": "Point", "coordinates": [ 133.63194390000001, 35.5170954 ] } },
{ "type": "Feature", "properties": { "内容": "グループホームきらり【認知症対応型共同生活介護】鳥取県東伯郡琴浦町赤碕2540-5", "url": "https://www.kaigokensaku.mhlw.go.jp/31/index.php?action_kouhyou_detail_004_kani=true&JigyosyoCd=3191400021-00&ServiceCd=320&Type=search", "url2": "http://www.hyakujyuen.jp/" }, "geometry": { "type": "Point", "coordinates": [ 133.635035600000037, 35.504535 ] } },
{ "type": "Feature", "properties": { "内容": "グループホームはなみ【認知症対応型共同生活介護】鳥取県東伯郡琴浦町赤碕10７８-7", "url": "https://www.kaigokensaku.mhlw.go.jp/31/index.php?action_kouhyou_detail_004_kani=true&JigyosyoCd=3191400104-00&ServiceCd=320&Type=search", "url2": "https://www.hyakujyuen.jp" }, "geometry": { "type": "Point", "coordinates": [ 133.632890028944416, 35.517457376177966 ] } },
{ "type": "Feature", "properties": { "内容": "グループホーム　あずま園【認知症対応型共同生活介護】鳥取県東伯郡北栄町東園331-1", "url": "https://www.kaigokensaku.mhlw.go.jp/31/index.php?action_kouhyou_detail_004_kani=true&JigyosyoCd=3171400595-00&ServiceCd=320&Type=search", "url2": "http://azumaen.net/index.php" }, "geometry": { "type": "Point", "coordinates": [ 133.782908600000042, 35.4874136 ] } },
{ "type": "Feature", "properties": { "内容": "グループホーム　こころの里【認知症対応型共同生活介護】鳥取県東伯郡北栄町瀬戸45-2宮川医院2階", "url": "https://www.kaigokensaku.mhlw.go.jp/31/index.php?action_kouhyou_detail_004_kani=true&JigyosyoCd=3171400223-00&ServiceCd=320&Type=search", "url2": "http://seiikai.hp.gogo.jp" }, "geometry": { "type": "Point", "coordinates": [ 133.775720836770716, 35.482915832163158 ] } },
{ "type": "Feature", "properties": { "内容": "認知症高齢者グループホーム北条【認知症対応型共同生活介護】鳥取県東伯郡北栄町土下123-1", "url": "https://www.kaigokensaku.mhlw.go.jp/31/index.php?action_kouhyou_detail_004_kani=true&JigyosyoCd=3171400470-00&ServiceCd=320&Type=search", "url2": "https://www.med-wel.jp/houjou/" }, "geometry": { "type": "Point", "coordinates": [ 133.81999159999998, 35.4787737 ] } },
{ "type": "Feature", "properties": { "内容": "北栄みのりグループホーム【認知症対応型共同生活介護】鳥取県東伯郡北栄町東園219-1", "url": "https://www.kaigokensaku.mhlw.go.jp/31/index.php?action_kouhyou_detail_004_kani=true&JigyosyoCd=3171400694-00&ServiceCd=320&Type=search", "url2": "https://minorifukusikai.com/" }, "geometry": { "type": "Point", "coordinates": [ 133.788713599999937, 35.486261 ] } },
{ "type": "Feature", "properties": { "内容": "チューリップホーム（グループホームひえづ）【認知症対応型共同生活介護】鳥取県西伯郡日吉津村今吉204-1", "url": "https://www.kaigokensaku.mhlw.go.jp/31/index.php?action_kouhyou_detail_004_kani=true&JigyosyoCd=3171500519-00&ServiceCd=320&Type=search", "url2": "http://kimachi-kazuki.org" }, "geometry": { "type": "Point", "coordinates": [ 133.382651799999962, 35.454145 ] } },
{ "type": "Feature", "properties": { "内容": "グループホーム　陽だまりの家　なかやま【認知症対応型共同生活介護】鳥取県西伯郡大山町塩津７６３番地２", "url": "https://www.kaigokensaku.mhlw.go.jp/31/index.php?action_kouhyou_detail_004_kani=true&JigyosyoCd=3171500543-00&ServiceCd=320&Type=search", "url2": "http://www.solhem.jp" }, "geometry": { "type": "Point", "coordinates": [ 133.5684738, 35.5227959 ] } },
{ "type": "Feature", "properties": { "内容": "グループホーム　ばんだの里【認知症対応型共同生活介護】鳥取県西伯郡大山町安原1118-1", "url": "https://www.kaigokensaku.mhlw.go.jp/31/index.php?action_kouhyou_detail_004_kani=true&JigyosyoCd=3171500394-00&ServiceCd=320&Type=search", "url2": null }, "geometry": { "type": "Point", "coordinates": [ 133.440992, 35.4670078 ] } },
{ "type": "Feature", "properties": { "内容": "グループホーム　おちあい【認知症対応型共同生活介護】鳥取県西伯郡南部町落合４８０番地", "url": "https://www.kaigokensaku.mhlw.go.jp/31/index.php?action_kouhyou_detail_004_kani=true&JigyosyoCd=3191500044-00&ServiceCd=320&Type=search", "url2": "yuraku-houki.net" }, "geometry": { "type": "Point", "coordinates": [ 133.328396200000043, 35.338 ] } },
{ "type": "Feature", "properties": { "内容": "グループホーム　あゆみ【認知症対応型共同生活介護】鳥取県西伯郡伯耆町大殿1089-8", "url": "https://www.kaigokensaku.mhlw.go.jp/31/index.php?action_kouhyou_detail_004_kani=true&JigyosyoCd=3191500101-00&ServiceCd=320&Type=search", "url2": "http://www.akari-ayumi.jp/" }, "geometry": { "type": "Point", "coordinates": [ 133.398406044844052, 35.38708672661361 ] } },
{ "type": "Feature", "properties": { "内容": "グループホーム　なごみ【認知症対応型共同生活介護】鳥取県西伯郡伯耆町長山１７１番地", "url": "https://www.kaigokensaku.mhlw.go.jp/31/index.php?action_kouhyou_detail_004_kani=true&JigyosyoCd=3171600228-00&ServiceCd=320&Type=search", "url2": null }, "geometry": { "type": "Point", "coordinates": [ 133.4365434, 35.3504899 ] } },
{ "type": "Feature", "properties": { "内容": "グループホームあさひの郷【認知症対応型共同生活介護】鳥取県日野郡日南町生山３９７－１グループホーム　あさひの郷", "url": "https://www.kaigokensaku.mhlw.go.jp/31/index.php?action_kouhyou_detail_004_kani=true&JigyosyoCd=3191600042-00&ServiceCd=320&Type=search", "url2": null }, "geometry": { "type": "Point", "coordinates": [ 133.311832500000037, 35.1702825 ] } },
{ "type": "Feature", "properties": { "内容": "医療法人社団日翔会　グループホームいちょうの木【認知症対応型共同生活介護】鳥取県日野郡日野町根雨８９９－１", "url": "https://www.kaigokensaku.mhlw.go.jp/31/index.php?action_kouhyou_detail_004_kani=true&JigyosyoCd=3171600236-00&ServiceCd=320&Type=search", "url2": "iryouhoujinsyadan@nissyoukai.com" }, "geometry": { "type": "Point", "coordinates": [ 133.440103300000033, 35.234317 ] } },
{ "type": "Feature", "properties": { "内容": "グループホーム江美の郷【認知症対応型共同生活介護】鳥取県日野郡江府町大字久連7番地", "url": "https://www.kaigokensaku.mhlw.go.jp/31/index.php?action_kouhyou_detail_004_kani=true&JigyosyoCd=3171600269-00&ServiceCd=320&Type=search", "url2": "http://www.syoujin.or.jp" }, "geometry": { "type": "Point", "coordinates": [ 133.483059, 35.281851 ] } }
]
}
