{
"type": "FeatureCollection",
"name": "geo_31_3",
"crs": { "type": "name", "properties": { "name": "urn:ogc:def:crs:OGC:1.3:CRS84" } },
"features": [
{ "type": "Feature", "properties": { "ID": "313DE010002", "正式名称": "アルファ矯正歯科", "機関区分": 3, "都道府県コード": 31, "市区町村コード": 201, "所在地": "鳥取県鳥取市東品治町シャミネ鳥取", "緯度": 35.494473, "経度": 134.22679, "url": "https://www.iryou.teikyouseido.mhlw.go.jp/znk-web/juminkanja/S2430/initialize?prefCd=31&kikanCd=DE010002&kikanKbn=3", "url2": null, "内容": "アルファ矯正歯科【3:歯科】鳥取県鳥取市東品治町シャミネ鳥取" }, "geometry": { "type": "Point", "coordinates": [ 134.22679, 35.494473 ] } },
{ "type": "Feature", "properties": { "ID": "313DE010003", "正式名称": "池田歯科医院", "機関区分": 3, "都道府県コード": 31, "市区町村コード": 201, "所在地": "鳥取県鳥取市湖山町西２－１１０", "緯度": 35.522362, "経度": 134.161844, "url": "https://www.iryou.teikyouseido.mhlw.go.jp/znk-web/juminkanja/S2430/initialize?prefCd=31&kikanCd=DE010003&kikanKbn=3", "url2": null, "内容": "池田歯科医院【3:歯科】鳥取県鳥取市湖山町西２－１１０" }, "geometry": { "type": "Point", "coordinates": [ 134.161844, 35.522362 ] } },
{ "type": "Feature", "properties": { "ID": "313DE010004", "正式名称": "医療法人社団因幡会いしかわ歯科", "機関区分": 3, "都道府県コード": 31, "市区町村コード": 201, "所在地": "鳥取県鳥取市千代水３丁目１番地", "緯度": 35.516917, "経度": 134.201861, "url": "https://www.iryou.teikyouseido.mhlw.go.jp/znk-web/juminkanja/S2430/initialize?prefCd=31&kikanCd=DE010004&kikanKbn=3", "url2": null, "内容": "医療法人社団因幡会いしかわ歯科【3:歯科】鳥取県鳥取市千代水３丁目１番地" }, "geometry": { "type": "Point", "coordinates": [ 134.201861, 35.516917 ] } },
{ "type": "Feature", "properties": { "ID": "313DE0100052", "正式名称": "医療法人社団　広田歯科医院", "機関区分": 3, "都道府県コード": 31, "市区町村コード": 201, "所在地": "鳥取県鳥取市湖山町南２丁目１５３", "緯度": 35.512629, "経度": 134.183119, "url": "https://www.iryou.teikyouseido.mhlw.go.jp/znk-web/juminkanja/S2430/initialize?prefCd=31&kikanCd=DE0100052&kikanKbn=3", "url2": null, "内容": "医療法人社団　広田歯科医院【3:歯科】鳥取県鳥取市湖山町南２丁目１５３" }, "geometry": { "type": "Point", "coordinates": [ 134.183119, 35.512629 ] } },
{ "type": "Feature", "properties": { "ID": "313DE010007", "正式名称": "いながき歯科医院", "機関区分": 3, "都道府県コード": 31, "市区町村コード": 201, "所在地": "鳥取県鳥取市商栄町３９８－８", "緯度": 35.517288, "経度": 134.206626, "url": "https://www.iryou.teikyouseido.mhlw.go.jp/znk-web/juminkanja/S2430/initialize?prefCd=31&kikanCd=DE010007&kikanKbn=3", "url2": null, "内容": "いながき歯科医院【3:歯科】鳥取県鳥取市商栄町３９８－８" }, "geometry": { "type": "Point", "coordinates": [ 134.206626, 35.517288 ] } },
{ "type": "Feature", "properties": { "ID": "313DE010008", "正式名称": "今田歯科医院", "機関区分": 3, "都道府県コード": 31, "市区町村コード": 201, "所在地": "鳥取県鳥取市吉方温泉３丁目１６８", "緯度": 35.492592, "経度": 134.235342, "url": "https://www.iryou.teikyouseido.mhlw.go.jp/znk-web/juminkanja/S2430/initialize?prefCd=31&kikanCd=DE010008&kikanKbn=3", "url2": null, "内容": "今田歯科医院【3:歯科】鳥取県鳥取市吉方温泉３丁目１６８" }, "geometry": { "type": "Point", "coordinates": [ 134.235342, 35.492592 ] } },
{ "type": "Feature", "properties": { "ID": "313DE010009", "正式名称": "今田歯科岩倉医院", "機関区分": 3, "都道府県コード": 31, "市区町村コード": 201, "所在地": "鳥取県鳥取市岩倉４５１－１", "緯度": 35.484581, "経度": 134.256914, "url": "https://www.iryou.teikyouseido.mhlw.go.jp/znk-web/juminkanja/S2430/initialize?prefCd=31&kikanCd=DE010009&kikanKbn=3", "url2": null, "内容": "今田歯科岩倉医院【3:歯科】鳥取県鳥取市岩倉４５１－１" }, "geometry": { "type": "Point", "coordinates": [ 134.256914, 35.484581 ] } },
{ "type": "Feature", "properties": { "ID": "313DE010010", "正式名称": "今宮歯科クリニック", "機関区分": 3, "都道府県コード": 31, "市区町村コード": 201, "所在地": "鳥取県鳥取市湖山町北６丁目３３０－１６", "緯度": 35.520439, "経度": 134.183408, "url": "https://www.iryou.teikyouseido.mhlw.go.jp/znk-web/juminkanja/S2430/initialize?prefCd=31&kikanCd=DE010010&kikanKbn=3", "url2": null, "内容": "今宮歯科クリニック【3:歯科】鳥取県鳥取市湖山町北６丁目３３０－１６" }, "geometry": { "type": "Point", "coordinates": [ 134.183408, 35.520439 ] } },
{ "type": "Feature", "properties": { "ID": "313DE010011", "正式名称": "いわい歯科", "機関区分": 3, "都道府県コード": 31, "市区町村コード": 201, "所在地": "鳥取県鳥取市朝月２１－４", "緯度": 35.4638, "経度": 134.203086, "url": "https://www.iryou.teikyouseido.mhlw.go.jp/znk-web/juminkanja/S2430/initialize?prefCd=31&kikanCd=DE010011&kikanKbn=3", "url2": null, "内容": "いわい歯科【3:歯科】鳥取県鳥取市朝月２１－４" }, "geometry": { "type": "Point", "coordinates": [ 134.203086, 35.4638 ] } },
{ "type": "Feature", "properties": { "ID": "313DE010012", "正式名称": "うえた歯科", "機関区分": 3, "都道府県コード": 31, "市区町村コード": 201, "所在地": "鳥取県鳥取市江津３７５－４", "緯度": 35.523747, "経度": 134.215184, "url": "https://www.iryou.teikyouseido.mhlw.go.jp/znk-web/juminkanja/S2430/initialize?prefCd=31&kikanCd=DE010012&kikanKbn=3", "url2": null, "内容": "うえた歯科【3:歯科】鳥取県鳥取市江津３７５－４" }, "geometry": { "type": "Point", "coordinates": [ 134.215184, 35.523747 ] } },
{ "type": "Feature", "properties": { "ID": "313DE010013", "正式名称": "医療法人上田歯科医院", "機関区分": 3, "都道府県コード": 31, "市区町村コード": 201, "所在地": "鳥取県鳥取市西町１ー４５４", "緯度": 35.50435, "経度": 134.23431, "url": "https://www.iryou.teikyouseido.mhlw.go.jp/znk-web/juminkanja/S2430/initialize?prefCd=31&kikanCd=DE010013&kikanKbn=3", "url2": null, "内容": "医療法人上田歯科医院【3:歯科】鳥取県鳥取市西町１ー４５４" }, "geometry": { "type": "Point", "coordinates": [ 134.23431, 35.50435 ] } },
{ "type": "Feature", "properties": { "ID": "313DE010014", "正式名称": "扇町中村歯科医院", "機関区分": 3, "都道府県コード": 31, "市区町村コード": 201, "所在地": "鳥取県鳥取市扇町３４ー１", "緯度": 35.490794, "経度": 134.225675, "url": "https://www.iryou.teikyouseido.mhlw.go.jp/znk-web/juminkanja/S2430/initialize?prefCd=31&kikanCd=DE010014&kikanKbn=3", "url2": null, "内容": "扇町中村歯科医院【3:歯科】鳥取県鳥取市扇町３４ー１" }, "geometry": { "type": "Point", "coordinates": [ 134.225675, 35.490794 ] } },
{ "type": "Feature", "properties": { "ID": "313DE010016", "正式名称": "おおもり歯科クリニック", "機関区分": 3, "都道府県コード": 31, "市区町村コード": 201, "所在地": "鳥取県鳥取市南隈５７１", "緯度": 35.521806, "経度": 134.199911, "url": "https://www.iryou.teikyouseido.mhlw.go.jp/znk-web/juminkanja/S2430/initialize?prefCd=31&kikanCd=DE010016&kikanKbn=3", "url2": null, "内容": "おおもり歯科クリニック【3:歯科】鳥取県鳥取市南隈５７１" }, "geometry": { "type": "Point", "coordinates": [ 134.199911, 35.521806 ] } },
{ "type": "Feature", "properties": { "ID": "313DE010017", "正式名称": "荻原歯科医院", "機関区分": 3, "都道府県コード": 31, "市区町村コード": 201, "所在地": "鳥取県鳥取市河原町長瀬４３－３", "緯度": 35.409508, "経度": 134.199606, "url": "https://www.iryou.teikyouseido.mhlw.go.jp/znk-web/juminkanja/S2430/initialize?prefCd=31&kikanCd=DE010017&kikanKbn=3", "url2": null, "内容": "荻原歯科医院【3:歯科】鳥取県鳥取市河原町長瀬４３－３" }, "geometry": { "type": "Point", "coordinates": [ 134.199606, 35.409508 ] } },
{ "type": "Feature", "properties": { "ID": "313DE010018", "正式名称": "尾崎歯科クリニック", "機関区分": 3, "都道府県コード": 31, "市区町村コード": 201, "所在地": "鳥取県鳥取市末広温泉町６０１", "緯度": 35.494565, "経度": 134.23073, "url": "https://www.iryou.teikyouseido.mhlw.go.jp/znk-web/juminkanja/S2430/initialize?prefCd=31&kikanCd=DE010018&kikanKbn=3", "url2": null, "内容": "尾崎歯科クリニック【3:歯科】鳥取県鳥取市末広温泉町６０１" }, "geometry": { "type": "Point", "coordinates": [ 134.23073, 35.494565 ] } },
{ "type": "Feature", "properties": { "ID": "313DE010019", "正式名称": "筧　歯科医院", "機関区分": 3, "都道府県コード": 31, "市区町村コード": 201, "所在地": "鳥取県鳥取市吉方町二丁目５５１番地", "緯度": 35.492133, "経度": 134.239739, "url": "https://www.iryou.teikyouseido.mhlw.go.jp/znk-web/juminkanja/S2430/initialize?prefCd=31&kikanCd=DE010019&kikanKbn=3", "url2": null, "内容": "筧　歯科医院【3:歯科】鳥取県鳥取市吉方町二丁目５５１番地" }, "geometry": { "type": "Point", "coordinates": [ 134.239739, 35.492133 ] } },
{ "type": "Feature", "properties": { "ID": "313DE010020", "正式名称": "かすやファミリー歯科", "機関区分": 3, "都道府県コード": 31, "市区町村コード": 201, "所在地": "鳥取県鳥取市若桜町５０－１", "緯度": 35.478479, "経度": 134.250832, "url": "https://www.iryou.teikyouseido.mhlw.go.jp/znk-web/juminkanja/S2430/initialize?prefCd=31&kikanCd=DE010020&kikanKbn=3", "url2": "https://tottori-kasuyadc.jp", "内容": "かすやファミリー歯科【3:歯科】鳥取県鳥取市若桜町５０－１" }, "geometry": { "type": "Point", "coordinates": [ 134.250832, 35.478479 ] } },
{ "type": "Feature", "properties": { "ID": "313DE010021", "正式名称": "門下歯科医院", "機関区分": 3, "都道府県コード": 31, "市区町村コード": 201, "所在地": "鳥取県鳥取市吉方温泉３丁目６６２番地", "緯度": 35.491025, "経度": 134.235628, "url": "https://www.iryou.teikyouseido.mhlw.go.jp/znk-web/juminkanja/S2430/initialize?prefCd=31&kikanCd=DE010021&kikanKbn=3", "url2": null, "内容": "門下歯科医院【3:歯科】鳥取県鳥取市吉方温泉３丁目６６２番地" }, "geometry": { "type": "Point", "coordinates": [ 134.235628, 35.491025 ] } },
{ "type": "Feature", "properties": { "ID": "313DE010022", "正式名称": "医療法人　聡優会　かのう歯科医院", "機関区分": 3, "都道府県コード": 31, "市区町村コード": 201, "所在地": "鳥取県鳥取市湖山町東一丁目２５１番地１", "緯度": 35.515782, "経度": 134.184501, "url": "https://www.iryou.teikyouseido.mhlw.go.jp/znk-web/juminkanja/S2430/initialize?prefCd=31&kikanCd=DE010022&kikanKbn=3", "url2": "https://www.kanohdentaloffice.com", "内容": "医療法人　聡優会　かのう歯科医院【3:歯科】鳥取県鳥取市湖山町東一丁目２５１番地１" }, "geometry": { "type": "Point", "coordinates": [ 134.184501, 35.515782 ] } },
{ "type": "Feature", "properties": { "ID": "313DE010023", "正式名称": "河原歯科クリニック", "機関区分": 3, "都道府県コード": 31, "市区町村コード": 201, "所在地": "鳥取県鳥取市富安安２丁目１５９番地久本ビル２Ｆ", "緯度": 35.492647, "経度": 134.227236, "url": "https://www.iryou.teikyouseido.mhlw.go.jp/znk-web/juminkanja/S2430/initialize?prefCd=31&kikanCd=DE010023&kikanKbn=3", "url2": null, "内容": "河原歯科クリニック【3:歯科】鳥取県鳥取市富安安２丁目１５９番地久本ビル２Ｆ" }, "geometry": { "type": "Point", "coordinates": [ 134.227236, 35.492647 ] } },
{ "type": "Feature", "properties": { "ID": "313DE010024", "正式名称": "キシノ歯科医院", "機関区分": 3, "都道府県コード": 31, "市区町村コード": 201, "所在地": "鳥取県鳥取市吉成７７９－４０", "緯度": 35.479744, "経度": 134.218994, "url": "https://www.iryou.teikyouseido.mhlw.go.jp/znk-web/juminkanja/S2430/initialize?prefCd=31&kikanCd=DE010024&kikanKbn=3", "url2": null, "内容": "キシノ歯科医院【3:歯科】鳥取県鳥取市吉成７７９－４０" }, "geometry": { "type": "Point", "coordinates": [ 134.218994, 35.479744 ] } },
{ "type": "Feature", "properties": { "ID": "313DE010025", "正式名称": "鳥取県東部歯科医師会　休日急患歯科診療所", "機関区分": 3, "都道府県コード": 31, "市区町村コード": 201, "所在地": "鳥取県鳥取市富安２丁目８４番地", "緯度": 35.490026, "経度": 134.229129, "url": "https://www.iryou.teikyouseido.mhlw.go.jp/znk-web/juminkanja/S2430/initialize?prefCd=31&kikanCd=DE010025&kikanKbn=3", "url2": "https://tottori-tobu-dent.com/", "内容": "鳥取県東部歯科医師会　休日急患歯科診療所【3:歯科】鳥取県鳥取市富安２丁目８４番地" }, "geometry": { "type": "Point", "coordinates": [ 134.229129, 35.490026 ] } },
{ "type": "Feature", "properties": { "ID": "313DE010026", "正式名称": "くすだ矯正歯科医院", "機関区分": 3, "都道府県コード": 31, "市区町村コード": 201, "所在地": "鳥取県鳥取市秋里１２８４くすだ矯正歯科医院", "緯度": 35.51927, "経度": 134.21448, "url": "https://www.iryou.teikyouseido.mhlw.go.jp/znk-web/juminkanja/S2430/initialize?prefCd=31&kikanCd=DE010026&kikanKbn=3", "url2": null, "内容": "くすだ矯正歯科医院【3:歯科】鳥取県鳥取市秋里１２８４くすだ矯正歯科医院" }, "geometry": { "type": "Point", "coordinates": [ 134.21448, 35.51927 ] } },
{ "type": "Feature", "properties": { "ID": "313DE010027", "正式名称": "こはま歯科医院", "機関区分": 3, "都道府県コード": 31, "市区町村コード": 201, "所在地": "鳥取県鳥取市宮長３－３", "緯度": 35.4805, "経度": 134.226692, "url": "https://www.iryou.teikyouseido.mhlw.go.jp/znk-web/juminkanja/S2430/initialize?prefCd=31&kikanCd=DE010027&kikanKbn=3", "url2": null, "内容": "こはま歯科医院【3:歯科】鳥取県鳥取市宮長３－３" }, "geometry": { "type": "Point", "coordinates": [ 134.226692, 35.4805 ] } },
{ "type": "Feature", "properties": { "ID": "313DE010028", "正式名称": "後藤歯科医院", "機関区分": 3, "都道府県コード": 31, "市区町村コード": 201, "所在地": "鳥取県鳥取市扇町５８番地ナカヤビル３階", "緯度": 35.49143, "経度": 134.2237, "url": "https://www.iryou.teikyouseido.mhlw.go.jp/znk-web/juminkanja/S2430/initialize?prefCd=31&kikanCd=DE010028&kikanKbn=3", "url2": null, "内容": "後藤歯科医院【3:歯科】鳥取県鳥取市扇町５８番地ナカヤビル３階" }, "geometry": { "type": "Point", "coordinates": [ 134.2237, 35.49143 ] } },
{ "type": "Feature", "properties": { "ID": "313DE010030", "正式名称": "坂本歯科医院", "機関区分": 3, "都道府県コード": 31, "市区町村コード": 201, "所在地": "鳥取県鳥取市今町１－１３４", "緯度": 35.496892, "経度": 134.2252, "url": "https://www.iryou.teikyouseido.mhlw.go.jp/znk-web/juminkanja/S2430/initialize?prefCd=31&kikanCd=DE010030&kikanKbn=3", "url2": null, "内容": "坂本歯科医院【3:歯科】鳥取県鳥取市今町１－１３４" }, "geometry": { "type": "Point", "coordinates": [ 134.2252, 35.496892 ] } },
{ "type": "Feature", "properties": { "ID": "313DE010031", "正式名称": "佐々木歯科医院", "機関区分": 3, "都道府県コード": 31, "市区町村コード": 201, "所在地": "鳥取県鳥取市商栄町１５６番地３", "緯度": 35.513394, "経度": 134.208182, "url": "https://www.iryou.teikyouseido.mhlw.go.jp/znk-web/juminkanja/S2430/initialize?prefCd=31&kikanCd=DE010031&kikanKbn=3", "url2": "http://www.sasaki-dental.net/", "内容": "佐々木歯科医院【3:歯科】鳥取県鳥取市商栄町１５６番地３" }, "geometry": { "type": "Point", "coordinates": [ 134.208182, 35.513394 ] } },
{ "type": "Feature", "properties": { "ID": "313DE010032", "正式名称": "さとう歯科クリニック", "機関区分": 3, "都道府県コード": 31, "市区町村コード": 201, "所在地": "鳥取県鳥取市南吉方１ー６３－１農協共済福祉事業団本社ビル１階", "緯度": 35.490532, "経度": 134.231369, "url": "https://www.iryou.teikyouseido.mhlw.go.jp/znk-web/juminkanja/S2430/initialize?prefCd=31&kikanCd=DE010032&kikanKbn=3", "url2": null, "内容": "さとう歯科クリニック【3:歯科】鳥取県鳥取市南吉方１ー６３－１農協共済福祉事業団本社ビル１階" }, "geometry": { "type": "Point", "coordinates": [ 134.231369, 35.490532 ] } },
{ "type": "Feature", "properties": { "ID": "313DE010034", "正式名称": "しみず歯科クリニック", "機関区分": 3, "都道府県コード": 31, "市区町村コード": 201, "所在地": "鳥取県鳥取市叶２９３－２２", "緯度": 35.4742, "経度": 134.218642, "url": "https://www.iryou.teikyouseido.mhlw.go.jp/znk-web/juminkanja/S2430/initialize?prefCd=31&kikanCd=DE010034&kikanKbn=3", "url2": null, "内容": "しみず歯科クリニック【3:歯科】鳥取県鳥取市叶２９３－２２" }, "geometry": { "type": "Point", "coordinates": [ 134.218642, 35.4742 ] } },
{ "type": "Feature", "properties": { "ID": "313DE010035", "正式名称": "潤歯科医院", "機関区分": 3, "都道府県コード": 31, "市区町村コード": 201, "所在地": "鳥取県鳥取市栄町２０７日本観光センタービル２階", "緯度": 35.497692, "経度": 134.229719, "url": "https://www.iryou.teikyouseido.mhlw.go.jp/znk-web/juminkanja/S2430/initialize?prefCd=31&kikanCd=DE010035&kikanKbn=3", "url2": null, "内容": "潤歯科医院【3:歯科】鳥取県鳥取市栄町２０７日本観光センタービル２階" }, "geometry": { "type": "Point", "coordinates": [ 134.229719, 35.497692 ] } },
{ "type": "Feature", "properties": { "ID": "313DE010036", "正式名称": "せいきょう歯科クリニック", "機関区分": 3, "都道府県コード": 31, "市区町村コード": 201, "所在地": "鳥取県鳥取市末広温泉町５６６", "緯度": 35.494108, "経度": 134.232517, "url": "https://www.iryou.teikyouseido.mhlw.go.jp/znk-web/juminkanja/S2430/initialize?prefCd=31&kikanCd=DE010036&kikanKbn=3", "url2": null, "内容": "せいきょう歯科クリニック【3:歯科】鳥取県鳥取市末広温泉町５６６" }, "geometry": { "type": "Point", "coordinates": [ 134.232517, 35.494108 ] } },
{ "type": "Feature", "properties": { "ID": "313DE010038", "正式名称": "医療法人　谷本歯科", "機関区分": 3, "都道府県コード": 31, "市区町村コード": 201, "所在地": "鳥取県鳥取市湖山町東５丁目５０４－１８", "緯度": 35.513869, "経度": 134.186917, "url": "https://www.iryou.teikyouseido.mhlw.go.jp/znk-web/juminkanja/S2430/initialize?prefCd=31&kikanCd=DE010038&kikanKbn=3", "url2": null, "内容": "医療法人　谷本歯科【3:歯科】鳥取県鳥取市湖山町東５丁目５０４－１８" }, "geometry": { "type": "Point", "coordinates": [ 134.186917, 35.513869 ] } },
{ "type": "Feature", "properties": { "ID": "313DE010039", "正式名称": "玉木歯科医院", "機関区分": 3, "都道府県コード": 31, "市区町村コード": 201, "所在地": "鳥取県鳥取市若葉台南６丁目２３－３０", "緯度": 35.444831, "経度": 134.261103, "url": "https://www.iryou.teikyouseido.mhlw.go.jp/znk-web/juminkanja/S2430/initialize?prefCd=31&kikanCd=DE010039&kikanKbn=3", "url2": null, "内容": "玉木歯科医院【3:歯科】鳥取県鳥取市若葉台南６丁目２３－３０" }, "geometry": { "type": "Point", "coordinates": [ 134.261103, 35.444831 ] } },
{ "type": "Feature", "properties": { "ID": "313DE010040", "正式名称": "戸﨑歯科医院", "機関区分": 3, "都道府県コード": 31, "市区町村コード": 201, "所在地": "鳥取県鳥取市桂木２４４", "緯度": 35.460639, "経度": 134.249197, "url": "https://www.iryou.teikyouseido.mhlw.go.jp/znk-web/juminkanja/S2430/initialize?prefCd=31&kikanCd=DE010040&kikanKbn=3", "url2": null, "内容": "戸﨑歯科医院【3:歯科】鳥取県鳥取市桂木２４４" }, "geometry": { "type": "Point", "coordinates": [ 134.249197, 35.460639 ] } },
{ "type": "Feature", "properties": { "ID": "313DE010041", "正式名称": "鳥取県口腔総合保健センター", "機関区分": 3, "都道府県コード": 31, "市区町村コード": 201, "所在地": "鳥取県鳥取市吉方温泉３丁目７５１－５", "緯度": 35.491831, "経度": 134.233775, "url": "https://www.iryou.teikyouseido.mhlw.go.jp/znk-web/juminkanja/S2430/initialize?prefCd=31&kikanCd=DE010041&kikanKbn=3", "url2": null, "内容": "鳥取県口腔総合保健センター【3:歯科】鳥取県鳥取市吉方温泉３丁目７５１－５" }, "geometry": { "type": "Point", "coordinates": [ 134.233775, 35.491831 ] } },
{ "type": "Feature", "properties": { "ID": "313DE010042", "正式名称": "豊川歯科医院", "機関区分": 3, "都道府県コード": 31, "市区町村コード": 201, "所在地": "鳥取県鳥取市古海７１６－１", "緯度": 35.500097, "経度": 134.208914, "url": "https://www.iryou.teikyouseido.mhlw.go.jp/znk-web/juminkanja/S2430/initialize?prefCd=31&kikanCd=DE010042&kikanKbn=3", "url2": null, "内容": "豊川歯科医院【3:歯科】鳥取県鳥取市古海７１６－１" }, "geometry": { "type": "Point", "coordinates": [ 134.208914, 35.500097 ] } },
{ "type": "Feature", "properties": { "ID": "313DE010043", "正式名称": "医療法人恵聡会　中尾歯科医院", "機関区分": 3, "都道府県コード": 31, "市区町村コード": 201, "所在地": "鳥取県鳥取市青葉町２丁目１０５番地", "緯度": 35.513814, "経度": 134.226036, "url": "https://www.iryou.teikyouseido.mhlw.go.jp/znk-web/juminkanja/S2430/initialize?prefCd=31&kikanCd=DE010043&kikanKbn=3", "url2": "http:/nakao-dc.com/", "内容": "医療法人恵聡会　中尾歯科医院【3:歯科】鳥取県鳥取市青葉町２丁目１０５番地" }, "geometry": { "type": "Point", "coordinates": [ 134.226036, 35.513814 ] } },
{ "type": "Feature", "properties": { "ID": "313DE010044", "正式名称": "ナカムラ歯科医院", "機関区分": 3, "都道府県コード": 31, "市区町村コード": 201, "所在地": "鳥取県鳥取市大覚寺１７６－１２", "緯度": 35.480339, "経度": 134.2332, "url": "https://www.iryou.teikyouseido.mhlw.go.jp/znk-web/juminkanja/S2430/initialize?prefCd=31&kikanCd=DE010044&kikanKbn=3", "url2": null, "内容": "ナカムラ歯科医院【3:歯科】鳥取県鳥取市大覚寺１７６－１２" }, "geometry": { "type": "Point", "coordinates": [ 134.2332, 35.480339 ] } },
{ "type": "Feature", "properties": { "ID": "313DE010046", "正式名称": "なわだ歯科医院", "機関区分": 3, "都道府県コード": 31, "市区町村コード": 201, "所在地": "鳥取県鳥取市賀露町南１丁目１７－２１", "緯度": 35.524408, "経度": 134.186308, "url": "https://www.iryou.teikyouseido.mhlw.go.jp/znk-web/juminkanja/S2430/initialize?prefCd=31&kikanCd=DE010046&kikanKbn=3", "url2": null, "内容": "なわだ歯科医院【3:歯科】鳥取県鳥取市賀露町南１丁目１７－２１" }, "geometry": { "type": "Point", "coordinates": [ 134.186308, 35.524408 ] } },
{ "type": "Feature", "properties": { "ID": "313DE010047", "正式名称": "西尾歯科医院", "機関区分": 3, "都道府県コード": 31, "市区町村コード": 201, "所在地": "鳥取県鳥取市富安１－５－２", "緯度": 35.488717, "経度": 134.229219, "url": "https://www.iryou.teikyouseido.mhlw.go.jp/znk-web/juminkanja/S2430/initialize?prefCd=31&kikanCd=DE010047&kikanKbn=3", "url2": null, "内容": "西尾歯科医院【3:歯科】鳥取県鳥取市富安１－５－２" }, "geometry": { "type": "Point", "coordinates": [ 134.229219, 35.488717 ] } },
{ "type": "Feature", "properties": { "ID": "313DE010048", "正式名称": "ハヤシ歯科", "機関区分": 3, "都道府県コード": 31, "市区町村コード": 201, "所在地": "鳥取県鳥取市片原二丁目１１８番地", "緯度": 35.50287, "経度": 134.23248, "url": "https://www.iryou.teikyouseido.mhlw.go.jp/znk-web/juminkanja/S2430/initialize?prefCd=31&kikanCd=DE010048&kikanKbn=3", "url2": null, "内容": "ハヤシ歯科【3:歯科】鳥取県鳥取市片原二丁目１１８番地" }, "geometry": { "type": "Point", "coordinates": [ 134.23248, 35.50287 ] } },
{ "type": "Feature", "properties": { "ID": "313DE010049", "正式名称": "はやし歯科クリニック", "機関区分": 3, "都道府県コード": 31, "市区町村コード": 201, "所在地": "鳥取県鳥取市東品治町１１４番地コスモスビル２階", "緯度": 35.493691, "経度": 134.225481, "url": "https://www.iryou.teikyouseido.mhlw.go.jp/znk-web/juminkanja/S2430/initialize?prefCd=31&kikanCd=DE010049&kikanKbn=3", "url2": null, "内容": "はやし歯科クリニック【3:歯科】鳥取県鳥取市東品治町１１４番地コスモスビル２階" }, "geometry": { "type": "Point", "coordinates": [ 134.225481, 35.493691 ] } },
{ "type": "Feature", "properties": { "ID": "313DE010050", "正式名称": "平吾歯科クリニック", "機関区分": 3, "都道府県コード": 31, "市区町村コード": 201, "所在地": "鳥取県鳥取市桜谷６６１", "緯度": 35.472373, "経度": 134.245717, "url": "https://www.iryou.teikyouseido.mhlw.go.jp/znk-web/juminkanja/S2430/initialize?prefCd=31&kikanCd=DE010050&kikanKbn=3", "url2": null, "内容": "平吾歯科クリニック【3:歯科】鳥取県鳥取市桜谷６６１" }, "geometry": { "type": "Point", "coordinates": [ 134.245717, 35.472373 ] } },
{ "type": "Feature", "properties": { "ID": "313DE010051", "正式名称": "ひろ歯科クリニック", "機関区分": 3, "都道府県コード": 31, "市区町村コード": 201, "所在地": "鳥取県鳥取市覚寺４７－７", "緯度": 35.521978, "経度": 134.228867, "url": "https://www.iryou.teikyouseido.mhlw.go.jp/znk-web/juminkanja/S2430/initialize?prefCd=31&kikanCd=DE010051&kikanKbn=3", "url2": null, "内容": "ひろ歯科クリニック【3:歯科】鳥取県鳥取市覚寺４７－７" }, "geometry": { "type": "Point", "coordinates": [ 134.228867, 35.521978 ] } },
{ "type": "Feature", "properties": { "ID": "313DE010053", "正式名称": "医療法人　福嶋歯科医院", "機関区分": 3, "都道府県コード": 31, "市区町村コード": 201, "所在地": "鳥取県鳥取市栄町６０９加藤紙店ビル５階", "緯度": 35.494587, "経度": 134.22679, "url": "https://www.iryou.teikyouseido.mhlw.go.jp/znk-web/juminkanja/S2430/initialize?prefCd=31&kikanCd=DE010053&kikanKbn=3", "url2": "http://www.hal.ne.jp/fuku-y", "内容": "医療法人　福嶋歯科医院【3:歯科】鳥取県鳥取市栄町６０９加藤紙店ビル５階" }, "geometry": { "type": "Point", "coordinates": [ 134.22679, 35.494587 ] } },
{ "type": "Feature", "properties": { "ID": "313DE010054", "正式名称": "医療法人社団　堀内歯科医院", "機関区分": 3, "都道府県コード": 31, "市区町村コード": 201, "所在地": "鳥取県鳥取市西品治　８１７－５", "緯度": 35.50818, "経度": 134.222898, "url": "https://www.iryou.teikyouseido.mhlw.go.jp/znk-web/juminkanja/S2430/initialize?prefCd=31&kikanCd=DE010054&kikanKbn=3", "url2": null, "内容": "医療法人社団　堀内歯科医院【3:歯科】鳥取県鳥取市西品治　８１７－５" }, "geometry": { "type": "Point", "coordinates": [ 134.222898, 35.50818 ] } },
{ "type": "Feature", "properties": { "ID": "313DE010056", "正式名称": "ますだ歯科医院", "機関区分": 3, "都道府県コード": 31, "市区町村コード": 201, "所在地": "鳥取県鳥取市古海６５４ー２", "緯度": 35.495213, "経度": 134.2029, "url": "https://www.iryou.teikyouseido.mhlw.go.jp/znk-web/juminkanja/S2430/initialize?prefCd=31&kikanCd=DE010056&kikanKbn=3", "url2": "http://masuda-dent.com", "内容": "ますだ歯科医院【3:歯科】鳥取県鳥取市古海６５４ー２" }, "geometry": { "type": "Point", "coordinates": [ 134.2029, 35.495213 ] } },
{ "type": "Feature", "properties": { "ID": "313DE010057", "正式名称": "医療法人松下歯科医院", "機関区分": 3, "都道府県コード": 31, "市区町村コード": 201, "所在地": "鳥取県鳥取市栄町７６３番地　メルヘンビル２階", "緯度": 35.495066, "経度": 134.226453, "url": "https://www.iryou.teikyouseido.mhlw.go.jp/znk-web/juminkanja/S2430/initialize?prefCd=31&kikanCd=DE010057&kikanKbn=3", "url2": null, "内容": "医療法人松下歯科医院【3:歯科】鳥取県鳥取市栄町７６３番地　メルヘンビル２階" }, "geometry": { "type": "Point", "coordinates": [ 134.226453, 35.495066 ] } },
{ "type": "Feature", "properties": { "ID": "313DE010059", "正式名称": "マブチ歯科医院", "機関区分": 3, "都道府県コード": 31, "市区町村コード": 201, "所在地": "鳥取県鳥取市今町２丁目３０１番地", "緯度": 35.496568, "経度": 134.224407, "url": "https://www.iryou.teikyouseido.mhlw.go.jp/znk-web/juminkanja/S2430/initialize?prefCd=31&kikanCd=DE010059&kikanKbn=3", "url2": null, "内容": "マブチ歯科医院【3:歯科】鳥取県鳥取市今町２丁目３０１番地" }, "geometry": { "type": "Point", "coordinates": [ 134.224407, 35.496568 ] } },
{ "type": "Feature", "properties": { "ID": "313DE010060", "正式名称": "水口歯科クリニック", "機関区分": 3, "都道府県コード": 31, "市区町村コード": 201, "所在地": "鳥取県鳥取市千代水４－１８丸信ビル２階", "緯度": 35.514972, "経度": 134.192208, "url": "https://www.iryou.teikyouseido.mhlw.go.jp/znk-web/juminkanja/S2430/initialize?prefCd=31&kikanCd=DE010060&kikanKbn=3", "url2": null, "内容": "水口歯科クリニック【3:歯科】鳥取県鳥取市千代水４－１８丸信ビル２階" }, "geometry": { "type": "Point", "coordinates": [ 134.192208, 35.514972 ] } },
{ "type": "Feature", "properties": { "ID": "313DE010061", "正式名称": "みちだ歯科クリニック", "機関区分": 3, "都道府県コード": 31, "市区町村コード": 201, "所在地": "鳥取県鳥取市田島みちだ歯科クリニック", "緯度": 35.512928, "経度": 134.22083, "url": "https://www.iryou.teikyouseido.mhlw.go.jp/znk-web/juminkanja/S2430/initialize?prefCd=31&kikanCd=DE010061&kikanKbn=3", "url2": null, "内容": "みちだ歯科クリニック【3:歯科】鳥取県鳥取市田島みちだ歯科クリニック" }, "geometry": { "type": "Point", "coordinates": [ 134.22083, 35.512928 ] } },
{ "type": "Feature", "properties": { "ID": "313DE010063", "正式名称": "医療法人社団春陽会みなみ歯科医院", "機関区分": 3, "都道府県コード": 31, "市区町村コード": 201, "所在地": "鳥取県鳥取市南吉方１丁目１０８ー２", "緯度": 35.489763, "経度": 134.232509, "url": "https://www.iryou.teikyouseido.mhlw.go.jp/znk-web/juminkanja/S2430/initialize?prefCd=31&kikanCd=DE010063&kikanKbn=3", "url2": null, "内容": "医療法人社団春陽会みなみ歯科医院【3:歯科】鳥取県鳥取市南吉方１丁目１０８ー２" }, "geometry": { "type": "Point", "coordinates": [ 134.232509, 35.489763 ] } },
{ "type": "Feature", "properties": { "ID": "313DE010064", "正式名称": "みはぎの歯科医院", "機関区分": 3, "都道府県コード": 31, "市区町村コード": 201, "所在地": "鳥取県鳥取市美萩野１丁目１１８－１５", "緯度": 35.522442, "経度": 134.1401, "url": "https://www.iryou.teikyouseido.mhlw.go.jp/znk-web/juminkanja/S2430/initialize?prefCd=31&kikanCd=DE010064&kikanKbn=3", "url2": null, "内容": "みはぎの歯科医院【3:歯科】鳥取県鳥取市美萩野１丁目１１８－１５" }, "geometry": { "type": "Point", "coordinates": [ 134.1401, 35.522442 ] } },
{ "type": "Feature", "properties": { "ID": "313DE010065", "正式名称": "宮﨑歯科医院", "機関区分": 3, "都道府県コード": 31, "市区町村コード": 201, "所在地": "鳥取県鳥取市吉成２－１４－３１", "緯度": 35.482828, "経度": 134.226714, "url": "https://www.iryou.teikyouseido.mhlw.go.jp/znk-web/juminkanja/S2430/initialize?prefCd=31&kikanCd=DE010065&kikanKbn=3", "url2": null, "内容": "宮﨑歯科医院【3:歯科】鳥取県鳥取市吉成２－１４－３１" }, "geometry": { "type": "Point", "coordinates": [ 134.226714, 35.482828 ] } },
{ "type": "Feature", "properties": { "ID": "313DE010066", "正式名称": "むかいね歯科医院", "機関区分": 3, "都道府県コード": 31, "市区町村コード": 201, "所在地": "鳥取県鳥取市湖山町北２丁目１０７－２", "緯度": 35.518525, "経度": 134.174181, "url": "https://www.iryou.teikyouseido.mhlw.go.jp/znk-web/juminkanja/S2430/initialize?prefCd=31&kikanCd=DE010066&kikanKbn=3", "url2": null, "内容": "むかいね歯科医院【3:歯科】鳥取県鳥取市湖山町北２丁目１０７－２" }, "geometry": { "type": "Point", "coordinates": [ 134.174181, 35.518525 ] } },
{ "type": "Feature", "properties": { "ID": "313DE010068", "正式名称": "医療法人八幡歯科医院", "機関区分": 3, "都道府県コード": 31, "市区町村コード": 201, "所在地": "鳥取県鳥取市雲山２２５―２", "緯度": 35.477803, "経度": 134.235953, "url": "https://www.iryou.teikyouseido.mhlw.go.jp/znk-web/juminkanja/S2430/initialize?prefCd=31&kikanCd=DE010068&kikanKbn=3", "url2": null, "内容": "医療法人八幡歯科医院【3:歯科】鳥取県鳥取市雲山２２５―２" }, "geometry": { "type": "Point", "coordinates": [ 134.235953, 35.477803 ] } },
{ "type": "Feature", "properties": { "ID": "313DE010069", "正式名称": "山形歯科医院", "機関区分": 3, "都道府県コード": 31, "市区町村コード": 201, "所在地": "鳥取県鳥取市秋里１３１４", "緯度": 35.517633, "経度": 134.215473, "url": "https://www.iryou.teikyouseido.mhlw.go.jp/znk-web/juminkanja/S2430/initialize?prefCd=31&kikanCd=DE010069&kikanKbn=3", "url2": null, "内容": "山形歯科医院【3:歯科】鳥取県鳥取市秋里１３１４" }, "geometry": { "type": "Point", "coordinates": [ 134.215473, 35.517633 ] } },
{ "type": "Feature", "properties": { "ID": "313DE010073", "正式名称": "ゆむら歯科医院", "機関区分": 3, "都道府県コード": 31, "市区町村コード": 201, "所在地": "鳥取県鳥取市湖山町南３－２１７", "緯度": 35.509997, "経度": 134.181403, "url": "https://www.iryou.teikyouseido.mhlw.go.jp/znk-web/juminkanja/S2430/initialize?prefCd=31&kikanCd=DE010073&kikanKbn=3", "url2": null, "内容": "ゆむら歯科医院【3:歯科】鳥取県鳥取市湖山町南３－２１７" }, "geometry": { "type": "Point", "coordinates": [ 134.181403, 35.509997 ] } },
{ "type": "Feature", "properties": { "ID": "313DE010074", "正式名称": "よしざわ歯科医院", "機関区分": 3, "都道府県コード": 31, "市区町村コード": 201, "所在地": "鳥取県鳥取市南吉方三丁目５１８－１", "緯度": 35.487103, "経度": 134.242022, "url": "https://www.iryou.teikyouseido.mhlw.go.jp/znk-web/juminkanja/S2430/initialize?prefCd=31&kikanCd=DE010074&kikanKbn=3", "url2": null, "内容": "よしざわ歯科医院【3:歯科】鳥取県鳥取市南吉方三丁目５１８－１" }, "geometry": { "type": "Point", "coordinates": [ 134.242022, 35.487103 ] } },
{ "type": "Feature", "properties": { "ID": "313DE010075", "正式名称": "よしだ歯科医院", "機関区分": 3, "都道府県コード": 31, "市区町村コード": 201, "所在地": "鳥取県鳥取市瓦町５０５", "緯度": 35.496436, "経度": 134.227069, "url": "https://www.iryou.teikyouseido.mhlw.go.jp/znk-web/juminkanja/S2430/initialize?prefCd=31&kikanCd=DE010075&kikanKbn=3", "url2": "118yoshida.net", "内容": "よしだ歯科医院【3:歯科】鳥取県鳥取市瓦町５０５" }, "geometry": { "type": "Point", "coordinates": [ 134.227069, 35.496436 ] } },
{ "type": "Feature", "properties": { "ID": "313DE010076", "正式名称": "医療法人米沢歯科医院", "機関区分": 3, "都道府県コード": 31, "市区町村コード": 201, "所在地": "鳥取県鳥取市大榎町１２－１１", "緯度": 35.498689, "経度": 134.239067, "url": "https://www.iryou.teikyouseido.mhlw.go.jp/znk-web/juminkanja/S2430/initialize?prefCd=31&kikanCd=DE010076&kikanKbn=3", "url2": null, "内容": "医療法人米沢歯科医院【3:歯科】鳥取県鳥取市大榎町１２－１１" }, "geometry": { "type": "Point", "coordinates": [ 134.239067, 35.498689 ] } },
{ "type": "Feature", "properties": { "ID": "313DE010077", "正式名称": "涌島歯科湖山医院", "機関区分": 3, "都道府県コード": 31, "市区町村コード": 201, "所在地": "鳥取県鳥取市湖山町北２丁目５６１", "緯度": 35.522303, "経度": 134.175048, "url": "https://www.iryou.teikyouseido.mhlw.go.jp/znk-web/juminkanja/S2430/initialize?prefCd=31&kikanCd=DE010077&kikanKbn=3", "url2": "https://www.wakushimashika-dc.com/", "内容": "涌島歯科湖山医院【3:歯科】鳥取県鳥取市湖山町北２丁目５６１" }, "geometry": { "type": "Point", "coordinates": [ 134.175048, 35.522303 ] } },
{ "type": "Feature", "properties": { "ID": "313DE010079", "正式名称": "井手野歯科医院", "機関区分": 3, "都道府県コード": 31, "市区町村コード": 201, "所在地": "鳥取県鳥取市福部町海士３３５－１", "緯度": 35.546886, "経度": 134.278086, "url": "https://www.iryou.teikyouseido.mhlw.go.jp/znk-web/juminkanja/S2430/initialize?prefCd=31&kikanCd=DE010079&kikanKbn=3", "url2": null, "内容": "井手野歯科医院【3:歯科】鳥取県鳥取市福部町海士３３５－１" }, "geometry": { "type": "Point", "coordinates": [ 134.278086, 35.546886 ] } },
{ "type": "Feature", "properties": { "ID": "313DE010080", "正式名称": "いなだ歯科医院", "機関区分": 3, "都道府県コード": 31, "市区町村コード": 201, "所在地": "鳥取県鳥取市気高町新町３丁目８１いなだ歯科医院", "緯度": 35.512111, "経度": 134.049969, "url": "https://www.iryou.teikyouseido.mhlw.go.jp/znk-web/juminkanja/S2430/initialize?prefCd=31&kikanCd=DE010080&kikanKbn=3", "url2": null, "内容": "いなだ歯科医院【3:歯科】鳥取県鳥取市気高町新町３丁目８１いなだ歯科医院" }, "geometry": { "type": "Point", "coordinates": [ 134.049969, 35.512111 ] } },
{ "type": "Feature", "properties": { "ID": "313DE010082", "正式名称": "医療法人Ｔｏｔｔｏｒｉ　Ｏｒｔｈｏ　Ｄｅｎｔａｌ　Ｃｌｕｂ　宮田歯科医院", "機関区分": 3, "都道府県コード": 31, "市区町村コード": 201, "所在地": "鳥取県鳥取市青谷町青谷４０４３－１１", "緯度": 35.517388, "経度": 133.995936, "url": "https://www.iryou.teikyouseido.mhlw.go.jp/znk-web/juminkanja/S2430/initialize?prefCd=31&kikanCd=DE010082&kikanKbn=3", "url2": "https://miyata-shika.net/", "内容": "医療法人Ｔｏｔｔｏｒｉ　Ｏｒｔｈｏ　Ｄｅｎｔａｌ　Ｃｌｕｂ　宮田歯科医院【3:歯科】鳥取県鳥取市青谷町青谷４０４３－１１" }, "geometry": { "type": "Point", "coordinates": [ 133.995936, 35.517388 ] } },
{ "type": "Feature", "properties": { "ID": "313DE010083", "正式名称": "医療法人社団　吉田歯科医院", "機関区分": 3, "都道府県コード": 31, "市区町村コード": 201, "所在地": "鳥取県鳥取市青谷町青谷３９３５", "緯度": 35.520272, "経度": 133.99495, "url": "https://www.iryou.teikyouseido.mhlw.go.jp/znk-web/juminkanja/S2430/initialize?prefCd=31&kikanCd=DE010083&kikanKbn=3", "url2": null, "内容": "医療法人社団　吉田歯科医院【3:歯科】鳥取県鳥取市青谷町青谷３９３５" }, "geometry": { "type": "Point", "coordinates": [ 133.99495, 35.520272 ] } },
{ "type": "Feature", "properties": { "ID": "313DE010087", "正式名称": "さとみ歯科クリニック", "機関区分": 3, "都道府県コード": 31, "市区町村コード": 201, "所在地": "鳥取県鳥取市用瀬町鷹狩７６７－４", "緯度": 35.353892, "経度": 134.204764, "url": "https://www.iryou.teikyouseido.mhlw.go.jp/znk-web/juminkanja/S2430/initialize?prefCd=31&kikanCd=DE010087&kikanKbn=3", "url2": null, "内容": "さとみ歯科クリニック【3:歯科】鳥取県鳥取市用瀬町鷹狩７６７－４" }, "geometry": { "type": "Point", "coordinates": [ 134.204764, 35.353892 ] } },
{ "type": "Feature", "properties": { "ID": "313DE010088", "正式名称": "鳥取市佐治町国民健康保険診療所・歯科", "機関区分": 3, "都道府県コード": 31, "市区町村コード": 201, "所在地": "鳥取県鳥取市佐治町加瀬木２１７１－２", "緯度": 35.330339, "経度": 134.118426, "url": "https://www.iryou.teikyouseido.mhlw.go.jp/znk-web/juminkanja/S2430/initialize?prefCd=31&kikanCd=DE010088&kikanKbn=3", "url2": "https://www.city.tottori.lg.jp/www/contents/1356497091659/index.html", "内容": "鳥取市佐治町国民健康保険診療所・歯科【3:歯科】鳥取県鳥取市佐治町加瀬木２１７１－２" }, "geometry": { "type": "Point", "coordinates": [ 134.118426, 35.330339 ] } },
{ "type": "Feature", "properties": { "ID": "313DE010089", "正式名称": "さわだ歯科医院", "機関区分": 3, "都道府県コード": 31, "市区町村コード": 201, "所在地": "鳥取県鳥取市的場２－８６－１タウンアローズ８６ー１０４", "緯度": 35.473303, "経度": 134.230992, "url": "https://www.iryou.teikyouseido.mhlw.go.jp/znk-web/juminkanja/S2430/initialize?prefCd=31&kikanCd=DE010089&kikanKbn=3", "url2": null, "内容": "さわだ歯科医院【3:歯科】鳥取県鳥取市的場２－８６－１タウンアローズ８６ー１０４" }, "geometry": { "type": "Point", "coordinates": [ 134.230992, 35.473303 ] } },
{ "type": "Feature", "properties": { "ID": "313DE010090", "正式名称": "松岡歯科", "機関区分": 3, "都道府県コード": 31, "市区町村コード": 201, "所在地": "鳥取県鳥取市国府町分上１丁目１０８－１", "緯度": 35.481733, "経度": 134.260775, "url": "https://www.iryou.teikyouseido.mhlw.go.jp/znk-web/juminkanja/S2430/initialize?prefCd=31&kikanCd=DE010090&kikanKbn=3", "url2": null, "内容": "松岡歯科【3:歯科】鳥取県鳥取市国府町分上１丁目１０８－１" }, "geometry": { "type": "Point", "coordinates": [ 134.260775, 35.481733 ] } },
{ "type": "Feature", "properties": { "ID": "313DE010092", "正式名称": "すどう歯科医院", "機関区分": 3, "都道府県コード": 31, "市区町村コード": 201, "所在地": "鳥取県鳥取市気高町北浜２丁目２５", "緯度": 35.513681, "経度": 134.046161, "url": "https://www.iryou.teikyouseido.mhlw.go.jp/znk-web/juminkanja/S2430/initialize?prefCd=31&kikanCd=DE010092&kikanKbn=3", "url2": null, "内容": "すどう歯科医院【3:歯科】鳥取県鳥取市気高町北浜２丁目２５" }, "geometry": { "type": "Point", "coordinates": [ 134.046161, 35.513681 ] } },
{ "type": "Feature", "properties": { "ID": "313DE010093", "正式名称": "アクビー歯科クリニック", "機関区分": 3, "都道府県コード": 31, "市区町村コード": 201, "所在地": "鳥取県鳥取市徳尾１３１−２８", "緯度": 35.50092, "経度": 134.20142, "url": "https://www.iryou.teikyouseido.mhlw.go.jp/znk-web/juminkanja/S2430/initialize?prefCd=31&kikanCd=DE010093&kikanKbn=3", "url2": null, "内容": "アクビー歯科クリニック【3:歯科】鳥取県鳥取市徳尾１３１−２８" }, "geometry": { "type": "Point", "coordinates": [ 134.20142, 35.50092 ] } },
{ "type": "Feature", "properties": { "ID": "313DE010094", "正式名称": "北浜歯科クリニック", "機関区分": 3, "都道府県コード": 31, "市区町村コード": 201, "所在地": "鳥取県鳥取市気高町北浜３丁目７７－８", "緯度": 35.5149, "経度": 134.050047, "url": "https://www.iryou.teikyouseido.mhlw.go.jp/znk-web/juminkanja/S2430/initialize?prefCd=31&kikanCd=DE010094&kikanKbn=3", "url2": null, "内容": "北浜歯科クリニック【3:歯科】鳥取県鳥取市気高町北浜３丁目７７－８" }, "geometry": { "type": "Point", "coordinates": [ 134.050047, 35.5149 ] } },
{ "type": "Feature", "properties": { "ID": "313DE010095", "正式名称": "医療法人健歯会　おおくさ歯科医院", "機関区分": 3, "都道府県コード": 31, "市区町村コード": 201, "所在地": "鳥取県鳥取市桜谷７９－３", "緯度": 35.480193, "経度": 134.226633, "url": "https://www.iryou.teikyouseido.mhlw.go.jp/znk-web/juminkanja/S2430/initialize?prefCd=31&kikanCd=DE010095&kikanKbn=3", "url2": null, "内容": "医療法人健歯会　おおくさ歯科医院【3:歯科】鳥取県鳥取市桜谷７９－３" }, "geometry": { "type": "Point", "coordinates": [ 134.226633, 35.480193 ] } },
{ "type": "Feature", "properties": { "ID": "313DE010096", "正式名称": "岡本歯科クリニック", "機関区分": 3, "都道府県コード": 31, "市区町村コード": 201, "所在地": "鳥取県鳥取市桂木８００", "緯度": 35.459425, "経度": 134.252025, "url": "https://www.iryou.teikyouseido.mhlw.go.jp/znk-web/juminkanja/S2430/initialize?prefCd=31&kikanCd=DE010096&kikanKbn=3", "url2": null, "内容": "岡本歯科クリニック【3:歯科】鳥取県鳥取市桂木８００" }, "geometry": { "type": "Point", "coordinates": [ 134.252025, 35.459425 ] } },
{ "type": "Feature", "properties": { "ID": "313DE010097", "正式名称": "しょうじ歯科医院", "機関区分": 3, "都道府県コード": 31, "市区町村コード": 201, "所在地": "鳥取県鳥取市湖山町北１ー５４８しょうじ歯科医院", "緯度": 35.51908, "経度": 134.17673, "url": "https://www.iryou.teikyouseido.mhlw.go.jp/znk-web/juminkanja/S2430/initialize?prefCd=31&kikanCd=DE010097&kikanKbn=3", "url2": null, "内容": "しょうじ歯科医院【3:歯科】鳥取県鳥取市湖山町北１ー５４８しょうじ歯科医院" }, "geometry": { "type": "Point", "coordinates": [ 134.17673, 35.51908 ] } },
{ "type": "Feature", "properties": { "ID": "313DE010098", "正式名称": "新通り歯科クリニック", "機関区分": 3, "都道府県コード": 31, "市区町村コード": 201, "所在地": "鳥取県鳥取市国府町新通り３丁目３０１ー１", "緯度": 35.480589, "経度": 134.255005, "url": "https://www.iryou.teikyouseido.mhlw.go.jp/znk-web/juminkanja/S2430/initialize?prefCd=31&kikanCd=DE010098&kikanKbn=3", "url2": null, "内容": "新通り歯科クリニック【3:歯科】鳥取県鳥取市国府町新通り３丁目３０１ー１" }, "geometry": { "type": "Point", "coordinates": [ 134.255005, 35.480589 ] } },
{ "type": "Feature", "properties": { "ID": "313DE010099", "正式名称": "スマイル歯科・矯正歯科クリニック", "機関区分": 3, "都道府県コード": 31, "市区町村コード": 201, "所在地": "鳥取県鳥取市吉成南町１－７", "緯度": 35.48241, "経度": 134.219337, "url": "https://www.iryou.teikyouseido.mhlw.go.jp/znk-web/juminkanja/S2430/initialize?prefCd=31&kikanCd=DE010099&kikanKbn=3", "url2": "http://tottori-smile.com/", "内容": "スマイル歯科・矯正歯科クリニック【3:歯科】鳥取県鳥取市吉成南町１－７" }, "geometry": { "type": "Point", "coordinates": [ 134.219337, 35.48241 ] } },
{ "type": "Feature", "properties": { "ID": "313DE010100", "正式名称": "医療法人　秋山歯科・矯正歯科医院", "機関区分": 3, "都道府県コード": 31, "市区町村コード": 201, "所在地": "鳥取県鳥取市南町４０１", "緯度": 35.499911, "経度": 134.226847, "url": "https://www.iryou.teikyouseido.mhlw.go.jp/znk-web/juminkanja/S2430/initialize?prefCd=31&kikanCd=DE010100&kikanKbn=3", "url2": "https://www.akiyamashika.jp/", "内容": "医療法人　秋山歯科・矯正歯科医院【3:歯科】鳥取県鳥取市南町４０１" }, "geometry": { "type": "Point", "coordinates": [ 134.226847, 35.499911 ] } },
{ "type": "Feature", "properties": { "ID": "313DE010102", "正式名称": "あつ歯科クリニック", "機関区分": 3, "都道府県コード": 31, "市区町村コード": 201, "所在地": "鳥取県鳥取市田島３６６－１", "緯度": 35.509956, "経度": 134.221808, "url": "https://www.iryou.teikyouseido.mhlw.go.jp/znk-web/juminkanja/S2430/initialize?prefCd=31&kikanCd=DE010102&kikanKbn=3", "url2": null, "内容": "あつ歯科クリニック【3:歯科】鳥取県鳥取市田島３６６－１" }, "geometry": { "type": "Point", "coordinates": [ 134.221808, 35.509956 ] } },
{ "type": "Feature", "properties": { "ID": "313DE010103", "正式名称": "Ｋデンタルオフィス", "機関区分": 3, "都道府県コード": 31, "市区町村コード": 201, "所在地": "鳥取県鳥取市雲山２０８ー１７", "緯度": 35.479153, "経度": 134.23946, "url": "https://www.iryou.teikyouseido.mhlw.go.jp/znk-web/juminkanja/S2430/initialize?prefCd=31&kikanCd=DE010103&kikanKbn=3", "url2": null, "内容": "Ｋデンタルオフィス【3:歯科】鳥取県鳥取市雲山２０８ー１７" }, "geometry": { "type": "Point", "coordinates": [ 134.23946, 35.479153 ] } },
{ "type": "Feature", "properties": { "ID": "313DE010104", "正式名称": "せいきょう歯科クリニック鹿野", "機関区分": 3, "都道府県コード": 31, "市区町村コード": 201, "所在地": "鳥取県鳥取市鹿野町今市２４２鳥取医療生協　鹿野温泉病院", "緯度": 35.4620311, "経度": 134.0503627, "url": "https://www.iryou.teikyouseido.mhlw.go.jp/znk-web/juminkanja/S2430/initialize?prefCd=31&kikanCd=DE010104&kikanKbn=3", "url2": null, "内容": "せいきょう歯科クリニック鹿野【3:歯科】鳥取県鳥取市鹿野町今市２４２鳥取医療生協　鹿野温泉病院" }, "geometry": { "type": "Point", "coordinates": [ 134.0503627, 35.4620311 ] } },
{ "type": "Feature", "properties": { "ID": "313DE010105", "正式名称": "本荘歯科クリニック", "機関区分": 3, "都道府県コード": 31, "市区町村コード": 201, "所在地": "鳥取県鳥取市古海６６４－１６", "緯度": 35.494889, "経度": 134.208367, "url": "https://www.iryou.teikyouseido.mhlw.go.jp/znk-web/juminkanja/S2430/initialize?prefCd=31&kikanCd=DE010105&kikanKbn=3", "url2": "https://honjo-shika.jp/clinic-2/#sec8", "内容": "本荘歯科クリニック【3:歯科】鳥取県鳥取市古海６６４－１６" }, "geometry": { "type": "Point", "coordinates": [ 134.208367, 35.494889 ] } },
{ "type": "Feature", "properties": { "ID": "313DE010106", "正式名称": "立川の森歯科クリニック", "機関区分": 3, "都道府県コード": 31, "市区町村コード": 201, "所在地": "鳥取県鳥取市立川町五丁目５２番地４", "緯度": 35.485825, "経度": 134.2461, "url": "https://www.iryou.teikyouseido.mhlw.go.jp/znk-web/juminkanja/S2430/initialize?prefCd=31&kikanCd=DE010106&kikanKbn=3", "url2": null, "内容": "立川の森歯科クリニック【3:歯科】鳥取県鳥取市立川町五丁目５２番地４" }, "geometry": { "type": "Point", "coordinates": [ 134.2461, 35.485825 ] } },
{ "type": "Feature", "properties": { "ID": "313DE010107", "正式名称": "坂口デンタルオフィス", "機関区分": 3, "都道府県コード": 31, "市区町村コード": 201, "所在地": "鳥取県鳥取市片原５丁目４１４番１", "緯度": 35.504694, "経度": 134.229364, "url": "https://www.iryou.teikyouseido.mhlw.go.jp/znk-web/juminkanja/S2430/initialize?prefCd=31&kikanCd=DE010107&kikanKbn=3", "url2": "https://sakaguchi-dental-office-counseling-room.com/", "内容": "坂口デンタルオフィス【3:歯科】鳥取県鳥取市片原５丁目４１４番１" }, "geometry": { "type": "Point", "coordinates": [ 134.229364, 35.504694 ] } },
{ "type": "Feature", "properties": { "ID": "313DE010108", "正式名称": "まちなか歯科クリニック", "機関区分": 3, "都道府県コード": 31, "市区町村コード": 201, "所在地": "鳥取県鳥取市行徳１丁目２０１−５", "緯度": 35.498072, "経度": 134.220635, "url": "https://www.iryou.teikyouseido.mhlw.go.jp/znk-web/juminkanja/S2430/initialize?prefCd=31&kikanCd=DE010108&kikanKbn=3", "url2": null, "内容": "まちなか歯科クリニック【3:歯科】鳥取県鳥取市行徳１丁目２０１−５" }, "geometry": { "type": "Point", "coordinates": [ 134.220635, 35.498072 ] } },
{ "type": "Feature", "properties": { "ID": "313DE010109", "正式名称": "おうちだに谷口歯科クリニック", "機関区分": 3, "都道府県コード": 31, "市区町村コード": 201, "所在地": "鳥取県鳥取市御弓町５３－１１", "緯度": 35.49652, "経度": 134.238479, "url": "https://www.iryou.teikyouseido.mhlw.go.jp/znk-web/juminkanja/S2430/initialize?prefCd=31&kikanCd=DE010109&kikanKbn=3", "url2": null, "内容": "おうちだに谷口歯科クリニック【3:歯科】鳥取県鳥取市御弓町５３－１１" }, "geometry": { "type": "Point", "coordinates": [ 134.238479, 35.49652 ] } },
{ "type": "Feature", "properties": { "ID": "313DE010110", "正式名称": "山根歯科医院", "機関区分": 3, "都道府県コード": 31, "市区町村コード": 201, "所在地": "鳥取県鳥取市東町３丁目２５８番地１", "緯度": 35.508056, "経度": 134.232769, "url": "https://www.iryou.teikyouseido.mhlw.go.jp/znk-web/juminkanja/S2430/initialize?prefCd=31&kikanCd=DE010110&kikanKbn=3", "url2": null, "内容": "山根歯科医院【3:歯科】鳥取県鳥取市東町３丁目２５８番地１" }, "geometry": { "type": "Point", "coordinates": [ 134.232769, 35.508056 ] } },
{ "type": "Feature", "properties": { "ID": "313DE020001", "正式名称": "医療法人　清水歯科医院", "機関区分": 3, "都道府県コード": 31, "市区町村コード": 302, "所在地": "鳥取県岩美郡岩美町浦富１０３５－２", "緯度": 35.574425, "経度": 134.335153, "url": "https://www.iryou.teikyouseido.mhlw.go.jp/znk-web/juminkanja/S2430/initialize?prefCd=31&kikanCd=DE020001&kikanKbn=3", "url2": null, "内容": "医療法人　清水歯科医院【3:歯科】鳥取県岩美郡岩美町浦富１０３５－２" }, "geometry": { "type": "Point", "coordinates": [ 134.335153, 35.574425 ] } },
{ "type": "Feature", "properties": { "ID": "313DE020002", "正式名称": "永美歯科医院", "機関区分": 3, "都道府県コード": 31, "市区町村コード": 302, "所在地": "鳥取県岩美郡岩美町浦富１７１８－２", "緯度": 35.585722, "経度": 134.326711, "url": "https://www.iryou.teikyouseido.mhlw.go.jp/znk-web/juminkanja/S2430/initialize?prefCd=31&kikanCd=DE020002&kikanKbn=3", "url2": null, "内容": "永美歯科医院【3:歯科】鳥取県岩美郡岩美町浦富１７１８－２" }, "geometry": { "type": "Point", "coordinates": [ 134.326711, 35.585722 ] } },
{ "type": "Feature", "properties": { "ID": "313DE020003", "正式名称": "いわみ歯科クリニック", "機関区分": 3, "都道府県コード": 31, "市区町村コード": 302, "所在地": "鳥取県岩美郡岩美町浦富１０４８－１０", "緯度": 35.577319, "経度": 134.333201, "url": "https://www.iryou.teikyouseido.mhlw.go.jp/znk-web/juminkanja/S2430/initialize?prefCd=31&kikanCd=DE020003&kikanKbn=3", "url2": null, "内容": "いわみ歯科クリニック【3:歯科】鳥取県岩美郡岩美町浦富１０４８－１０" }, "geometry": { "type": "Point", "coordinates": [ 134.333201, 35.577319 ] } },
{ "type": "Feature", "properties": { "ID": "313DE030001", "正式名称": "中尾歯科医院", "機関区分": 3, "都道府県コード": 31, "市区町村コード": 325, "所在地": "鳥取県八頭郡若桜町若桜２７７", "緯度": 35.342689, "経度": 134.398274, "url": "https://www.iryou.teikyouseido.mhlw.go.jp/znk-web/juminkanja/S2430/initialize?prefCd=31&kikanCd=DE030001&kikanKbn=3", "url2": null, "内容": "中尾歯科医院【3:歯科】鳥取県八頭郡若桜町若桜２７７" }, "geometry": { "type": "Point", "coordinates": [ 134.398274, 35.342689 ] } },
{ "type": "Feature", "properties": { "ID": "313DE030002", "正式名称": "福田歯科医院", "機関区分": 3, "都道府県コード": 31, "市区町村コード": 325, "所在地": "鳥取県八頭郡若桜町若桜３９８－１", "緯度": 35.344575, "経度": 134.396886, "url": "https://www.iryou.teikyouseido.mhlw.go.jp/znk-web/juminkanja/S2430/initialize?prefCd=31&kikanCd=DE030002&kikanKbn=3", "url2": null, "内容": "福田歯科医院【3:歯科】鳥取県八頭郡若桜町若桜３９８－１" }, "geometry": { "type": "Point", "coordinates": [ 134.396886, 35.344575 ] } },
{ "type": "Feature", "properties": { "ID": "313DE040004", "正式名称": "たなべ歯科", "機関区分": 3, "都道府県コード": 31, "市区町村コード": 328, "所在地": "鳥取県八頭郡智頭町智頭１５３９－３", "緯度": 35.266025, "経度": 134.228642, "url": "https://www.iryou.teikyouseido.mhlw.go.jp/znk-web/juminkanja/S2430/initialize?prefCd=31&kikanCd=DE040004&kikanKbn=3", "url2": null, "内容": "たなべ歯科【3:歯科】鳥取県八頭郡智頭町智頭１５３９－３" }, "geometry": { "type": "Point", "coordinates": [ 134.228642, 35.266025 ] } },
{ "type": "Feature", "properties": { "ID": "313DE050002", "正式名称": "植田歯科医院", "機関区分": 3, "都道府県コード": 31, "市区町村コード": 329, "所在地": "鳥取県八頭郡八頭町郡家", "緯度": 35.412308, "経度": 134.25468, "url": "https://www.iryou.teikyouseido.mhlw.go.jp/znk-web/juminkanja/S2430/initialize?prefCd=31&kikanCd=DE050002&kikanKbn=3", "url2": null, "内容": "植田歯科医院【3:歯科】鳥取県八頭郡八頭町郡家" }, "geometry": { "type": "Point", "coordinates": [ 134.25468, 35.412308 ] } },
{ "type": "Feature", "properties": { "ID": "313DE050004", "正式名称": "医療法人岸本歯科医院", "機関区分": 3, "都道府県コード": 31, "市区町村コード": 329, "所在地": "鳥取県八頭郡八頭町福本２ー１１", "緯度": 35.416375, "経度": 134.252251, "url": "https://www.iryou.teikyouseido.mhlw.go.jp/znk-web/juminkanja/S2430/initialize?prefCd=31&kikanCd=DE050004&kikanKbn=3", "url2": null, "内容": "医療法人岸本歯科医院【3:歯科】鳥取県八頭郡八頭町福本２ー１１" }, "geometry": { "type": "Point", "coordinates": [ 134.252251, 35.416375 ] } },
{ "type": "Feature", "properties": { "ID": "313DE050006", "正式名称": "医療法人谷口歯科医院", "機関区分": 3, "都道府県コード": 31, "市区町村コード": 329, "所在地": "鳥取県八頭郡八頭町北山９６－３７", "緯度": 35.361011, "経度": 134.355556, "url": "https://www.iryou.teikyouseido.mhlw.go.jp/znk-web/juminkanja/S2430/initialize?prefCd=31&kikanCd=DE050006&kikanKbn=3", "url2": null, "内容": "医療法人谷口歯科医院【3:歯科】鳥取県八頭郡八頭町北山９６－３７" }, "geometry": { "type": "Point", "coordinates": [ 134.355556, 35.361011 ] } },
{ "type": "Feature", "properties": { "ID": "313DE050007", "正式名称": "医療法人社団友愛会　入江歯科医院", "機関区分": 3, "都道府県コード": 31, "市区町村コード": 329, "所在地": "鳥取県八頭郡八頭町安井宿１１０２番地１", "緯度": 35.375892, "経度": 134.299794, "url": "https://www.iryou.teikyouseido.mhlw.go.jp/znk-web/juminkanja/S2430/initialize?prefCd=31&kikanCd=DE050007&kikanKbn=3", "url2": null, "内容": "医療法人社団友愛会　入江歯科医院【3:歯科】鳥取県八頭郡八頭町安井宿１１０２番地１" }, "geometry": { "type": "Point", "coordinates": [ 134.299794, 35.375892 ] } },
{ "type": "Feature", "properties": { "ID": "313DE050008", "正式名称": "谷尾歯科医院", "機関区分": 3, "都道府県コード": 31, "市区町村コード": 329, "所在地": "鳥取県八頭郡八頭町郡家５９０−８", "緯度": 35.412308, "経度": 134.25468, "url": "https://www.iryou.teikyouseido.mhlw.go.jp/znk-web/juminkanja/S2430/initialize?prefCd=31&kikanCd=DE050008&kikanKbn=3", "url2": "https://tanio-dc.com/", "内容": "谷尾歯科医院【3:歯科】鳥取県八頭郡八頭町郡家５９０−８" }, "geometry": { "type": "Point", "coordinates": [ 134.25468, 35.412308 ] } },
{ "type": "Feature", "properties": { "ID": "313DM060001", "正式名称": "きしだ歯科クリニック", "機関区分": 3, "都道府県コード": 31, "市区町村コード": 203, "所在地": "鳥取県倉吉市福庭町一丁目二二二番地きしだ歯科クリニック", "緯度": 35.468487, "経度": 133.848768, "url": "https://www.iryou.teikyouseido.mhlw.go.jp/znk-web/juminkanja/S2430/initialize?prefCd=31&kikanCd=DM060001&kikanKbn=3", "url2": "https://www.kishida-dc.jp/", "内容": "きしだ歯科クリニック【3:歯科】鳥取県倉吉市福庭町一丁目二二二番地きしだ歯科クリニック" }, "geometry": { "type": "Point", "coordinates": [ 133.848768, 35.468487 ] } },
{ "type": "Feature", "properties": { "ID": "313DM060002", "正式名称": "一般社団法人鳥取県中部歯科医師会口腔衛生センター", "機関区分": 3, "都道府県コード": 31, "市区町村コード": 203, "所在地": "鳥取県倉吉市東巌城町６８番地", "緯度": 35.436633, "経度": 133.845005, "url": "https://www.iryou.teikyouseido.mhlw.go.jp/znk-web/juminkanja/S2430/initialize?prefCd=31&kikanCd=DM060002&kikanKbn=3", "url2": null, "内容": "一般社団法人鳥取県中部歯科医師会口腔衛生センター【3:歯科】鳥取県倉吉市東巌城町６８番地" }, "geometry": { "type": "Point", "coordinates": [ 133.845005, 35.436633 ] } },
{ "type": "Feature", "properties": { "ID": "313DM060003", "正式名称": "医療法人明生会あけしま歯科", "機関区分": 3, "都道府県コード": 31, "市区町村コード": 203, "所在地": "鳥取県倉吉市幸町５０７－２０", "緯度": 35.435387, "経度": 133.835998, "url": "https://www.iryou.teikyouseido.mhlw.go.jp/znk-web/juminkanja/S2430/initialize?prefCd=31&kikanCd=DM060003&kikanKbn=3", "url2": "https://akeshima-ortho.com/", "内容": "医療法人明生会あけしま歯科【3:歯科】鳥取県倉吉市幸町５０７－２０" }, "geometry": { "type": "Point", "coordinates": [ 133.835998, 35.435387 ] } },
{ "type": "Feature", "properties": { "ID": "313DM060004", "正式名称": "大月歯科医院", "機関区分": 3, "都道府県コード": 31, "市区町村コード": 203, "所在地": "鳥取県倉吉市上井３３３－１６", "緯度": 35.455039, "経度": 133.846851, "url": "https://www.iryou.teikyouseido.mhlw.go.jp/znk-web/juminkanja/S2430/initialize?prefCd=31&kikanCd=DM060004&kikanKbn=3", "url2": null, "内容": "大月歯科医院【3:歯科】鳥取県倉吉市上井３３３－１６" }, "geometry": { "type": "Point", "coordinates": [ 133.846851, 35.455039 ] } },
{ "type": "Feature", "properties": { "ID": "313DM060006", "正式名称": "かどわき歯科クリニック", "機関区分": 3, "都道府県コード": 31, "市区町村コード": 203, "所在地": "鳥取県倉吉市上井３６４－５", "緯度": 35.451308, "経度": 133.845581, "url": "https://www.iryou.teikyouseido.mhlw.go.jp/znk-web/juminkanja/S2430/initialize?prefCd=31&kikanCd=DM060006&kikanKbn=3", "url2": "http://www.kadowaki-dc.jp", "内容": "かどわき歯科クリニック【3:歯科】鳥取県倉吉市上井３６４－５" }, "geometry": { "type": "Point", "coordinates": [ 133.845581, 35.451308 ] } },
{ "type": "Feature", "properties": { "ID": "313DM060007", "正式名称": "河崎歯科医院", "機関区分": 3, "都道府県コード": 31, "市区町村コード": 203, "所在地": "鳥取県倉吉市福庭町二丁目一三河﨑歯科医院", "緯度": 35.466809, "経度": 133.846826, "url": "https://www.iryou.teikyouseido.mhlw.go.jp/znk-web/juminkanja/S2430/initialize?prefCd=31&kikanCd=DM060007&kikanKbn=3", "url2": null, "内容": "河崎歯科医院【3:歯科】鳥取県倉吉市福庭町二丁目一三河﨑歯科医院" }, "geometry": { "type": "Point", "coordinates": [ 133.846826, 35.466809 ] } },
{ "type": "Feature", "properties": { "ID": "313DM060008", "正式名称": "医療法人木本歯科医院", "機関区分": 3, "都道府県コード": 31, "市区町村コード": 203, "所在地": "鳥取県倉吉市昭和町１－１７４", "緯度": 35.433355, "経度": 133.835395, "url": "https://www.iryou.teikyouseido.mhlw.go.jp/znk-web/juminkanja/S2430/initialize?prefCd=31&kikanCd=DM060008&kikanKbn=3", "url2": "http://www.tkkdc.com/", "内容": "医療法人木本歯科医院【3:歯科】鳥取県倉吉市昭和町１－１７４" }, "geometry": { "type": "Point", "coordinates": [ 133.835395, 35.433355 ] } },
{ "type": "Feature", "properties": { "ID": "313DM060009", "正式名称": "医療法人くまの歯科医院", "機関区分": 3, "都道府県コード": 31, "市区町村コード": 203, "所在地": "鳥取県倉吉市西町２７０２くまの歯科医院", "緯度": 35.431953, "経度": 133.82143, "url": "https://www.iryou.teikyouseido.mhlw.go.jp/znk-web/juminkanja/S2430/initialize?prefCd=31&kikanCd=DM060009&kikanKbn=3", "url2": null, "内容": "医療法人くまの歯科医院【3:歯科】鳥取県倉吉市西町２７０２くまの歯科医院" }, "geometry": { "type": "Point", "coordinates": [ 133.82143, 35.431953 ] } },
{ "type": "Feature", "properties": { "ID": "313DM060011", "正式名称": "しばた歯科", "機関区分": 3, "都道府県コード": 31, "市区町村コード": 203, "所在地": "鳥取県倉吉市清谷町１－８－１", "緯度": 35.471061, "経度": 133.847057, "url": "https://www.iryou.teikyouseido.mhlw.go.jp/znk-web/juminkanja/S2430/initialize?prefCd=31&kikanCd=DM060011&kikanKbn=3", "url2": null, "内容": "しばた歯科【3:歯科】鳥取県倉吉市清谷町１－８－１" }, "geometry": { "type": "Point", "coordinates": [ 133.847057, 35.471061 ] } },
{ "type": "Feature", "properties": { "ID": "313DM060012", "正式名称": "谷口歯科医院", "機関区分": 3, "都道府県コード": 31, "市区町村コード": 203, "所在地": "鳥取県倉吉市倉吉市昭和町１−２１", "緯度": 35.433798, "経度": 133.837511, "url": "https://www.iryou.teikyouseido.mhlw.go.jp/znk-web/juminkanja/S2430/initialize?prefCd=31&kikanCd=DM060012&kikanKbn=3", "url2": null, "内容": "谷口歯科医院【3:歯科】鳥取県倉吉市倉吉市昭和町１−２１" }, "geometry": { "type": "Point", "coordinates": [ 133.837511, 35.433798 ] } },
{ "type": "Feature", "properties": { "ID": "313DM060013", "正式名称": "ちか歯科クリニック", "機関区分": 3, "都道府県コード": 31, "市区町村コード": 203, "所在地": "鳥取県倉吉市西福守町５９２－１", "緯度": 35.431253, "経度": 133.803864, "url": "https://www.iryou.teikyouseido.mhlw.go.jp/znk-web/juminkanja/S2430/initialize?prefCd=31&kikanCd=DM060013&kikanKbn=3", "url2": "https://chikadental.com/", "内容": "ちか歯科クリニック【3:歯科】鳥取県倉吉市西福守町５９２－１" }, "geometry": { "type": "Point", "coordinates": [ 133.803864, 35.431253 ] } },
{ "type": "Feature", "properties": { "ID": "313DM060014", "正式名称": "花池デンタルクリニック", "機関区分": 3, "都道府県コード": 31, "市区町村コード": 203, "所在地": "鳥取県倉吉市生田３５６－２", "緯度": 35.418292, "経度": 133.805756, "url": "https://www.iryou.teikyouseido.mhlw.go.jp/znk-web/juminkanja/S2430/initialize?prefCd=31&kikanCd=DM060014&kikanKbn=3", "url2": null, "内容": "花池デンタルクリニック【3:歯科】鳥取県倉吉市生田３５６－２" }, "geometry": { "type": "Point", "coordinates": [ 133.805756, 35.418292 ] } },
{ "type": "Feature", "properties": { "ID": "313DM060015", "正式名称": "ひぐち歯科クリニック", "機関区分": 3, "都道府県コード": 31, "市区町村コード": 203, "所在地": "鳥取県倉吉市明治町２－４３", "緯度": 35.434933, "経度": 133.823636, "url": "https://www.iryou.teikyouseido.mhlw.go.jp/znk-web/juminkanja/S2430/initialize?prefCd=31&kikanCd=DM060015&kikanKbn=3", "url2": "https://higuchidc.jp/", "内容": "ひぐち歯科クリニック【3:歯科】鳥取県倉吉市明治町２－４３" }, "geometry": { "type": "Point", "coordinates": [ 133.823636, 35.434933 ] } },
{ "type": "Feature", "properties": { "ID": "313DM060016", "正式名称": "ひまわり歯科医院", "機関区分": 3, "都道府県コード": 31, "市区町村コード": 203, "所在地": "鳥取県倉吉市井手畑６９－３", "緯度": 35.469072, "経度": 133.833473, "url": "https://www.iryou.teikyouseido.mhlw.go.jp/znk-web/juminkanja/S2430/initialize?prefCd=31&kikanCd=DM060016&kikanKbn=3", "url2": null, "内容": "ひまわり歯科医院【3:歯科】鳥取県倉吉市井手畑６９－３" }, "geometry": { "type": "Point", "coordinates": [ 133.833473, 35.469072 ] } },
{ "type": "Feature", "properties": { "ID": "313DM060018", "正式名称": "松本歯科医院", "機関区分": 3, "都道府県コード": 31, "市区町村コード": 203, "所在地": "鳥取県倉吉市住吉町５８", "緯度": 35.43171, "経度": 133.833441, "url": "https://www.iryou.teikyouseido.mhlw.go.jp/znk-web/juminkanja/S2430/initialize?prefCd=31&kikanCd=DM060018&kikanKbn=3", "url2": null, "内容": "松本歯科医院【3:歯科】鳥取県倉吉市住吉町５８" }, "geometry": { "type": "Point", "coordinates": [ 133.833441, 35.43171 ] } },
{ "type": "Feature", "properties": { "ID": "313DM060019", "正式名称": "三代歯科医院", "機関区分": 3, "都道府県コード": 31, "市区町村コード": 203, "所在地": "鳥取県倉吉市上井町２丁目８－２１", "緯度": 35.452883, "経度": 133.847772, "url": "https://www.iryou.teikyouseido.mhlw.go.jp/znk-web/juminkanja/S2430/initialize?prefCd=31&kikanCd=DM060019&kikanKbn=3", "url2": null, "内容": "三代歯科医院【3:歯科】鳥取県倉吉市上井町２丁目８－２１" }, "geometry": { "type": "Point", "coordinates": [ 133.847772, 35.452883 ] } },
{ "type": "Feature", "properties": { "ID": "313DM060020", "正式名称": "医療法人　森本歯科医院", "機関区分": 3, "都道府県コード": 31, "市区町村コード": 203, "所在地": "鳥取県倉吉市明治町１０３１－２６", "緯度": 35.433437, "経度": 133.823851, "url": "https://www.iryou.teikyouseido.mhlw.go.jp/znk-web/juminkanja/S2430/initialize?prefCd=31&kikanCd=DM060020&kikanKbn=3", "url2": null, "内容": "医療法人　森本歯科医院【3:歯科】鳥取県倉吉市明治町１０３１－２６" }, "geometry": { "type": "Point", "coordinates": [ 133.823851, 35.433437 ] } },
{ "type": "Feature", "properties": { "ID": "313DM060021", "正式名称": "医療法人社団　山中歯科医院", "機関区分": 3, "都道府県コード": 31, "市区町村コード": 203, "所在地": "鳥取県倉吉市東巌城町１７０番地", "緯度": 35.435733, "経度": 133.842797, "url": "https://www.iryou.teikyouseido.mhlw.go.jp/znk-web/juminkanja/S2430/initialize?prefCd=31&kikanCd=DM060021&kikanKbn=3", "url2": null, "内容": "医療法人社団　山中歯科医院【3:歯科】鳥取県倉吉市東巌城町１７０番地" }, "geometry": { "type": "Point", "coordinates": [ 133.842797, 35.435733 ] } },
{ "type": "Feature", "properties": { "ID": "313DM060022", "正式名称": "やまもと歯科医院", "機関区分": 3, "都道府県コード": 31, "市区町村コード": 203, "所在地": "鳥取県倉吉市東町３５１ー２", "緯度": 35.430768, "経度": 133.828744, "url": "https://www.iryou.teikyouseido.mhlw.go.jp/znk-web/juminkanja/S2430/initialize?prefCd=31&kikanCd=DM060022&kikanKbn=3", "url2": null, "内容": "やまもと歯科医院【3:歯科】鳥取県倉吉市東町３５１ー２" }, "geometry": { "type": "Point", "coordinates": [ 133.828744, 35.430768 ] } },
{ "type": "Feature", "properties": { "ID": "313DM060023", "正式名称": "医療法人　吉井歯科医院", "機関区分": 3, "都道府県コード": 31, "市区町村コード": 203, "所在地": "鳥取県倉吉市東巌城町１０１", "緯度": 35.438267, "経度": 133.844208, "url": "https://www.iryou.teikyouseido.mhlw.go.jp/znk-web/juminkanja/S2430/initialize?prefCd=31&kikanCd=DM060023&kikanKbn=3", "url2": null, "内容": "医療法人　吉井歯科医院【3:歯科】鳥取県倉吉市東巌城町１０１" }, "geometry": { "type": "Point", "coordinates": [ 133.844208, 35.438267 ] } },
{ "type": "Feature", "properties": { "ID": "313DM060024", "正式名称": "小川歯科医院", "機関区分": 3, "都道府県コード": 31, "市区町村コード": 203, "所在地": "鳥取県倉吉市関金町関金宿２４６ー１小川歯科医院", "緯度": 35.366837, "経度": 133.759007, "url": "https://www.iryou.teikyouseido.mhlw.go.jp/znk-web/juminkanja/S2430/initialize?prefCd=31&kikanCd=DM060024&kikanKbn=3", "url2": null, "内容": "小川歯科医院【3:歯科】鳥取県倉吉市関金町関金宿２４６ー１小川歯科医院" }, "geometry": { "type": "Point", "coordinates": [ 133.759007, 35.366837 ] } },
{ "type": "Feature", "properties": { "ID": "313DM060025", "正式名称": "浜吉歯科クリニック", "機関区分": 3, "都道府県コード": 31, "市区町村コード": 203, "所在地": "鳥取県倉吉市清谷町１丁目１９３－２", "緯度": 35.475364, "経度": 133.850942, "url": "https://www.iryou.teikyouseido.mhlw.go.jp/znk-web/juminkanja/S2430/initialize?prefCd=31&kikanCd=DM060025&kikanKbn=3", "url2": "https://www.hama-dc.com", "内容": "浜吉歯科クリニック【3:歯科】鳥取県倉吉市清谷町１丁目１９３－２" }, "geometry": { "type": "Point", "coordinates": [ 133.850942, 35.475364 ] } },
{ "type": "Feature", "properties": { "ID": "313DM060026", "正式名称": "うつぶき歯科クリニック", "機関区分": 3, "都道府県コード": 31, "市区町村コード": 203, "所在地": "鳥取県倉吉市鍛冶町１丁目２９７１－５０うつぶき歯科クリニック", "緯度": 35.429492, "経度": 133.816036, "url": "https://www.iryou.teikyouseido.mhlw.go.jp/znk-web/juminkanja/S2430/initialize?prefCd=31&kikanCd=DM060026&kikanKbn=3", "url2": null, "内容": "うつぶき歯科クリニック【3:歯科】鳥取県倉吉市鍛冶町１丁目２９７１－５０うつぶき歯科クリニック" }, "geometry": { "type": "Point", "coordinates": [ 133.816036, 35.429492 ] } },
{ "type": "Feature", "properties": { "ID": "313DM060027", "正式名称": "たけ歯科医院", "機関区分": 3, "都道府県コード": 31, "市区町村コード": 203, "所在地": "鳥取県倉吉市駄経寺町２－４０－２", "緯度": 35.429597, "経度": 133.837948, "url": "https://www.iryou.teikyouseido.mhlw.go.jp/znk-web/juminkanja/S2430/initialize?prefCd=31&kikanCd=DM060027&kikanKbn=3", "url2": null, "内容": "たけ歯科医院【3:歯科】鳥取県倉吉市駄経寺町２－４０－２" }, "geometry": { "type": "Point", "coordinates": [ 133.837948, 35.429597 ] } },
{ "type": "Feature", "properties": { "ID": "313DM060028", "正式名称": "社会医療法人仁厚会　藤井政雄記念病院附属歯科クリニック", "機関区分": 3, "都道府県コード": 31, "市区町村コード": 203, "所在地": "鳥取県倉吉市山根４３－１", "緯度": 35.450373, "経度": 133.85632, "url": "https://www.iryou.teikyouseido.mhlw.go.jp/znk-web/juminkanja/S2430/initialize?prefCd=31&kikanCd=DM060028&kikanKbn=3", "url2": "https://www.med,jp/", "内容": "社会医療法人仁厚会　藤井政雄記念病院附属歯科クリニック【3:歯科】鳥取県倉吉市山根４３－１" }, "geometry": { "type": "Point", "coordinates": [ 133.85632, 35.450373 ] } },
{ "type": "Feature", "properties": { "ID": "313DM060029", "正式名称": "パープル歯科クリニック", "機関区分": 3, "都道府県コード": 31, "市区町村コード": 203, "所在地": "鳥取県倉吉市山根５４０－１パープルビル２階１号室", "緯度": 35.447729, "経度": 133.848774, "url": "https://www.iryou.teikyouseido.mhlw.go.jp/znk-web/juminkanja/S2430/initialize?prefCd=31&kikanCd=DM060029&kikanKbn=3", "url2": null, "内容": "パープル歯科クリニック【3:歯科】鳥取県倉吉市山根５４０－１パープルビル２階１号室" }, "geometry": { "type": "Point", "coordinates": [ 133.848774, 35.447729 ] } },
{ "type": "Feature", "properties": { "ID": "313DM060031", "正式名称": "さくら坂歯科クリニック", "機関区分": 3, "都道府県コード": 31, "市区町村コード": 203, "所在地": "鳥取県倉吉市東巌城町１２０－１プライムスクエアビル１Ｆ", "緯度": 35.438681, "経度": 133.843567, "url": "https://www.iryou.teikyouseido.mhlw.go.jp/znk-web/juminkanja/S2430/initialize?prefCd=31&kikanCd=DM060031&kikanKbn=3", "url2": null, "内容": "さくら坂歯科クリニック【3:歯科】鳥取県倉吉市東巌城町１２０－１プライムスクエアビル１Ｆ" }, "geometry": { "type": "Point", "coordinates": [ 133.843567, 35.438681 ] } },
{ "type": "Feature", "properties": { "ID": "313DM070001", "正式名称": "ララ歯科クリニック", "機関区分": 3, "都道府県コード": 31, "市区町村コード": 364, "所在地": "鳥取県東伯郡三朝町大瀬１０７６ー４", "緯度": 35.40786, "経度": 133.8609, "url": "https://www.iryou.teikyouseido.mhlw.go.jp/znk-web/juminkanja/S2430/initialize?prefCd=31&kikanCd=DM070001&kikanKbn=3", "url2": null, "内容": "ララ歯科クリニック【3:歯科】鳥取県東伯郡三朝町大瀬１０７６ー４" }, "geometry": { "type": "Point", "coordinates": [ 133.8609, 35.40786 ] } },
{ "type": "Feature", "properties": { "ID": "313DM080003", "正式名称": "さくら歯科診療所", "機関区分": 3, "都道府県コード": 31, "市区町村コード": 370, "所在地": "鳥取県東伯郡湯梨浜町泊１２５４－１", "緯度": 35.515179, "経度": 133.940497, "url": "https://www.iryou.teikyouseido.mhlw.go.jp/znk-web/juminkanja/S2430/initialize?prefCd=31&kikanCd=DM080003&kikanKbn=3", "url2": null, "内容": "さくら歯科診療所【3:歯科】鳥取県東伯郡湯梨浜町泊１２５４－１" }, "geometry": { "type": "Point", "coordinates": [ 133.940497, 35.515179 ] } },
{ "type": "Feature", "properties": { "ID": "313DM080004", "正式名称": "あだち歯科医院", "機関区分": 3, "都道府県コード": 31, "市区町村コード": 370, "所在地": "鳥取県東伯郡湯梨浜町中興寺３５８－１", "緯度": 35.469961, "経度": 133.905525, "url": "https://www.iryou.teikyouseido.mhlw.go.jp/znk-web/juminkanja/S2430/initialize?prefCd=31&kikanCd=DM080004&kikanKbn=3", "url2": null, "内容": "あだち歯科医院【3:歯科】鳥取県東伯郡湯梨浜町中興寺３５８－１" }, "geometry": { "type": "Point", "coordinates": [ 133.905525, 35.469961 ] } },
{ "type": "Feature", "properties": { "ID": "313DM080005", "正式名称": "音田歯科医院", "機関区分": 3, "都道府県コード": 31, "市区町村コード": 370, "所在地": "鳥取県東伯郡湯梨浜町旭７７−２", "緯度": 35.468295, "経度": 133.8996, "url": "https://www.iryou.teikyouseido.mhlw.go.jp/znk-web/juminkanja/S2430/initialize?prefCd=31&kikanCd=DM080005&kikanKbn=3", "url2": null, "内容": "音田歯科医院【3:歯科】鳥取県東伯郡湯梨浜町旭７７−２" }, "geometry": { "type": "Point", "coordinates": [ 133.8996, 35.468295 ] } },
{ "type": "Feature", "properties": { "ID": "313DM090001", "正式名称": "石亀歯科医院", "機関区分": 3, "都道府県コード": 31, "市区町村コード": 371, "所在地": "鳥取県東伯郡琴浦町徳万４９１－７", "緯度": 35.501933, "経度": 133.693256, "url": "https://www.iryou.teikyouseido.mhlw.go.jp/znk-web/juminkanja/S2430/initialize?prefCd=31&kikanCd=DM090001&kikanKbn=3", "url2": null, "内容": "石亀歯科医院【3:歯科】鳥取県東伯郡琴浦町徳万４９１－７" }, "geometry": { "type": "Point", "coordinates": [ 133.693256, 35.501933 ] } },
{ "type": "Feature", "properties": { "ID": "313DM090002", "正式名称": "岡本歯科医院", "機関区分": 3, "都道府県コード": 31, "市区町村コード": 371, "所在地": "鳥取県東伯郡琴浦町浦安１０２番地２", "緯度": 35.492554, "経度": 133.694334, "url": "https://www.iryou.teikyouseido.mhlw.go.jp/znk-web/juminkanja/S2430/initialize?prefCd=31&kikanCd=DM090002&kikanKbn=3", "url2": null, "内容": "岡本歯科医院【3:歯科】鳥取県東伯郡琴浦町浦安１０２番地２" }, "geometry": { "type": "Point", "coordinates": [ 133.694334, 35.492554 ] } },
{ "type": "Feature", "properties": { "ID": "313DM090004", "正式名称": "くにたけ歯科クリニック", "機関区分": 3, "都道府県コード": 31, "市区町村コード": 371, "所在地": "鳥取県東伯郡琴浦町八橋７９－９", "緯度": 35.502558, "経度": 133.68255, "url": "https://www.iryou.teikyouseido.mhlw.go.jp/znk-web/juminkanja/S2430/initialize?prefCd=31&kikanCd=DM090004&kikanKbn=3", "url2": null, "内容": "くにたけ歯科クリニック【3:歯科】鳥取県東伯郡琴浦町八橋７９－９" }, "geometry": { "type": "Point", "coordinates": [ 133.68255, 35.502558 ] } },
{ "type": "Feature", "properties": { "ID": "313DM090005", "正式名称": "船木歯科クリニック", "機関区分": 3, "都道府県コード": 31, "市区町村コード": 371, "所在地": "鳥取県東伯郡琴浦町赤碕１０８７－９船木歯科クリニック", "緯度": 35.514217, "経度": 133.635253, "url": "https://www.iryou.teikyouseido.mhlw.go.jp/znk-web/juminkanja/S2430/initialize?prefCd=31&kikanCd=DM090005&kikanKbn=3", "url2": null, "内容": "船木歯科クリニック【3:歯科】鳥取県東伯郡琴浦町赤碕１０８７－９船木歯科クリニック" }, "geometry": { "type": "Point", "coordinates": [ 133.635253, 35.514217 ] } },
{ "type": "Feature", "properties": { "ID": "313DM090006", "正式名称": "桑本歯科", "機関区分": 3, "都道府県コード": 31, "市区町村コード": 371, "所在地": "鳥取県東伯郡琴浦町保５２番地", "緯度": 35.497862, "経度": 133.690455, "url": "https://www.iryou.teikyouseido.mhlw.go.jp/znk-web/juminkanja/S2430/initialize?prefCd=31&kikanCd=DM090006&kikanKbn=3", "url2": null, "内容": "桑本歯科【3:歯科】鳥取県東伯郡琴浦町保５２番地" }, "geometry": { "type": "Point", "coordinates": [ 133.690455, 35.497862 ] } },
{ "type": "Feature", "properties": { "ID": "313DM100001", "正式名称": "仲歯科医院", "機関区分": 3, "都道府県コード": 31, "市区町村コード": 372, "所在地": "鳥取県東伯郡北栄町由良宿１１４４－１", "緯度": 35.493405, "経度": 133.755015, "url": "https://www.iryou.teikyouseido.mhlw.go.jp/znk-web/juminkanja/S2430/initialize?prefCd=31&kikanCd=DM100001&kikanKbn=3", "url2": null, "内容": "仲歯科医院【3:歯科】鳥取県東伯郡北栄町由良宿１１４４－１" }, "geometry": { "type": "Point", "coordinates": [ 133.755015, 35.493405 ] } },
{ "type": "Feature", "properties": { "ID": "313DM100002", "正式名称": "医療法人　橋本歯科医院", "機関区分": 3, "都道府県コード": 31, "市区町村コード": 372, "所在地": "鳥取県東伯郡北栄町由良宿５５２－１０", "緯度": 35.491644, "経度": 133.756928, "url": "https://www.iryou.teikyouseido.mhlw.go.jp/znk-web/juminkanja/S2430/initialize?prefCd=31&kikanCd=DM100002&kikanKbn=3", "url2": null, "内容": "医療法人　橋本歯科医院【3:歯科】鳥取県東伯郡北栄町由良宿５５２－１０" }, "geometry": { "type": "Point", "coordinates": [ 133.756928, 35.491644 ] } },
{ "type": "Feature", "properties": { "ID": "313DM100003", "正式名称": "えりぃ歯科クリニック", "機関区分": 3, "都道府県コード": 31, "市区町村コード": 372, "所在地": "鳥取県東伯郡北栄町弓原２９３－２えりぃ歯科クリニック", "緯度": 35.482681, "経度": 133.812081, "url": "https://www.iryou.teikyouseido.mhlw.go.jp/znk-web/juminkanja/S2430/initialize?prefCd=31&kikanCd=DM100003&kikanKbn=3", "url2": "https://www.ellie-dental.com/", "内容": "えりぃ歯科クリニック【3:歯科】鳥取県東伯郡北栄町弓原２９３－２えりぃ歯科クリニック" }, "geometry": { "type": "Point", "coordinates": [ 133.812081, 35.482681 ] } },
{ "type": "Feature", "properties": { "ID": "313DW110001", "正式名称": "あおば歯科医院", "機関区分": 3, "都道府県コード": 31, "市区町村コード": 202, "所在地": "鳥取県米子市福市１１７０－３", "緯度": 35.406997, "経度": 133.365364, "url": "https://www.iryou.teikyouseido.mhlw.go.jp/znk-web/juminkanja/S2430/initialize?prefCd=31&kikanCd=DW110001&kikanKbn=3", "url2": null, "内容": "あおば歯科医院【3:歯科】鳥取県米子市福市１１７０－３" }, "geometry": { "type": "Point", "coordinates": [ 133.365364, 35.406997 ] } },
{ "type": "Feature", "properties": { "ID": "313DW110003", "正式名称": "医療法人社団あさくら歯科医院", "機関区分": 3, "都道府県コード": 31, "市区町村コード": 202, "所在地": "鳥取県米子市西福原５－８－１７", "緯度": 35.445875, "経度": 133.341256, "url": "https://www.iryou.teikyouseido.mhlw.go.jp/znk-web/juminkanja/S2430/initialize?prefCd=31&kikanCd=DW110003&kikanKbn=3", "url2": null, "内容": "医療法人社団あさくら歯科医院【3:歯科】鳥取県米子市西福原５－８－１７" }, "geometry": { "type": "Point", "coordinates": [ 133.341256, 35.445875 ] } },
{ "type": "Feature", "properties": { "ID": "313DW110004", "正式名称": "アーニスト歯科クリニック", "機関区分": 3, "都道府県コード": 31, "市区町村コード": 202, "所在地": "鳥取県米子市旗ヶ崎６－１９－３７", "緯度": 35.438861, "経度": 133.313522, "url": "https://www.iryou.teikyouseido.mhlw.go.jp/znk-web/juminkanja/S2430/initialize?prefCd=31&kikanCd=DW110004&kikanKbn=3", "url2": null, "内容": "アーニスト歯科クリニック【3:歯科】鳥取県米子市旗ヶ崎６－１９－３７" }, "geometry": { "type": "Point", "coordinates": [ 133.313522, 35.438861 ] } },
{ "type": "Feature", "properties": { "ID": "313DW110007", "正式名称": "医療法人社団いけぐち歯科クリニック", "機関区分": 3, "都道府県コード": 31, "市区町村コード": 202, "所在地": "鳥取県米子市西福原９−１１−１３", "緯度": 35.454147, "経度": 133.338084, "url": "https://www.iryou.teikyouseido.mhlw.go.jp/znk-web/juminkanja/S2430/initialize?prefCd=31&kikanCd=DW110007&kikanKbn=3", "url2": null, "内容": "医療法人社団いけぐち歯科クリニック【3:歯科】鳥取県米子市西福原９−１１−１３" }, "geometry": { "type": "Point", "coordinates": [ 133.338084, 35.454147 ] } },
{ "type": "Feature", "properties": { "ID": "313DW110010", "正式名称": "医療法人社団　今井歯科クリニック", "機関区分": 3, "都道府県コード": 31, "市区町村コード": 202, "所在地": "鳥取県米子市両三柳２０３３", "緯度": 35.452574, "経度": 133.329484, "url": "https://www.iryou.teikyouseido.mhlw.go.jp/znk-web/juminkanja/S2430/initialize?prefCd=31&kikanCd=DW110010&kikanKbn=3", "url2": "https://yonagoshiimaishika.cihp2.jp/", "内容": "医療法人社団　今井歯科クリニック【3:歯科】鳥取県米子市両三柳２０３３" }, "geometry": { "type": "Point", "coordinates": [ 133.329484, 35.452574 ] } },
{ "type": "Feature", "properties": { "ID": "313DW110011", "正式名称": "医療法人社団　植木歯科医院", "機関区分": 3, "都道府県コード": 31, "市区町村コード": 202, "所在地": "鳥取県米子市諏訪５１－５", "緯度": 35.430992, "経度": 133.360933, "url": "https://www.iryou.teikyouseido.mhlw.go.jp/znk-web/juminkanja/S2430/initialize?prefCd=31&kikanCd=DW110011&kikanKbn=3", "url2": null, "内容": "医療法人社団　植木歯科医院【3:歯科】鳥取県米子市諏訪５１－５" }, "geometry": { "type": "Point", "coordinates": [ 133.360933, 35.430992 ] } },
{ "type": "Feature", "properties": { "ID": "313DW110013", "正式名称": "岡本歯科医院", "機関区分": 3, "都道府県コード": 31, "市区町村コード": 202, "所在地": "鳥取県米子市加茂町１丁目３６", "緯度": 35.429008, "経度": 133.328108, "url": "https://www.iryou.teikyouseido.mhlw.go.jp/znk-web/juminkanja/S2430/initialize?prefCd=31&kikanCd=DW110013&kikanKbn=3", "url2": null, "内容": "岡本歯科医院【3:歯科】鳥取県米子市加茂町１丁目３６" }, "geometry": { "type": "Point", "coordinates": [ 133.328108, 35.429008 ] } },
{ "type": "Feature", "properties": { "ID": "313DW110014", "正式名称": "小川歯科医院", "機関区分": 3, "都道府県コード": 31, "市区町村コード": 202, "所在地": "鳥取県米子市両三柳４４８１－３", "緯度": 35.460442, "経度": 133.317072, "url": "https://www.iryou.teikyouseido.mhlw.go.jp/znk-web/juminkanja/S2430/initialize?prefCd=31&kikanCd=DW110014&kikanKbn=3", "url2": null, "内容": "小川歯科医院【3:歯科】鳥取県米子市両三柳４４８１－３" }, "geometry": { "type": "Point", "coordinates": [ 133.317072, 35.460442 ] } },
{ "type": "Feature", "properties": { "ID": "313DW110015", "正式名称": "かず歯科医院", "機関区分": 3, "都道府県コード": 31, "市区町村コード": 202, "所在地": "鳥取県米子市三本松２−１３−２３かず歯科医院", "緯度": 35.44175, "経度": 133.321922, "url": "https://www.iryou.teikyouseido.mhlw.go.jp/znk-web/juminkanja/S2430/initialize?prefCd=31&kikanCd=DW110015&kikanKbn=3", "url2": "https://kaz-dent.com", "内容": "かず歯科医院【3:歯科】鳥取県米子市三本松２−１３−２３かず歯科医院" }, "geometry": { "type": "Point", "coordinates": [ 133.321922, 35.44175 ] } },
{ "type": "Feature", "properties": { "ID": "313DW110016", "正式名称": "医療法人社団　杉山歯科医院", "機関区分": 3, "都道府県コード": 31, "市区町村コード": 202, "所在地": "鳥取県米子市冨士見町２丁目３１", "緯度": 35.431692, "経度": 133.336086, "url": "https://www.iryou.teikyouseido.mhlw.go.jp/znk-web/juminkanja/S2430/initialize?prefCd=31&kikanCd=DW110016&kikanKbn=3", "url2": "https://www.kiyamashika.com/", "内容": "医療法人社団　杉山歯科医院【3:歯科】鳥取県米子市冨士見町２丁目３１" }, "geometry": { "type": "Point", "coordinates": [ 133.336086, 35.431692 ] } },
{ "type": "Feature", "properties": { "ID": "313DW110017", "正式名称": "杉山歯科クリニック", "機関区分": 3, "都道府県コード": 31, "市区町村コード": 202, "所在地": "鳥取県米子市夜見町３０４６－１", "緯度": 35.471253, "経度": 133.29685, "url": "https://www.iryou.teikyouseido.mhlw.go.jp/znk-web/juminkanja/S2430/initialize?prefCd=31&kikanCd=DW110017&kikanKbn=3", "url2": null, "内容": "杉山歯科クリニック【3:歯科】鳥取県米子市夜見町３０４６－１" }, "geometry": { "type": "Point", "coordinates": [ 133.29685, 35.471253 ] } },
{ "type": "Feature", "properties": { "ID": "313DW110018", "正式名称": "きやま歯科医院", "機関区分": 3, "都道府県コード": 31, "市区町村コード": 202, "所在地": "鳥取県米子市両三柳３５－２", "緯度": 35.450453, "経度": 133.333577, "url": "https://www.iryou.teikyouseido.mhlw.go.jp/znk-web/juminkanja/S2430/initialize?prefCd=31&kikanCd=DW110018&kikanKbn=3", "url2": "kiyama-shika.com", "内容": "きやま歯科医院【3:歯科】鳥取県米子市両三柳３５－２" }, "geometry": { "type": "Point", "coordinates": [ 133.333577, 35.450453 ] } },
{ "type": "Feature", "properties": { "ID": "313DW110019", "正式名称": "くらさと歯科医院", "機関区分": 3, "都道府県コード": 31, "市区町村コード": 202, "所在地": "鳥取県米子市皆生新田２丁目１―１５", "緯度": 35.450383, "経度": 133.365944, "url": "https://www.iryou.teikyouseido.mhlw.go.jp/znk-web/juminkanja/S2430/initialize?prefCd=31&kikanCd=DW110019&kikanKbn=3", "url2": "https://www.kurasato-shika.com/", "内容": "くらさと歯科医院【3:歯科】鳥取県米子市皆生新田２丁目１―１５" }, "geometry": { "type": "Point", "coordinates": [ 133.365944, 35.450383 ] } },
{ "type": "Feature", "properties": { "ID": "313DW110020", "正式名称": "Ｋ＋ｎ矯正歯科", "機関区分": 3, "都道府県コード": 31, "市区町村コード": 202, "所在地": "鳥取県米子市長砂町５３ー２", "緯度": 35.42553, "経度": 133.351768, "url": "https://www.iryou.teikyouseido.mhlw.go.jp/znk-web/juminkanja/S2430/initialize?prefCd=31&kikanCd=DW110020&kikanKbn=3", "url2": "http://www.kn-smile.jp/", "内容": "Ｋ＋ｎ矯正歯科【3:歯科】鳥取県米子市長砂町５３ー２" }, "geometry": { "type": "Point", "coordinates": [ 133.351768, 35.42553 ] } },
{ "type": "Feature", "properties": { "ID": "313DW110021", "正式名称": "恵歯科医院", "機関区分": 3, "都道府県コード": 31, "市区町村コード": 202, "所在地": "鳥取県米子市熊党９９", "緯度": 35.428461, "経度": 133.379447, "url": "https://www.iryou.teikyouseido.mhlw.go.jp/znk-web/juminkanja/S2430/initialize?prefCd=31&kikanCd=DW110021&kikanKbn=3", "url2": null, "内容": "恵歯科医院【3:歯科】鳥取県米子市熊党９９" }, "geometry": { "type": "Point", "coordinates": [ 133.379447, 35.428461 ] } },
{ "type": "Feature", "properties": { "ID": "313DW110022", "正式名称": "けい歯科クリニック", "機関区分": 3, "都道府県コード": 31, "市区町村コード": 202, "所在地": "鳥取県米子市安倍９７－５", "緯度": 35.443183, "経度": 133.305878, "url": "https://www.iryou.teikyouseido.mhlw.go.jp/znk-web/juminkanja/S2430/initialize?prefCd=31&kikanCd=DW110022&kikanKbn=3", "url2": null, "内容": "けい歯科クリニック【3:歯科】鳥取県米子市安倍９７－５" }, "geometry": { "type": "Point", "coordinates": [ 133.305878, 35.443183 ] } },
{ "type": "Feature", "properties": { "ID": "313DW110028", "正式名称": "さかもと歯科クリニック", "機関区分": 3, "都道府県コード": 31, "市区町村コード": 202, "所在地": "鳥取県米子市両三柳３４５２", "緯度": 35.450294, "経度": 133.311678, "url": "https://www.iryou.teikyouseido.mhlw.go.jp/znk-web/juminkanja/S2430/initialize?prefCd=31&kikanCd=DW110028&kikanKbn=3", "url2": "sdc6460.com", "内容": "さかもと歯科クリニック【3:歯科】鳥取県米子市両三柳３４５２" }, "geometry": { "type": "Point", "coordinates": [ 133.311678, 35.450294 ] } },
{ "type": "Feature", "properties": { "ID": "313DW110029", "正式名称": "佐々木歯科医院", "機関区分": 3, "都道府県コード": 31, "市区町村コード": 202, "所在地": "鳥取県米子市祇園町２－２０佐々木歯科医院", "緯度": 35.42114, "経度": 133.3252, "url": "https://www.iryou.teikyouseido.mhlw.go.jp/znk-web/juminkanja/S2430/initialize?prefCd=31&kikanCd=DW110029&kikanKbn=3", "url2": null, "内容": "佐々木歯科医院【3:歯科】鳥取県米子市祇園町２－２０佐々木歯科医院" }, "geometry": { "type": "Point", "coordinates": [ 133.3252, 35.42114 ] } },
{ "type": "Feature", "properties": { "ID": "313DW110030", "正式名称": "清水歯科クリニック", "機関区分": 3, "都道府県コード": 31, "市区町村コード": 202, "所在地": "鳥取県米子市宗像９４６－１", "緯度": 35.414342, "経度": 133.353086, "url": "https://www.iryou.teikyouseido.mhlw.go.jp/znk-web/juminkanja/S2430/initialize?prefCd=31&kikanCd=DW110030&kikanKbn=3", "url2": null, "内容": "清水歯科クリニック【3:歯科】鳥取県米子市宗像９４６－１" }, "geometry": { "type": "Point", "coordinates": [ 133.353086, 35.414342 ] } },
{ "type": "Feature", "properties": { "ID": "313DW110032", "正式名称": "鈴木歯科医院", "機関区分": 3, "都道府県コード": 31, "市区町村コード": 202, "所在地": "鳥取県米子市加茂町１丁目２２番地", "緯度": 35.428809, "経度": 133.329523, "url": "https://www.iryou.teikyouseido.mhlw.go.jp/znk-web/juminkanja/S2430/initialize?prefCd=31&kikanCd=DW110032&kikanKbn=3", "url2": null, "内容": "鈴木歯科医院【3:歯科】鳥取県米子市加茂町１丁目２２番地" }, "geometry": { "type": "Point", "coordinates": [ 133.329523, 35.428809 ] } },
{ "type": "Feature", "properties": { "ID": "313DW110033", "正式名称": "すどう歯科クリニック", "機関区分": 3, "都道府県コード": 31, "市区町村コード": 202, "所在地": "鳥取県米子市観音寺新町３丁目１－１１", "緯度": 35.426039, "経度": 133.359069, "url": "https://www.iryou.teikyouseido.mhlw.go.jp/znk-web/juminkanja/S2430/initialize?prefCd=31&kikanCd=DW110033&kikanKbn=3", "url2": "http://sudo-den.com", "内容": "すどう歯科クリニック【3:歯科】鳥取県米子市観音寺新町３丁目１－１１" }, "geometry": { "type": "Point", "coordinates": [ 133.359069, 35.426039 ] } },
{ "type": "Feature", "properties": { "ID": "313DW110037", "正式名称": "医療法人社団　高野歯科医院", "機関区分": 3, "都道府県コード": 31, "市区町村コード": 202, "所在地": "鳥取県米子市東福原３－１－１５", "緯度": 35.442114, "経度": 133.345944, "url": "https://www.iryou.teikyouseido.mhlw.go.jp/znk-web/juminkanja/S2430/initialize?prefCd=31&kikanCd=DW110037&kikanKbn=3", "url2": null, "内容": "医療法人社団　高野歯科医院【3:歯科】鳥取県米子市東福原３－１－１５" }, "geometry": { "type": "Point", "coordinates": [ 133.345944, 35.442114 ] } },
{ "type": "Feature", "properties": { "ID": "313DW110038", "正式名称": "たかの歯科クリニック", "機関区分": 3, "都道府県コード": 31, "市区町村コード": 202, "所在地": "鳥取県米子市博労町２丁目３１番地", "緯度": 35.431406, "経度": 133.342094, "url": "https://www.iryou.teikyouseido.mhlw.go.jp/znk-web/juminkanja/S2430/initialize?prefCd=31&kikanCd=DW110038&kikanKbn=3", "url2": null, "内容": "たかの歯科クリニック【3:歯科】鳥取県米子市博労町２丁目３１番地" }, "geometry": { "type": "Point", "coordinates": [ 133.342094, 35.431406 ] } },
{ "type": "Feature", "properties": { "ID": "313DW110039", "正式名称": "田本歯科医院", "機関区分": 3, "都道府県コード": 31, "市区町村コード": 202, "所在地": "鳥取県米子市万能町９番地", "緯度": 35.425675, "経度": 133.335275, "url": "https://www.iryou.teikyouseido.mhlw.go.jp/znk-web/juminkanja/S2430/initialize?prefCd=31&kikanCd=DW110039&kikanKbn=3", "url2": null, "内容": "田本歯科医院【3:歯科】鳥取県米子市万能町９番地" }, "geometry": { "type": "Point", "coordinates": [ 133.335275, 35.425675 ] } },
{ "type": "Feature", "properties": { "ID": "313DW110041", "正式名称": "医療法人社団辻󠄀歯科医院", "機関区分": 3, "都道府県コード": 31, "市区町村コード": 202, "所在地": "鳥取県米子市車尾４－３－４６", "緯度": 35.432769, "経度": 133.359427, "url": "https://www.iryou.teikyouseido.mhlw.go.jp/znk-web/juminkanja/S2430/initialize?prefCd=31&kikanCd=DW110041&kikanKbn=3", "url2": null, "内容": "医療法人社団辻󠄀歯科医院【3:歯科】鳥取県米子市車尾４－３－４６" }, "geometry": { "type": "Point", "coordinates": [ 133.359427, 35.432769 ] } },
{ "type": "Feature", "properties": { "ID": "313DW110042", "正式名称": "鳥取県西部歯科保健センター", "機関区分": 3, "都道府県コード": 31, "市区町村コード": 202, "所在地": "鳥取県米子市両三柳１０４－１", "緯度": 35.434907, "経度": 133.333965, "url": "https://www.iryou.teikyouseido.mhlw.go.jp/znk-web/juminkanja/S2430/initialize?prefCd=31&kikanCd=DW110042&kikanKbn=3", "url2": null, "内容": "鳥取県西部歯科保健センター【3:歯科】鳥取県米子市両三柳１０４－１" }, "geometry": { "type": "Point", "coordinates": [ 133.333965, 35.434907 ] } },
{ "type": "Feature", "properties": { "ID": "313DW110045", "正式名称": "医療法人社団知真会ナガタ歯科", "機関区分": 3, "都道府県コード": 31, "市区町村コード": 202, "所在地": "鳥取県米子市米原４－３－２３", "緯度": 35.441308, "経度": 133.334878, "url": "https://www.iryou.teikyouseido.mhlw.go.jp/znk-web/juminkanja/S2430/initialize?prefCd=31&kikanCd=DW110045&kikanKbn=3", "url2": null, "内容": "医療法人社団知真会ナガタ歯科【3:歯科】鳥取県米子市米原４－３－２３" }, "geometry": { "type": "Point", "coordinates": [ 133.334878, 35.441308 ] } },
{ "type": "Feature", "properties": { "ID": "313DW110046", "正式名称": "医療法人社団　ナガセデンタルクリニック", "機関区分": 3, "都道府県コード": 31, "市区町村コード": 202, "所在地": "鳥取県米子市三旗町４番２１号", "緯度": 35.440968, "経度": 133.321976, "url": "https://www.iryou.teikyouseido.mhlw.go.jp/znk-web/juminkanja/S2430/initialize?prefCd=31&kikanCd=DW110046&kikanKbn=3", "url2": null, "内容": "医療法人社団　ナガセデンタルクリニック【3:歯科】鳥取県米子市三旗町４番２１号" }, "geometry": { "type": "Point", "coordinates": [ 133.321976, 35.440968 ] } },
{ "type": "Feature", "properties": { "ID": "313DW110048", "正式名称": "医療法人社団新納歯科大崎医院", "機関区分": 3, "都道府県コード": 31, "市区町村コード": 202, "所在地": "鳥取県米子市大崎１２７６−１", "緯度": 35.474255, "経度": 133.25922, "url": "https://www.iryou.teikyouseido.mhlw.go.jp/znk-web/juminkanja/S2430/initialize?prefCd=31&kikanCd=DW110048&kikanKbn=3", "url2": null, "内容": "医療法人社団新納歯科大崎医院【3:歯科】鳥取県米子市大崎１２７６−１" }, "geometry": { "type": "Point", "coordinates": [ 133.25922, 35.474255 ] } },
{ "type": "Feature", "properties": { "ID": "313DW110049", "正式名称": "医療法人社団野口歯科医院", "機関区分": 3, "都道府県コード": 31, "市区町村コード": 202, "所在地": "鳥取県米子市旗ヶ崎１丁目２番１号", "緯度": 35.436803, "経度": 133.320166, "url": "https://www.iryou.teikyouseido.mhlw.go.jp/znk-web/juminkanja/S2430/initialize?prefCd=31&kikanCd=DW110049&kikanKbn=3", "url2": null, "内容": "医療法人社団野口歯科医院【3:歯科】鳥取県米子市旗ヶ崎１丁目２番１号" }, "geometry": { "type": "Point", "coordinates": [ 133.320166, 35.436803 ] } },
{ "type": "Feature", "properties": { "ID": "313DW110050", "正式名称": "医療法人社団野坂歯科医院", "機関区分": 3, "都道府県コード": 31, "市区町村コード": 202, "所在地": "鳥取県米子市福市１７２５－１野坂歯科医院", "緯度": 35.3991, "経度": 133.374575, "url": "https://www.iryou.teikyouseido.mhlw.go.jp/znk-web/juminkanja/S2430/initialize?prefCd=31&kikanCd=DW110050&kikanKbn=3", "url2": null, "内容": "医療法人社団野坂歯科医院【3:歯科】鳥取県米子市福市１７２５－１野坂歯科医院" }, "geometry": { "type": "Point", "coordinates": [ 133.374575, 35.3991 ] } },
{ "type": "Feature", "properties": { "ID": "313DW110051", "正式名称": "医療法人陽和会歯科ノサカクリニック", "機関区分": 3, "都道府県コード": 31, "市区町村コード": 202, "所在地": "鳥取県米子市西福原８－１０－４３", "緯度": 35.452737, "経度": 133.343006, "url": "https://www.iryou.teikyouseido.mhlw.go.jp/znk-web/juminkanja/S2430/initialize?prefCd=31&kikanCd=DW110051&kikanKbn=3", "url2": null, "内容": "医療法人陽和会歯科ノサカクリニック【3:歯科】鳥取県米子市西福原８－１０－４３" }, "geometry": { "type": "Point", "coordinates": [ 133.343006, 35.452737 ] } },
{ "type": "Feature", "properties": { "ID": "313DW110053", "正式名称": "林原歯科クリニック", "機関区分": 3, "都道府県コード": 31, "市区町村コード": 202, "所在地": "鳥取県米子市東福原６－７－３", "緯度": 35.44732, "経度": 133.345024, "url": "https://www.iryou.teikyouseido.mhlw.go.jp/znk-web/juminkanja/S2430/initialize?prefCd=31&kikanCd=DW110053&kikanKbn=3", "url2": "https://www.hayashibara-dc.com/index.php", "内容": "林原歯科クリニック【3:歯科】鳥取県米子市東福原６－７－３" }, "geometry": { "type": "Point", "coordinates": [ 133.345024, 35.44732 ] } },
{ "type": "Feature", "properties": { "ID": "313DW110054", "正式名称": "医療法人社団　彦歯科医院", "機関区分": 3, "都道府県コード": 31, "市区町村コード": 202, "所在地": "鳥取県米子市東福原６－３－４３", "緯度": 35.447031, "経度": 133.345881, "url": "https://www.iryou.teikyouseido.mhlw.go.jp/znk-web/juminkanja/S2430/initialize?prefCd=31&kikanCd=DW110054&kikanKbn=3", "url2": null, "内容": "医療法人社団　彦歯科医院【3:歯科】鳥取県米子市東福原６－３－４３" }, "geometry": { "type": "Point", "coordinates": [ 133.345881, 35.447031 ] } },
{ "type": "Feature", "properties": { "ID": "313DW110056", "正式名称": "ひらばやし歯科クリニック", "機関区分": 3, "都道府県コード": 31, "市区町村コード": 202, "所在地": "鳥取県米子市夜見町２７８８－５", "緯度": 35.463817, "経度": 133.304158, "url": "https://www.iryou.teikyouseido.mhlw.go.jp/znk-web/juminkanja/S2430/initialize?prefCd=31&kikanCd=DW110056&kikanKbn=3", "url2": null, "内容": "ひらばやし歯科クリニック【3:歯科】鳥取県米子市夜見町２７８８－５" }, "geometry": { "type": "Point", "coordinates": [ 133.304158, 35.463817 ] } },
{ "type": "Feature", "properties": { "ID": "313DW110057", "正式名称": "舩木歯科クリニック", "機関区分": 3, "都道府県コード": 31, "市区町村コード": 202, "所在地": "鳥取県米子市西福原１１－２", "緯度": 35.430147, "経度": 133.357003, "url": "https://www.iryou.teikyouseido.mhlw.go.jp/znk-web/juminkanja/S2430/initialize?prefCd=31&kikanCd=DW110057&kikanKbn=3", "url2": null, "内容": "舩木歯科クリニック【3:歯科】鳥取県米子市西福原１１－２" }, "geometry": { "type": "Point", "coordinates": [ 133.357003, 35.430147 ] } },
{ "type": "Feature", "properties": { "ID": "313DW110059", "正式名称": "ホワイト歯科医院", "機関区分": 3, "都道府県コード": 31, "市区町村コード": 202, "所在地": "鳥取県米子市石井６９９―３", "緯度": 35.403546, "経度": 133.343817, "url": "https://www.iryou.teikyouseido.mhlw.go.jp/znk-web/juminkanja/S2430/initialize?prefCd=31&kikanCd=DW110059&kikanKbn=3", "url2": null, "内容": "ホワイト歯科医院【3:歯科】鳥取県米子市石井６９９―３" }, "geometry": { "type": "Point", "coordinates": [ 133.343817, 35.403546 ] } },
{ "type": "Feature", "properties": { "ID": "313DW110060", "正式名称": "本田歯科医院", "機関区分": 3, "都道府県コード": 31, "市区町村コード": 202, "所在地": "鳥取県米子市一部２９８", "緯度": 35.407738, "経度": 133.3957, "url": "https://www.iryou.teikyouseido.mhlw.go.jp/znk-web/juminkanja/S2430/initialize?prefCd=31&kikanCd=DW110060&kikanKbn=3", "url2": null, "内容": "本田歯科医院【3:歯科】鳥取県米子市一部２９８" }, "geometry": { "type": "Point", "coordinates": [ 133.3957, 35.407738 ] } },
{ "type": "Feature", "properties": { "ID": "313DW110062", "正式名称": "みやじ歯科", "機関区分": 3, "都道府県コード": 31, "市区町村コード": 202, "所在地": "鳥取県米子市両三柳２７４０", "緯度": 35.459165, "経度": 133.320449, "url": "https://www.iryou.teikyouseido.mhlw.go.jp/znk-web/juminkanja/S2430/initialize?prefCd=31&kikanCd=DW110062&kikanKbn=3", "url2": null, "内容": "みやじ歯科【3:歯科】鳥取県米子市両三柳２７４０" }, "geometry": { "type": "Point", "coordinates": [ 133.320449, 35.459165 ] } },
{ "type": "Feature", "properties": { "ID": "313DW110063", "正式名称": "やお歯科クリニック", "機関区分": 3, "都道府県コード": 31, "市区町村コード": 202, "所在地": "鳥取県米子市上福原３丁目３－２２", "緯度": 35.447215, "経度": 133.352886, "url": "https://www.iryou.teikyouseido.mhlw.go.jp/znk-web/juminkanja/S2430/initialize?prefCd=31&kikanCd=DW110063&kikanKbn=3", "url2": "http://www.chukai.ne.jp/~myaon80/", "内容": "やお歯科クリニック【3:歯科】鳥取県米子市上福原３丁目３－２２" }, "geometry": { "type": "Point", "coordinates": [ 133.352886, 35.447215 ] } },
{ "type": "Feature", "properties": { "ID": "313DW110067", "正式名称": "歯科吉田医院", "機関区分": 3, "都道府県コード": 31, "市区町村コード": 202, "所在地": "鳥取県米子市和田町１８０７の１", "緯度": 35.48468, "経度": 133.26892, "url": "https://www.iryou.teikyouseido.mhlw.go.jp/znk-web/juminkanja/S2430/initialize?prefCd=31&kikanCd=DW110067&kikanKbn=3", "url2": null, "内容": "歯科吉田医院【3:歯科】鳥取県米子市和田町１８０７の１" }, "geometry": { "type": "Point", "coordinates": [ 133.26892, 35.48468 ] } },
{ "type": "Feature", "properties": { "ID": "313DW110069", "正式名称": "医療法人社団　米原歯科クリニック", "機関区分": 3, "都道府県コード": 31, "市区町村コード": 202, "所在地": "鳥取県米子市米原８－１－３８", "緯度": 35.446356, "経度": 133.335258, "url": "https://www.iryou.teikyouseido.mhlw.go.jp/znk-web/juminkanja/S2430/initialize?prefCd=31&kikanCd=DW110069&kikanKbn=3", "url2": null, "内容": "医療法人社団　米原歯科クリニック【3:歯科】鳥取県米子市米原８－１－３８" }, "geometry": { "type": "Point", "coordinates": [ 133.335258, 35.446356 ] } },
{ "type": "Feature", "properties": { "ID": "313DW110071", "正式名称": "ワイエイデンタルクリニック", "機関区分": 3, "都道府県コード": 31, "市区町村コード": 202, "所在地": "鳥取県米子市両三柳１０７", "緯度": 35.451963, "経度": 133.325806, "url": "https://www.iryou.teikyouseido.mhlw.go.jp/znk-web/juminkanja/S2430/initialize?prefCd=31&kikanCd=DW110071&kikanKbn=3", "url2": "https://yadental.jp/", "内容": "ワイエイデンタルクリニック【3:歯科】鳥取県米子市両三柳１０７" }, "geometry": { "type": "Point", "coordinates": [ 133.325806, 35.451963 ] } },
{ "type": "Feature", "properties": { "ID": "313DW110072", "正式名称": "渡部歯科医院", "機関区分": 3, "都道府県コード": 31, "市区町村コード": 202, "所在地": "鳥取県米子市四日市町９４", "緯度": 35.429842, "経度": 133.332658, "url": "https://www.iryou.teikyouseido.mhlw.go.jp/znk-web/juminkanja/S2430/initialize?prefCd=31&kikanCd=DW110072&kikanKbn=3", "url2": null, "内容": "渡部歯科医院【3:歯科】鳥取県米子市四日市町９４" }, "geometry": { "type": "Point", "coordinates": [ 133.332658, 35.429842 ] } },
{ "type": "Feature", "properties": { "ID": "313DW110073", "正式名称": "いなむら歯科", "機関区分": 3, "都道府県コード": 31, "市区町村コード": 202, "所在地": "鳥取県米子市淀江町淀江６８１－４９", "緯度": 35.458899, "経度": 133.425433, "url": "https://www.iryou.teikyouseido.mhlw.go.jp/znk-web/juminkanja/S2430/initialize?prefCd=31&kikanCd=DW110073&kikanKbn=3", "url2": "https://www.inamura-dental.com/", "内容": "いなむら歯科【3:歯科】鳥取県米子市淀江町淀江６８１－４９" }, "geometry": { "type": "Point", "coordinates": [ 133.425433, 35.458899 ] } },
{ "type": "Feature", "properties": { "ID": "313DW110075", "正式名称": "どい歯科クリニック", "機関区分": 3, "都道府県コード": 31, "市区町村コード": 202, "所在地": "鳥取県米子市淀江町佐陀２１３５－５", "緯度": 35.451025, "経度": 133.395558, "url": "https://www.iryou.teikyouseido.mhlw.go.jp/znk-web/juminkanja/S2430/initialize?prefCd=31&kikanCd=DW110075&kikanKbn=3", "url2": null, "内容": "どい歯科クリニック【3:歯科】鳥取県米子市淀江町佐陀２１３５－５" }, "geometry": { "type": "Point", "coordinates": [ 133.395558, 35.451025 ] } },
{ "type": "Feature", "properties": { "ID": "313DW110077", "正式名称": "デンタル　サロン　ド　ブライト", "機関区分": 3, "都道府県コード": 31, "市区町村コード": 202, "所在地": "鳥取県米子市四日市町４６", "緯度": 35.429178, "経度": 133.332075, "url": "https://www.iryou.teikyouseido.mhlw.go.jp/znk-web/juminkanja/S2430/initialize?prefCd=31&kikanCd=DW110077&kikanKbn=3", "url2": null, "内容": "デンタル　サロン　ド　ブライト【3:歯科】鳥取県米子市四日市町４６" }, "geometry": { "type": "Point", "coordinates": [ 133.332075, 35.429178 ] } },
{ "type": "Feature", "properties": { "ID": "313DW110078", "正式名称": "ＴＡＫＡデンタルクリニック", "機関区分": 3, "都道府県コード": 31, "市区町村コード": 202, "所在地": "鳥取県米子市道笑町４丁目８７番地１", "緯度": 35.424528, "経度": 133.346789, "url": "https://www.iryou.teikyouseido.mhlw.go.jp/znk-web/juminkanja/S2430/initialize?prefCd=31&kikanCd=DW110078&kikanKbn=3", "url2": null, "内容": "ＴＡＫＡデンタルクリニック【3:歯科】鳥取県米子市道笑町４丁目８７番地１" }, "geometry": { "type": "Point", "coordinates": [ 133.346789, 35.424528 ] } },
{ "type": "Feature", "properties": { "ID": "313DW110082", "正式名称": "伊藤歯科医院", "機関区分": 3, "都道府県コード": 31, "市区町村コード": 202, "所在地": "鳥取県米子市両三柳３２７６－１", "緯度": 35.456375, "経度": 133.318622, "url": "https://www.iryou.teikyouseido.mhlw.go.jp/znk-web/juminkanja/S2430/initialize?prefCd=31&kikanCd=DW110082&kikanKbn=3", "url2": null, "内容": "伊藤歯科医院【3:歯科】鳥取県米子市両三柳３２７６－１" }, "geometry": { "type": "Point", "coordinates": [ 133.318622, 35.456375 ] } },
{ "type": "Feature", "properties": { "ID": "313DW110083", "正式名称": "医療法人社団白石医院　けやき歯科", "機関区分": 3, "都道府県コード": 31, "市区町村コード": 202, "所在地": "鳥取県米子市新開７－５－３７", "緯度": 35.457192, "経度": 133.338688, "url": "https://www.iryou.teikyouseido.mhlw.go.jp/znk-web/juminkanja/S2430/initialize?prefCd=31&kikanCd=DW110083&kikanKbn=3", "url2": "https://www.keyaki-dental.info/", "内容": "医療法人社団白石医院　けやき歯科【3:歯科】鳥取県米子市新開７－５－３７" }, "geometry": { "type": "Point", "coordinates": [ 133.338688, 35.457192 ] } },
{ "type": "Feature", "properties": { "ID": "313DW110085", "正式名称": "たくま歯科", "機関区分": 3, "都道府県コード": 31, "市区町村コード": 202, "所在地": "鳥取県米子市陰田町２３８ー１", "緯度": 35.414552, "経度": 133.332231, "url": "https://www.iryou.teikyouseido.mhlw.go.jp/znk-web/juminkanja/S2430/initialize?prefCd=31&kikanCd=DW110085&kikanKbn=3", "url2": null, "内容": "たくま歯科【3:歯科】鳥取県米子市陰田町２３８ー１" }, "geometry": { "type": "Point", "coordinates": [ 133.332231, 35.414552 ] } },
{ "type": "Feature", "properties": { "ID": "313DW110086", "正式名称": "おかもと歯科", "機関区分": 3, "都道府県コード": 31, "市区町村コード": 202, "所在地": "鳥取県米子市皆生温泉１丁目１１－３４", "緯度": 35.456044, "経度": 133.357058, "url": "https://www.iryou.teikyouseido.mhlw.go.jp/znk-web/juminkanja/S2430/initialize?prefCd=31&kikanCd=DW110086&kikanKbn=3", "url2": null, "内容": "おかもと歯科【3:歯科】鳥取県米子市皆生温泉１丁目１１－３４" }, "geometry": { "type": "Point", "coordinates": [ 133.357058, 35.456044 ] } },
{ "type": "Feature", "properties": { "ID": "313DW110088", "正式名称": "かわつ歯科医院", "機関区分": 3, "都道府県コード": 31, "市区町村コード": 202, "所在地": "鳥取県米子市上福原３２４－１", "緯度": 35.434907, "経度": 133.333965, "url": "https://www.iryou.teikyouseido.mhlw.go.jp/znk-web/juminkanja/S2430/initialize?prefCd=31&kikanCd=DW110088&kikanKbn=3", "url2": null, "内容": "かわつ歯科医院【3:歯科】鳥取県米子市上福原３２４－１" }, "geometry": { "type": "Point", "coordinates": [ 133.333965, 35.434907 ] } },
{ "type": "Feature", "properties": { "ID": "313DW110089", "正式名称": "米子ハーミー歯科", "機関区分": 3, "都道府県コード": 31, "市区町村コード": 202, "所在地": "鳥取県米子市両三柳２２９６番１９", "緯度": 35.453629, "経度": 133.332487, "url": "https://www.iryou.teikyouseido.mhlw.go.jp/znk-web/juminkanja/S2430/initialize?prefCd=31&kikanCd=DW110089&kikanKbn=3", "url2": null, "内容": "米子ハーミー歯科【3:歯科】鳥取県米子市両三柳２２９６番１９" }, "geometry": { "type": "Point", "coordinates": [ 133.332487, 35.453629 ] } },
{ "type": "Feature", "properties": { "ID": "313DW110093", "正式名称": "にいのう歯科クリニック", "機関区分": 3, "都道府県コード": 31, "市区町村コード": 202, "所在地": "鳥取県米子市大崎１７１５", "緯度": 35.474339, "経度": 133.259517, "url": "https://www.iryou.teikyouseido.mhlw.go.jp/znk-web/juminkanja/S2430/initialize?prefCd=31&kikanCd=DW110093&kikanKbn=3", "url2": null, "内容": "にいのう歯科クリニック【3:歯科】鳥取県米子市大崎１７１５" }, "geometry": { "type": "Point", "coordinates": [ 133.259517, 35.474339 ] } },
{ "type": "Feature", "properties": { "ID": "313DW110094", "正式名称": "医療法人Ｓｍｉｌｅ中田歯科医院", "機関区分": 3, "都道府県コード": 31, "市区町村コード": 202, "所在地": "鳥取県米子市尾高２７４１－４", "緯度": 35.424672, "経度": 133.406002, "url": "https://www.iryou.teikyouseido.mhlw.go.jp/znk-web/juminkanja/S2430/initialize?prefCd=31&kikanCd=DW110094&kikanKbn=3", "url2": "nakadashikaiin.com", "内容": "医療法人Ｓｍｉｌｅ中田歯科医院【3:歯科】鳥取県米子市尾高２７４１－４" }, "geometry": { "type": "Point", "coordinates": [ 133.406002, 35.424672 ] } },
{ "type": "Feature", "properties": { "ID": "313DW110095", "正式名称": "米子ハーミー歯科", "機関区分": 3, "都道府県コード": 31, "市区町村コード": 202, "所在地": "鳥取県米子市両三柳２２９６番１９", "緯度": 35.453697, "経度": 133.332503, "url": "https://www.iryou.teikyouseido.mhlw.go.jp/znk-web/juminkanja/S2430/initialize?prefCd=31&kikanCd=DW110095&kikanKbn=3", "url2": null, "内容": "米子ハーミー歯科【3:歯科】鳥取県米子市両三柳２２９６番１９" }, "geometry": { "type": "Point", "coordinates": [ 133.332503, 35.453697 ] } },
{ "type": "Feature", "properties": { "ID": "313DW120003", "正式名称": "芹田歯科", "機関区分": 3, "都道府県コード": 31, "市区町村コード": 204, "所在地": "鳥取県境港市明治町６７", "緯度": 35.543378, "経度": 133.224833, "url": "https://www.iryou.teikyouseido.mhlw.go.jp/znk-web/juminkanja/S2430/initialize?prefCd=31&kikanCd=DW120003&kikanKbn=3", "url2": null, "内容": "芹田歯科【3:歯科】鳥取県境港市明治町６７" }, "geometry": { "type": "Point", "coordinates": [ 133.224833, 35.543378 ] } },
{ "type": "Feature", "properties": { "ID": "313DW120006", "正式名称": "医療法人社団　足立守歯科", "機関区分": 3, "都道府県コード": 31, "市区町村コード": 204, "所在地": "鳥取県境港市明治町８番地", "緯度": 35.543992, "経度": 133.231006, "url": "https://www.iryou.teikyouseido.mhlw.go.jp/znk-web/juminkanja/S2430/initialize?prefCd=31&kikanCd=DW120006&kikanKbn=3", "url2": "https://adachimamoru-dc.com/", "内容": "医療法人社団　足立守歯科【3:歯科】鳥取県境港市明治町８番地" }, "geometry": { "type": "Point", "coordinates": [ 133.231006, 35.543992 ] } },
{ "type": "Feature", "properties": { "ID": "313DW120007", "正式名称": "医療法人社団小徳歯科クリニック", "機関区分": 3, "都道府県コード": 31, "市区町村コード": 204, "所在地": "鳥取県境港市元町４１番地", "緯度": 35.541903, "経度": 133.233542, "url": "https://www.iryou.teikyouseido.mhlw.go.jp/znk-web/juminkanja/S2430/initialize?prefCd=31&kikanCd=DW120007&kikanKbn=3", "url2": null, "内容": "医療法人社団小徳歯科クリニック【3:歯科】鳥取県境港市元町４１番地" }, "geometry": { "type": "Point", "coordinates": [ 133.233542, 35.541903 ] } },
{ "type": "Feature", "properties": { "ID": "313DW120008", "正式名称": "ひまわり歯科医院", "機関区分": 3, "都道府県コード": 31, "市区町村コード": 204, "所在地": "鳥取県境港市外江町２４５５ひまわり歯科医院", "緯度": 35.531071, "経度": 133.209789, "url": "https://www.iryou.teikyouseido.mhlw.go.jp/znk-web/juminkanja/S2430/initialize?prefCd=31&kikanCd=DW120008&kikanKbn=3", "url2": null, "内容": "ひまわり歯科医院【3:歯科】鳥取県境港市外江町２４５５ひまわり歯科医院" }, "geometry": { "type": "Point", "coordinates": [ 133.209789, 35.531071 ] } },
{ "type": "Feature", "properties": { "ID": "313DW120009", "正式名称": "たけし歯科クリニック", "機関区分": 3, "都道府県コード": 31, "市区町村コード": 204, "所在地": "鳥取県境港市外江町１６２５番地", "緯度": 35.537097, "経度": 133.213818, "url": "https://www.iryou.teikyouseido.mhlw.go.jp/znk-web/juminkanja/S2430/initialize?prefCd=31&kikanCd=DW120009&kikanKbn=3", "url2": null, "内容": "たけし歯科クリニック【3:歯科】鳥取県境港市外江町１６２５番地" }, "geometry": { "type": "Point", "coordinates": [ 133.213818, 35.537097 ] } },
{ "type": "Feature", "properties": { "ID": "313DW120010", "正式名称": "医療法人社団ながせ歯科医院", "機関区分": 3, "都道府県コード": 31, "市区町村コード": 204, "所在地": "鳥取県境港市湊町１５０番地", "緯度": 35.541392, "経度": 133.230444, "url": "https://www.iryou.teikyouseido.mhlw.go.jp/znk-web/juminkanja/S2430/initialize?prefCd=31&kikanCd=DW120010&kikanKbn=3", "url2": null, "内容": "医療法人社団ながせ歯科医院【3:歯科】鳥取県境港市湊町１５０番地" }, "geometry": { "type": "Point", "coordinates": [ 133.230444, 35.541392 ] } },
{ "type": "Feature", "properties": { "ID": "313DW120011", "正式名称": "医療法人祥敬会森脇歯科医院", "機関区分": 3, "都道府県コード": 31, "市区町村コード": 204, "所在地": "鳥取県境港市中野町１８９３－１", "緯度": 35.532719, "経度": 133.227236, "url": "https://www.iryou.teikyouseido.mhlw.go.jp/znk-web/juminkanja/S2430/initialize?prefCd=31&kikanCd=DW120011&kikanKbn=3", "url2": "http://moriwakidc.com", "内容": "医療法人祥敬会森脇歯科医院【3:歯科】鳥取県境港市中野町１８９３－１" }, "geometry": { "type": "Point", "coordinates": [ 133.227236, 35.532719 ] } },
{ "type": "Feature", "properties": { "ID": "313DW120013", "正式名称": "さかい歯科クリニック", "機関区分": 3, "都道府県コード": 31, "市区町村コード": 204, "所在地": "鳥取県境港市夕日ケ丘１－１７", "緯度": 35.505554, "経度": 133.22163, "url": "https://www.iryou.teikyouseido.mhlw.go.jp/znk-web/juminkanja/S2430/initialize?prefCd=31&kikanCd=DW120013&kikanKbn=3", "url2": null, "内容": "さかい歯科クリニック【3:歯科】鳥取県境港市夕日ケ丘１－１７" }, "geometry": { "type": "Point", "coordinates": [ 133.22163, 35.505554 ] } },
{ "type": "Feature", "properties": { "ID": "313DW130002", "正式名称": "井上歯科クリニック", "機関区分": 3, "都道府県コード": 31, "市区町村コード": 384, "所在地": "鳥取県西伯郡日吉津村日吉津２１４４ー１", "緯度": 35.440062, "経度": 133.382263, "url": "https://www.iryou.teikyouseido.mhlw.go.jp/znk-web/juminkanja/S2430/initialize?prefCd=31&kikanCd=DW130002&kikanKbn=3", "url2": null, "内容": "井上歯科クリニック【3:歯科】鳥取県西伯郡日吉津村日吉津２１４４ー１" }, "geometry": { "type": "Point", "coordinates": [ 133.382263, 35.440062 ] } },
{ "type": "Feature", "properties": { "ID": "313DW140001", "正式名称": "小山歯科クリニック", "機関区分": 3, "都道府県コード": 31, "市区町村コード": 386, "所在地": "鳥取県西伯郡大山町末長２９０－１", "緯度": 35.481848, "経度": 133.460172, "url": "https://www.iryou.teikyouseido.mhlw.go.jp/znk-web/juminkanja/S2430/initialize?prefCd=31&kikanCd=DW140001&kikanKbn=3", "url2": null, "内容": "小山歯科クリニック【3:歯科】鳥取県西伯郡大山町末長２９０－１" }, "geometry": { "type": "Point", "coordinates": [ 133.460172, 35.481848 ] } },
{ "type": "Feature", "properties": { "ID": "313DW140002", "正式名称": "医療法人社団　江原歯科医院", "機関区分": 3, "都道府県コード": 31, "市区町村コード": 386, "所在地": "鳥取県西伯郡大山町田中５７０番地２", "緯度": 35.519264, "経度": 133.589594, "url": "https://www.iryou.teikyouseido.mhlw.go.jp/znk-web/juminkanja/S2430/initialize?prefCd=31&kikanCd=DW140002&kikanKbn=3", "url2": null, "内容": "医療法人社団　江原歯科医院【3:歯科】鳥取県西伯郡大山町田中５７０番地２" }, "geometry": { "type": "Point", "coordinates": [ 133.589594, 35.519264 ] } },
{ "type": "Feature", "properties": { "ID": "313DW140003", "正式名称": "舩木歯科医院", "機関区分": 3, "都道府県コード": 31, "市区町村コード": 386, "所在地": "鳥取県西伯郡大山町塩津葉砂粉３１３番地１", "緯度": 35.523746, "経度": 133.56836, "url": "https://www.iryou.teikyouseido.mhlw.go.jp/znk-web/juminkanja/S2430/initialize?prefCd=31&kikanCd=DW140003&kikanKbn=3", "url2": null, "内容": "舩木歯科医院【3:歯科】鳥取県西伯郡大山町塩津葉砂粉３１３番地１" }, "geometry": { "type": "Point", "coordinates": [ 133.56836, 35.523746 ] } },
{ "type": "Feature", "properties": { "ID": "313DW140005", "正式名称": "国谷歯科医院", "機関区分": 3, "都道府県コード": 31, "市区町村コード": 386, "所在地": "鳥取県西伯郡大山町御来屋１６４", "緯度": 35.51012, "経度": 133.49582, "url": "https://www.iryou.teikyouseido.mhlw.go.jp/znk-web/juminkanja/S2430/initialize?prefCd=31&kikanCd=DW140005&kikanKbn=3", "url2": null, "内容": "国谷歯科医院【3:歯科】鳥取県西伯郡大山町御来屋１６４" }, "geometry": { "type": "Point", "coordinates": [ 133.49582, 35.51012 ] } },
{ "type": "Feature", "properties": { "ID": "313DW150002", "正式名称": "医療法人社団　入沢歯科医院", "機関区分": 3, "都道府県コード": 31, "市区町村コード": 389, "所在地": "鳥取県西伯郡南部町阿賀１４８", "緯度": 35.354776, "経度": 133.329428, "url": "https://www.iryou.teikyouseido.mhlw.go.jp/znk-web/juminkanja/S2430/initialize?prefCd=31&kikanCd=DW150002&kikanKbn=3", "url2": null, "内容": "医療法人社団　入沢歯科医院【3:歯科】鳥取県西伯郡南部町阿賀１４８" }, "geometry": { "type": "Point", "coordinates": [ 133.329428, 35.354776 ] } },
{ "type": "Feature", "properties": { "ID": "313DW160001", "正式名称": "小田歯科医院", "機関区分": 3, "都道府県コード": 31, "市区町村コード": 390, "所在地": "鳥取県西伯郡伯耆町押口８６－２", "緯度": 35.385586, "経度": 133.409881, "url": "https://www.iryou.teikyouseido.mhlw.go.jp/znk-web/juminkanja/S2430/initialize?prefCd=31&kikanCd=DW160001&kikanKbn=3", "url2": null, "内容": "小田歯科医院【3:歯科】鳥取県西伯郡伯耆町押口８６－２" }, "geometry": { "type": "Point", "coordinates": [ 133.409881, 35.385586 ] } },
{ "type": "Feature", "properties": { "ID": "313DW160002", "正式名称": "Ｅ歯科クリニック", "機関区分": 3, "都道府県コード": 31, "市区町村コード": 390, "所在地": "鳥取県西伯郡伯耆町大殿１０２０－６", "緯度": 35.387185, "経度": 133.395323, "url": "https://www.iryou.teikyouseido.mhlw.go.jp/znk-web/juminkanja/S2430/initialize?prefCd=31&kikanCd=DW160002&kikanKbn=3", "url2": "https://dentalclinic-e.com", "内容": "Ｅ歯科クリニック【3:歯科】鳥取県西伯郡伯耆町大殿１０２０－６" }, "geometry": { "type": "Point", "coordinates": [ 133.395323, 35.387185 ] } },
{ "type": "Feature", "properties": { "ID": "313DW170001", "正式名称": "入沢歯科医院", "機関区分": 3, "都道府県コード": 31, "市区町村コード": 401, "所在地": "鳥取県日野郡日南町生山６９０", "緯度": 35.170203, "経度": 133.323156, "url": "https://www.iryou.teikyouseido.mhlw.go.jp/znk-web/juminkanja/S2430/initialize?prefCd=31&kikanCd=DW170001&kikanKbn=3", "url2": null, "内容": "入沢歯科医院【3:歯科】鳥取県日野郡日南町生山６９０" }, "geometry": { "type": "Point", "coordinates": [ 133.323156, 35.170203 ] } }
]
}
