{
"type": "FeatureCollection",
"name": "geo_31_通所介護",
"crs": { "type": "name", "properties": { "name": "urn:ogc:def:crs:OGC:1.3:CRS84" } },
"features": [
{ "type": "Feature", "properties": { "内容": "共生型デイサービスNiCORi【通所介護】千代水４丁目６８番地", "url": "https://www.kaigokensaku.mhlw.go.jp/31/index.php?action_kouhyou_detail_004_kani=true&JigyosyoCd=3170103901-00&ServiceCd=150&Type=search", "url2": "https://www.welmate.net" }, "geometry": { "type": "Point", "coordinates": [ 134.192856399999982, 35.517583495614176 ] } },
{ "type": "Feature", "properties": { "内容": "デイサービスしゃぼんだま【通所介護】鳥取県鳥取市湖山町西１丁目７３８番地", "url": "https://www.kaigokensaku.mhlw.go.jp/31/index.php?action_kouhyou_detail_004_kani=true&JigyosyoCd=3170104081-00&ServiceCd=150&Type=search", "url2": "https://shabon-dama.com" }, "geometry": { "type": "Point", "coordinates": [ 134.168467, 35.5223728 ] } },
{ "type": "Feature", "properties": { "内容": "デイサービス　ドンドロ家【通所介護】鳥取県鳥取市行徳1丁目316番地3", "url": "https://www.kaigokensaku.mhlw.go.jp/31/index.php?action_kouhyou_detail_004_kani=true&JigyosyoCd=3170103091-00&ServiceCd=150&Type=search", "url2": "jinpukai.jp" }, "geometry": { "type": "Point", "coordinates": [ 134.219045963806366, 35.498250998007713 ] } },
{ "type": "Feature", "properties": { "内容": "リハビリ特化型デイサービス　　Reウォーク【通所介護】鳥取県鳥取市正連寺51番地1", "url": "https://www.kaigokensaku.mhlw.go.jp/31/index.php?action_kouhyou_detail_004_kani=true&JigyosyoCd=3170103869-00&ServiceCd=150&Type=search", "url2": "http://kizuna123.co.jp/sp/" }, "geometry": { "type": "Point", "coordinates": [ 134.245441334393263, 35.470720019635579 ] } },
{ "type": "Feature", "properties": { "内容": "白兎あすなろデイサービスセンター【通所介護】鳥取県鳥取市白兎8番地", "url": "https://www.kaigokensaku.mhlw.go.jp/31/index.php?action_kouhyou_detail_004_kani=true&JigyosyoCd=3170100253-00&ServiceCd=150&Type=search", "url2": "http://www.t-asunaro.or.jp/" }, "geometry": { "type": "Point", "coordinates": [ 134.1195123, 35.5251082 ] } },
{ "type": "Feature", "properties": { "内容": "デイサービスほのか【通所介護】鳥取県鳥取市上原923-20", "url": "https://www.kaigokensaku.mhlw.go.jp/31/index.php?action_kouhyou_detail_004_kani=true&JigyosyoCd=3170101988-00&ServiceCd=150&Type=search", "url2": "http:/www.honoka-day.jp/" }, "geometry": { "type": "Point", "coordinates": [ 134.144037499999968, 35.4571049 ] } },
{ "type": "Feature", "properties": { "内容": "奥谷デイサービスセンターふたば【通所介護】鳥取県鳥取市国府町奥谷３丁目３３１", "url": "https://www.kaigokensaku.mhlw.go.jp/31/index.php?action_kouhyou_detail_004_kani=true&JigyosyoCd=3170102390-00&ServiceCd=150&Type=search", "url2": null }, "geometry": { "type": "Point", "coordinates": [ 134.26210089999995, 35.4831431 ] } },
{ "type": "Feature", "properties": { "内容": "高草あすなろデイサービスセンター【通所介護】鳥取県鳥取市大桷330", "url": "https://www.kaigokensaku.mhlw.go.jp/31/index.php?action_kouhyou_detail_004_kani=true&JigyosyoCd=3170100311-00&ServiceCd=150&Type=search", "url2": "http://www.t-asunaro.jp" }, "geometry": { "type": "Point", "coordinates": [ 134.181483500000013, 35.4909798 ] } },
{ "type": "Feature", "properties": { "内容": "吉岡温泉デイサービスセンターふたば【通所介護】鳥取県鳥取市吉岡温泉町３２９番地", "url": "https://www.kaigokensaku.mhlw.go.jp/31/index.php?action_kouhyou_detail_004_kani=true&JigyosyoCd=3170100881-00&ServiceCd=150&Type=search", "url2": null }, "geometry": { "type": "Point", "coordinates": [ 134.12992650000001, 35.4818546 ] } },
{ "type": "Feature", "properties": { "内容": "ツクイ鳥取湖山【通所介護】鳥取県鳥取市湖山町東4丁目88番", "url": "https://www.kaigokensaku.mhlw.go.jp/31/index.php?action_kouhyou_detail_004_kani=true&JigyosyoCd=3170104099-00&ServiceCd=150&Type=search", "url2": "https://www.tsukui.net/" }, "geometry": { "type": "Point", "coordinates": [ 134.1872089, 35.5166826 ] } },
{ "type": "Feature", "properties": { "内容": "デイサービス彩花【通所介護】鳥取県鳥取市立川町５丁目２５６番地１", "url": "https://www.kaigokensaku.mhlw.go.jp/31/index.php?action_kouhyou_detail_004_kani=true&JigyosyoCd=3170104339-00&ServiceCd=150&Type=search", "url2": "https://yuensaika.wixsite.com/sai-ka" }, "geometry": { "type": "Point", "coordinates": [ 134.24296720000001, 35.4880555 ] } },
{ "type": "Feature", "properties": { "内容": "デイサービスセンターだいふく【通所介護】賀露町北2丁目10-23", "url": "https://www.kaigokensaku.mhlw.go.jp/31/index.php?action_kouhyou_detail_004_kani=true&JigyosyoCd=3170104388-00&ServiceCd=150&Type=search", "url2": "daycare.daifuku01@gmail.com" }, "geometry": { "type": "Point", "coordinates": [ 134.1890057, 35.5339589 ] } },
{ "type": "Feature", "properties": { "内容": "モアスマイル富安【通所介護】鳥取県鳥取市富安２丁目16番地4", "url": "https://www.kaigokensaku.mhlw.go.jp/31/index.php?action_kouhyou_detail_004_kani=true&JigyosyoCd=3170102150-00&ServiceCd=150&Type=search", "url2": "http://smilecenter.jp" }, "geometry": { "type": "Point", "coordinates": [ 134.22952520000004, 35.4924784 ] } },
{ "type": "Feature", "properties": { "内容": "ハピネデイサービスセンター湖山【通所介護】鳥取県鳥取市湖山町東2丁目１５９－２", "url": "https://www.kaigokensaku.mhlw.go.jp/31/index.php?action_kouhyou_detail_004_kani=true&JigyosyoCd=3170102044-00&ServiceCd=150&Type=search", "url2": "http://www.hapine.com" }, "geometry": { "type": "Point", "coordinates": [ 134.186026500000025, 35.5171184 ] } },
{ "type": "Feature", "properties": { "内容": "デイサービスこくふ【通所介護】鳥取県鳥取市国府町新通り2丁目202", "url": "https://www.kaigokensaku.mhlw.go.jp/31/index.php?action_kouhyou_detail_004_kani=true&JigyosyoCd=3170103968-00&ServiceCd=150&Type=search", "url2": "http://kensuikai.net/dayservice_info.html" }, "geometry": { "type": "Point", "coordinates": [ 134.253237099999978, 35.4816701 ] } },
{ "type": "Feature", "properties": { "内容": "デイサービスリゾートアロハ鳥取【通所介護】鳥取県鳥取市岩吉２０６番地", "url": "https://www.kaigokensaku.mhlw.go.jp/31/index.php?action_kouhyou_detail_004_kani=true&JigyosyoCd=3170104065-00&ServiceCd=150&Type=search", "url2": "http://hp.kaipoke.biz/v3p/" }, "geometry": { "type": "Point", "coordinates": [ 134.1937414, 35.5137417 ] } },
{ "type": "Feature", "properties": { "内容": "デイライフゆうゆう【通所介護】鳥取県鳥取市浜坂228番地1", "url": "https://www.kaigokensaku.mhlw.go.jp/31/index.php?action_kouhyou_detail_004_kani=true&JigyosyoCd=3150180135-00&ServiceCd=150&Type=search", "url2": "http://www.kohoen.jp" }, "geometry": { "type": "Point", "coordinates": [ 134.227610899999945, 35.5241687 ] } },
{ "type": "Feature", "properties": { "内容": "デイサービスあらいぶ【通所介護】鳥取県鳥取市若葉台北６丁目１番９号", "url": "https://www.kaigokensaku.mhlw.go.jp/31/index.php?action_kouhyou_detail_004_kani=true&JigyosyoCd=3170102564-00&ServiceCd=150&Type=search", "url2": "http://advan-wakaba.com" }, "geometry": { "type": "Point", "coordinates": [ 134.25698844749914, 35.447933966027101 ] } },
{ "type": "Feature", "properties": { "内容": "鳥取市社会福祉協議会用瀬事業所【通所介護】鳥取県鳥取市用瀬町別府９６－２", "url": "https://www.kaigokensaku.mhlw.go.jp/31/index.php?action_kouhyou_detail_004_kani=true&JigyosyoCd=3170101087-00&ServiceCd=150&Type=search", "url2": "https://www.tottoricity-syakyo.or.jp/" }, "geometry": { "type": "Point", "coordinates": [ 134.198705099999984, 35.3412176 ] } },
{ "type": "Feature", "properties": { "内容": "はまゆうデイサービスセンター【通所介護】鳥取県鳥取市服部204番地1", "url": "https://www.kaigokensaku.mhlw.go.jp/31/index.php?action_kouhyou_detail_004_kani=true&JigyosyoCd=3170101236-00&ServiceCd=150&Type=search", "url2": "http://www.hamayu.or.jp/" }, "geometry": { "type": "Point", "coordinates": [ 134.205284300000017, 35.4748852 ] } },
{ "type": "Feature", "properties": { "内容": "デイサービスセンター天然温泉ほんわ館【通所介護】鳥取県鳥取市吉岡温泉町168－1", "url": "https://www.kaigokensaku.mhlw.go.jp/31/index.php?action_kouhyou_detail_004_kani=true&JigyosyoCd=3170103554-00&ServiceCd=150&Type=search", "url2": null }, "geometry": { "type": "Point", "coordinates": [ 134.129843100000016, 35.4847154 ] } },
{ "type": "Feature", "properties": { "内容": "デイライフいきいき【通所介護】鳥取県鳥取市秋里１１８１番地", "url": "https://www.kaigokensaku.mhlw.go.jp/31/index.php?action_kouhyou_detail_004_kani=true&JigyosyoCd=3170100147-00&ServiceCd=150&Type=search", "url2": "http://www.kohoen.jp" }, "geometry": { "type": "Point", "coordinates": [ 134.214120699999967, 35.5189441 ] } },
{ "type": "Feature", "properties": { "内容": "地域生活援助はうす　のどか【通所介護】鳥取県鳥取市気高町勝見８４３－１７２", "url": "https://www.kaigokensaku.mhlw.go.jp/31/index.php?action_kouhyou_detail_004_kani=true&JigyosyoCd=3170102192-00&ServiceCd=150&Type=search", "url2": null }, "geometry": { "type": "Point", "coordinates": [ 134.050377300000036, 35.5110913 ] } },
{ "type": "Feature", "properties": { "内容": "デイサービスセンターing【通所介護】鳥取県鳥取市相生町二丁目452-1デイサービスセンターing", "url": "https://www.kaigokensaku.mhlw.go.jp/31/index.php?action_kouhyou_detail_004_kani=true&JigyosyoCd=3170103703-00&ServiceCd=150&Type=search", "url2": "http://www.ing-tottori.com" }, "geometry": { "type": "Point", "coordinates": [ 134.226703499999985, 35.507429200000011 ] } },
{ "type": "Feature", "properties": { "内容": "在宅支援はうす　和みの郷【通所介護】鳥取県鳥取市国府町宮下　1040番地", "url": "https://www.kaigokensaku.mhlw.go.jp/31/index.php?action_kouhyou_detail_004_kani=true&JigyosyoCd=3170101376-00&ServiceCd=150&Type=search", "url2": null }, "geometry": { "type": "Point", "coordinates": [ 134.269475500000027, 35.4795825 ] } },
{ "type": "Feature", "properties": { "内容": "デイサービスわかば【通所介護】鳥取県鳥取市若葉台北6丁目3番27号", "url": "https://www.kaigokensaku.mhlw.go.jp/31/index.php?action_kouhyou_detail_004_kani=true&JigyosyoCd=3170101939-00&ServiceCd=150&Type=search", "url2": "http://advan-wakaba.com" }, "geometry": { "type": "Point", "coordinates": [ 134.2582132, 35.4498248 ] } },
{ "type": "Feature", "properties": { "内容": "デイサービス陽だまりの家かわはら福らく【通所介護】鳥取県鳥取市河原町河原16-3番地", "url": "https://www.kaigokensaku.mhlw.go.jp/31/index.php?action_kouhyou_detail_004_kani=true&JigyosyoCd=3170102820-00&ServiceCd=150&Type=search", "url2": null }, "geometry": { "type": "Point", "coordinates": [ 134.201170199999979, 35.4060507 ] } },
{ "type": "Feature", "properties": { "内容": "鳥取市桜ヶ丘デイサービスセンター通所介護事業所【通所介護】鳥取県鳥取市津ノ井２５６－２", "url": "https://www.kaigokensaku.mhlw.go.jp/31/index.php?action_kouhyou_detail_004_kani=true&JigyosyoCd=3170100329-00&ServiceCd=150&Type=search", "url2": "http://www.tottorifukushikai.jp" }, "geometry": { "type": "Point", "coordinates": [ 134.251088399999958, 35.4621011 ] } },
{ "type": "Feature", "properties": { "内容": "鳥取市東デイサービスセンター通所介護事業所【通所介護】鳥取県鳥取市滝山374－1", "url": "https://www.kaigokensaku.mhlw.go.jp/31/index.php?action_kouhyou_detail_004_kani=true&JigyosyoCd=3170100345-00&ServiceCd=150&Type=search", "url2": "http://www.tottorifukushikai.jp" }, "geometry": { "type": "Point", "coordinates": [ 134.262500499999987, 35.4960222 ] } },
{ "type": "Feature", "properties": { "内容": "鳥取市南デイサービスセンター通所介護事業所【通所介護】鳥取県鳥取市的場2-1", "url": "https://www.kaigokensaku.mhlw.go.jp/31/index.php?action_kouhyou_detail_004_kani=true&JigyosyoCd=3170100360-00&ServiceCd=150&Type=search", "url2": "http://www.tottorifukushikai.jp/" }, "geometry": { "type": "Point", "coordinates": [ 134.232161899999937, 35.4754995 ] } },
{ "type": "Feature", "properties": { "内容": "デイサービス　風紋館【通所介護】鳥取県鳥取市立川町5丁目312-1", "url": "https://www.kaigokensaku.mhlw.go.jp/31/index.php?action_kouhyou_detail_004_kani=true&JigyosyoCd=3170100873-00&ServiceCd=150&Type=search", "url2": "http://huumonkan.jp/" }, "geometry": { "type": "Point", "coordinates": [ 134.2416273, 35.4902505 ] } },
{ "type": "Feature", "properties": { "内容": "鳥取市社会福祉協議会　国府事業所【通所介護】鳥取県鳥取市国府町糸谷15-1", "url": "https://www.kaigokensaku.mhlw.go.jp/31/index.php?action_kouhyou_detail_004_kani=true&JigyosyoCd=3170101020-00&ServiceCd=150&Type=search", "url2": "http://www.tottoricity-syakyo.or.jp" }, "geometry": { "type": "Point", "coordinates": [ 134.295990500000016, 35.4644566 ] } },
{ "type": "Feature", "properties": { "内容": "鳥取市社会福祉協議会　福部事業所【通所介護】鳥取県鳥取市福部町海士1013－1", "url": "https://www.kaigokensaku.mhlw.go.jp/31/index.php?action_kouhyou_detail_004_kani=true&JigyosyoCd=3170101046-00&ServiceCd=150&Type=search", "url2": "https://www.tottoricity-syakyo.or.jp" }, "geometry": { "type": "Point", "coordinates": [ 134.266737299999932, 35.5563683 ] } },
{ "type": "Feature", "properties": { "内容": "デイサービス梨の郷【通所介護】鳥取県鳥取市行徳　1-162", "url": "https://www.kaigokensaku.mhlw.go.jp/31/index.php?action_kouhyou_detail_004_kani=true&JigyosyoCd=3170102226-00&ServiceCd=150&Type=search", "url2": null }, "geometry": { "type": "Point", "coordinates": [ 134.221084902481891, 35.498403779777078 ] } },
{ "type": "Feature", "properties": { "内容": "デイサービスセンターきゅうだいすずの里【通所介護】鳥取県鳥取市数津202-1", "url": "https://www.kaigokensaku.mhlw.go.jp/31/index.php?action_kouhyou_detail_004_kani=true&JigyosyoCd=3170102432-00&ServiceCd=150&Type=search", "url2": "http://www.kyudai.co.jp/lifecare/index.html" }, "geometry": { "type": "Point", "coordinates": [ 134.224251800000047, 35.467430567079845 ] } },
{ "type": "Feature", "properties": { "内容": "デイサービスつむぎ【通所介護】鳥取県鳥取市行徳一丁目312番地", "url": "https://www.kaigokensaku.mhlw.go.jp/31/index.php?action_kouhyou_detail_004_kani=true&JigyosyoCd=3170102739-00&ServiceCd=150&Type=search", "url2": "https://www.o-tsumugi.com" }, "geometry": { "type": "Point", "coordinates": [ 134.219584700000041, 35.4978829 ] } },
{ "type": "Feature", "properties": { "内容": "デイサービスセンターきゅうだい【通所介護】鳥取県鳥取市古海693番地1", "url": "https://www.kaigokensaku.mhlw.go.jp/31/index.php?action_kouhyou_detail_004_kani=true&JigyosyoCd=3170103166-00&ServiceCd=150&Type=search", "url2": "http://www.kyudai.co.jp/" }, "geometry": { "type": "Point", "coordinates": [ 134.207669399999986, 35.5001628 ] } },
{ "type": "Feature", "properties": { "内容": "アクティブ津ノ井【通所介護】鳥取県鳥取市津ノ井246-1", "url": "https://www.kaigokensaku.mhlw.go.jp/31/index.php?action_kouhyou_detail_004_kani=true&JigyosyoCd=3170103406-00&ServiceCd=150&Type=search", "url2": "http://www.tottorifukushikai.jp" }, "geometry": { "type": "Point", "coordinates": [ 134.252152669198864, 35.461074322880528 ] } },
{ "type": "Feature", "properties": { "内容": "鳥取西デイサービスセンター【通所介護】鳥取県鳥取市西品治２８０－１", "url": "https://www.kaigokensaku.mhlw.go.jp/31/index.php?action_kouhyou_detail_004_kani=true&JigyosyoCd=3170100279-00&ServiceCd=150&Type=search", "url2": "http://t-asunaro.or.jp" }, "geometry": { "type": "Point", "coordinates": [ 134.217793, 35.5068956 ] } },
{ "type": "Feature", "properties": { "内容": "鳥取市社会福祉協議会　鹿野事業所【通所介護】鳥取県鳥取市鹿野町今市651-1", "url": "https://www.kaigokensaku.mhlw.go.jp/31/index.php?action_kouhyou_detail_004_kani=true&JigyosyoCd=3170101145-00&ServiceCd=150&Type=search", "url2": "https://www.tottoricity-syakyo.or.jp" }, "geometry": { "type": "Point", "coordinates": [ 134.055994700000042, 35.4663133 ] } },
{ "type": "Feature", "properties": { "内容": "鳥取市社会福祉協議会　青谷事業所【通所介護】鳥取県鳥取市青谷町善田31-1", "url": "https://www.kaigokensaku.mhlw.go.jp/31/index.php?action_kouhyou_detail_004_kani=true&JigyosyoCd=3170101160-00&ServiceCd=150&Type=search", "url2": "https://www.tottoricity-syakyo.or.jp" }, "geometry": { "type": "Point", "coordinates": [ 133.997637599999962, 35.5108314 ] } },
{ "type": "Feature", "properties": { "内容": "ニチイケアセンターふせ【通所介護】鳥取県鳥取市布勢422-3", "url": "https://www.kaigokensaku.mhlw.go.jp/31/index.php?action_kouhyou_detail_004_kani=true&JigyosyoCd=3170102101-00&ServiceCd=150&Type=search", "url2": "http://www.nichiigakkan.co.jp" }, "geometry": { "type": "Point", "coordinates": [ 134.180613504264443, 35.505511441536271 ] } },
{ "type": "Feature", "properties": { "内容": "デイサービス縁【通所介護】鳥取県鳥取市西品治86番地2", "url": "https://www.kaigokensaku.mhlw.go.jp/31/index.php?action_kouhyou_detail_004_kani=true&JigyosyoCd=3170102283-00&ServiceCd=150&Type=search", "url2": "http://enishi-day.jp/" }, "geometry": { "type": "Point", "coordinates": [ 134.220948200000066, 35.5035683 ] } },
{ "type": "Feature", "properties": { "内容": "デイサービスはまむら【通所介護】鳥取県鳥取市気高町新町二丁目１１番地ガーデンハウス　はまむら", "url": "https://www.kaigokensaku.mhlw.go.jp/31/index.php?action_kouhyou_detail_004_kani=true&JigyosyoCd=3170102812-00&ServiceCd=150&Type=search", "url2": "https://www.med-wel.jp/gardenhama/" }, "geometry": { "type": "Point", "coordinates": [ 134.046852599999966, 35.5106134 ] } },
{ "type": "Feature", "properties": { "内容": "ともいきの郷　浜坂【通所介護】鳥取県鳥取市浜坂2丁目1-17ともいきの郷　浜坂", "url": "https://www.kaigokensaku.mhlw.go.jp/31/index.php?action_kouhyou_detail_004_kani=true&JigyosyoCd=3170103752-00&ServiceCd=150&Type=search", "url2": "tomoiki-hamasaka@sage.ocn.ne.jp" }, "geometry": { "type": "Point", "coordinates": [ 134.214028699999972, 35.5284568 ] } },
{ "type": "Feature", "properties": { "内容": "サンスマイル【通所介護】鳥取県鳥取市津ノ井248-11", "url": "https://www.kaigokensaku.mhlw.go.jp/31/index.php?action_kouhyou_detail_004_kani=true&JigyosyoCd=3170104313-00&ServiceCd=150&Type=search", "url2": null }, "geometry": { "type": "Point", "coordinates": [ 134.2503817, 35.4615896 ] } },
{ "type": "Feature", "properties": { "内容": "鳥取市社会福祉協議会　気高事業所【通所介護】鳥取県鳥取市気高町浜村8－8", "url": "https://www.kaigokensaku.mhlw.go.jp/31/index.php?action_kouhyou_detail_004_kani=true&JigyosyoCd=3170101129-00&ServiceCd=150&Type=search", "url2": "https://www.tottoricity-syakyo.or.jp" }, "geometry": { "type": "Point", "coordinates": [ 134.0556851, 35.5101555 ] } },
{ "type": "Feature", "properties": { "内容": "デイサービスひまわり鳥取【通所介護】鳥取県鳥取市桂木784番地", "url": "https://www.kaigokensaku.mhlw.go.jp/31/index.php?action_kouhyou_detail_004_kani=true&JigyosyoCd=3170101194-00&ServiceCd=150&Type=search", "url2": "http://www.siseikai.com/" }, "geometry": { "type": "Point", "coordinates": [ 134.252588400000036, 35.458046 ] } },
{ "type": "Feature", "properties": { "内容": "ハピネデイサービスセンター立川【通所介護】鳥取県鳥取市立川町6-250-3", "url": "https://www.kaigokensaku.mhlw.go.jp/31/index.php?action_kouhyou_detail_004_kani=true&JigyosyoCd=3170101830-00&ServiceCd=150&Type=search", "url2": null }, "geometry": { "type": "Point", "coordinates": [ 134.247202271163928, 35.486060503755795 ] } },
{ "type": "Feature", "properties": { "内容": "通所介護事業所　エルスリークラブ鳥取【通所介護】鳥取県鳥取市卯垣5丁目8番地", "url": "https://www.kaigokensaku.mhlw.go.jp/31/index.php?action_kouhyou_detail_004_kani=true&JigyosyoCd=3170103646-00&ServiceCd=150&Type=search", "url2": "https://www.el3tottori.co.jp/" }, "geometry": { "type": "Point", "coordinates": [ 134.2569509, 35.492803 ] } },
{ "type": "Feature", "properties": { "内容": "フィットネスデイ湖山【通所介護】鳥取県鳥取市湖山町東四丁目６１番地", "url": "https://www.kaigokensaku.mhlw.go.jp/31/index.php?action_kouhyou_detail_004_kani=true&JigyosyoCd=3170103737-00&ServiceCd=150&Type=search", "url2": "https://www.el3tottori.co.jp/" }, "geometry": { "type": "Point", "coordinates": [ 134.1893457, 35.5159659 ] } },
{ "type": "Feature", "properties": { "内容": "デイサービス　ウルーズ【通所介護】鳥取県鳥取市緑ヶ丘１丁目１１－８", "url": "https://www.kaigokensaku.mhlw.go.jp/31/index.php?action_kouhyou_detail_004_kani=true&JigyosyoCd=3170103927-00&ServiceCd=150&Type=search", "url2": null }, "geometry": { "type": "Point", "coordinates": [ 134.2122575, 35.5026763 ] } },
{ "type": "Feature", "properties": { "内容": "河原あすなろデイサービスセンター【通所介護】鳥取県鳥取市河原町今在家842", "url": "https://www.kaigokensaku.mhlw.go.jp/31/index.php?action_kouhyou_detail_004_kani=true&JigyosyoCd=3171200110-00&ServiceCd=150&Type=search", "url2": "http://www.t-asunaro.jp/" }, "geometry": { "type": "Point", "coordinates": [ 134.217002913491797, 35.401331099404835 ] } },
{ "type": "Feature", "properties": { "内容": "株式会社メディコープとっとり　デイサービスかがやき【通所介護】鳥取県鳥取市末広温泉町２０３番地レインボーセンター5階", "url": "https://www.kaigokensaku.mhlw.go.jp/31/index.php?action_kouhyou_detail_004_kani=true&JigyosyoCd=3170101905-00&ServiceCd=150&Type=search", "url2": "http://mcp.mcoop-tottori.jp/services/kagayaki.html" }, "geometry": { "type": "Point", "coordinates": [ 134.230297599999972, 35.496011 ] } },
{ "type": "Feature", "properties": { "内容": "幸風デイサービスセンター鳥取【通所介護】鳥取県鳥取市商栄町115-4", "url": "https://www.kaigokensaku.mhlw.go.jp/31/index.php?action_kouhyou_detail_004_kani=true&JigyosyoCd=3170102556-00&ServiceCd=150&Type=search", "url2": null }, "geometry": { "type": "Point", "coordinates": [ 134.209329700000012, 35.51425 ] } },
{ "type": "Feature", "properties": { "内容": "鳥取松並ケアセンターそよ風【通所介護】鳥取県鳥取市松並町2丁目134", "url": "https://www.kaigokensaku.mhlw.go.jp/31/index.php?action_kouhyou_detail_004_kani=true&JigyosyoCd=3170104024-00&ServiceCd=150&Type=search", "url2": null }, "geometry": { "type": "Point", "coordinates": [ 134.220045617413035, 35.516527798994836 ] } },
{ "type": "Feature", "properties": { "内容": "幸風デイサービスセンター福部【通所介護】鳥取県鳥取市福部町湯山４００－１", "url": "https://www.kaigokensaku.mhlw.go.jp/31/index.php?action_kouhyou_detail_004_kani=true&JigyosyoCd=3170103083-00&ServiceCd=150&Type=search", "url2": "qqud6rm9k＠air.ocn.ne.jp" }, "geometry": { "type": "Point", "coordinates": [ 134.248383399999966, 35.5439332 ] } },
{ "type": "Feature", "properties": { "内容": "デイハウス　さくら【通所介護】鳥取県鳥取市西品治635-1", "url": "https://www.kaigokensaku.mhlw.go.jp/31/index.php?action_kouhyou_detail_004_kani=true&JigyosyoCd=3170103547-00&ServiceCd=150&Type=search", "url2": null }, "geometry": { "type": "Point", "coordinates": [ 134.220842060713238, 35.509530698759555 ] } },
{ "type": "Feature", "properties": { "内容": "デイサービスセンター和【通所介護】鳥取県鳥取市千代水3丁目81", "url": "https://www.kaigokensaku.mhlw.go.jp/31/index.php?action_kouhyou_detail_004_kani=true&JigyosyoCd=3170104354-00&ServiceCd=150&Type=search", "url2": "koushi-nagomi.com" }, "geometry": { "type": "Point", "coordinates": [ 134.198418, 35.517054300000034 ] } },
{ "type": "Feature", "properties": { "内容": "伯仙デイサービスセンターまごころ【通所介護】鳥取県米子市河岡110番地1伯仙デイサービスセンターまごころ", "url": "https://www.kaigokensaku.mhlw.go.jp/31/index.php?action_kouhyou_detail_004_kani=true&JigyosyoCd=3170201937-00&ServiceCd=150&Type=search", "url2": null }, "geometry": { "type": "Point", "coordinates": [ 133.407649752670295, 35.403731407974135 ] } },
{ "type": "Feature", "properties": { "内容": "デイサービスセンターなんぶ幸朋苑【通所介護】鳥取県米子市石井1238", "url": "https://www.kaigokensaku.mhlw.go.jp/31/index.php?action_kouhyou_detail_004_kani=true&JigyosyoCd=3150280174-00&ServiceCd=150&Type=search", "url2": "https://www.kohoen.jp" }, "geometry": { "type": "Point", "coordinates": [ 133.35145250000005, 35.4022552 ] } },
{ "type": "Feature", "properties": { "内容": "デイサービスセンターよなご幸朋苑【通所介護】鳥取県米子市上後藤　３丁目３番３号", "url": "https://www.kaigokensaku.mhlw.go.jp/31/index.php?action_kouhyou_detail_004_kani=true&JigyosyoCd=3170202828-00&ServiceCd=150&Type=search", "url2": "http//www.kohoen.jp" }, "geometry": { "type": "Point", "coordinates": [ 133.318200400000023, 35.4470529 ] } },
{ "type": "Feature", "properties": { "内容": "デイサービス孫の手【通所介護】鳥取県米子市両三柳825あらかると孫の手", "url": "https://www.kaigokensaku.mhlw.go.jp/31/index.php?action_kouhyou_detail_004_kani=true&JigyosyoCd=3170201879-00&ServiceCd=150&Type=search", "url2": "http://www.t-a-d.jp/" }, "geometry": { "type": "Point", "coordinates": [ 133.316475399999945, 35.4521664 ] } },
{ "type": "Feature", "properties": { "内容": "アイル米子【通所介護】鳥取県米子市東福原３丁目９番１３号", "url": "https://www.kaigokensaku.mhlw.go.jp/31/index.php?action_kouhyou_detail_004_kani=true&JigyosyoCd=3170202109-00&ServiceCd=150&Type=search", "url2": "www.airusanin.jp" }, "geometry": { "type": "Point", "coordinates": [ 133.347040500000048, 35.4430568 ] } },
{ "type": "Feature", "properties": { "内容": "ハピネデイサービスセンター【通所介護】鳥取県米子市久米町２００", "url": "https://www.kaigokensaku.mhlw.go.jp/31/index.php?action_kouhyou_detail_004_kani=true&JigyosyoCd=3170200137-00&ServiceCd=150&Type=search", "url2": "http://www.hapine.com" }, "geometry": { "type": "Point", "coordinates": [ 133.3264646, 35.4252414 ] } },
{ "type": "Feature", "properties": { "内容": "デイサービス孫の手別館ふれあい広場【通所介護】鳥取県米子市石井693-2", "url": "https://www.kaigokensaku.mhlw.go.jp/31/index.php?action_kouhyou_detail_004_kani=true&JigyosyoCd=3170201309-00&ServiceCd=150&Type=search", "url2": "http://www.t-a-d.jp/service_03.html" }, "geometry": { "type": "Point", "coordinates": [ 133.344247499999938, 35.4043911 ] } },
{ "type": "Feature", "properties": { "内容": "デイサービスセンター博愛苑【通所介護】鳥取県米子市一部555番地", "url": "https://www.kaigokensaku.mhlw.go.jp/31/index.php?action_kouhyou_detail_004_kani=true&JigyosyoCd=3170200418-00&ServiceCd=150&Type=search", "url2": "http://www.hakuaikai-smile.jp/" }, "geometry": { "type": "Point", "coordinates": [ 133.396906700000045, 35.406836200000015 ] } },
{ "type": "Feature", "properties": { "内容": "デイサービスセンター　かわさき【通所介護】鳥取県米子市両三柳4543-30", "url": "https://www.kaigokensaku.mhlw.go.jp/31/index.php?action_kouhyou_detail_004_kani=true&JigyosyoCd=3170200152-00&ServiceCd=150&Type=search", "url2": "http://www.kohoen.jp" }, "geometry": { "type": "Point", "coordinates": [ 133.314453, 35.4645375 ] } },
{ "type": "Feature", "properties": { "内容": "ハピネデイサービスセンターはくほう【通所介護】鳥取県米子市皆生温泉3丁目１5番50号", "url": "https://www.kaigokensaku.mhlw.go.jp/31/index.php?action_kouhyou_detail_004_kani=true&JigyosyoCd=3170201853-00&ServiceCd=150&Type=search", "url2": "http://www.hapine.com" }, "geometry": { "type": "Point", "coordinates": [ 133.364629372213813, 35.45638428085612 ] } },
{ "type": "Feature", "properties": { "内容": "通所介護　真誠会ローズガーデン【通所介護】鳥取県米子市冨士見町6番地6", "url": "https://www.kaigokensaku.mhlw.go.jp/31/index.php?action_kouhyou_detail_004_kani=true&JigyosyoCd=3170202000-00&ServiceCd=150&Type=search", "url2": "http://www.hospitown.or.jp/" }, "geometry": { "type": "Point", "coordinates": [ 133.336755199999971, 35.4334491 ] } },
{ "type": "Feature", "properties": { "内容": "通所介護　皆生ローズガーデン【通所介護】鳥取県米子市新開3-3-10", "url": "https://www.kaigokensaku.mhlw.go.jp/31/index.php?action_kouhyou_detail_004_kani=true&JigyosyoCd=3170202885-00&ServiceCd=150&Type=search", "url2": "http://www.hospitown.or.jp/" }, "geometry": { "type": "Point", "coordinates": [ 133.351305650262475, 35.458135600851499 ] } },
{ "type": "Feature", "properties": { "内容": "通所介護　弓浜ゆうとぴあ【通所介護】鳥取県米子市大崎1511番地1", "url": "https://www.kaigokensaku.mhlw.go.jp/31/index.php?action_kouhyou_detail_004_kani=true&JigyosyoCd=3170200442-00&ServiceCd=150&Type=search", "url2": "http://www.hospitown.or.jp/" }, "geometry": { "type": "Point", "coordinates": [ 133.2530832, 35.4736494 ] } },
{ "type": "Feature", "properties": { "内容": "富益しあわせデイサービス【通所介護】鳥取県米子市富益町235番地8", "url": "https://www.kaigokensaku.mhlw.go.jp/31/index.php?action_kouhyou_detail_004_kani=true&JigyosyoCd=3170200749-00&ServiceCd=150&Type=search", "url2": "http://www.hospitown.or.jp/" }, "geometry": { "type": "Point", "coordinates": [ 133.2779865, 35.4827545 ] } },
{ "type": "Feature", "properties": { "内容": "デイサービスセンターさわやか【通所介護】鳥取県米子市皆生温泉１丁目１６番１０号", "url": "https://www.kaigokensaku.mhlw.go.jp/31/index.php?action_kouhyou_detail_004_kani=true&JigyosyoCd=3170200830-00&ServiceCd=150&Type=search", "url2": null }, "geometry": { "type": "Point", "coordinates": [ 133.360106299999984, 35.4558115 ] } },
{ "type": "Feature", "properties": { "内容": "デイサービスセンター・アザレアコート【通所介護】鳥取県米子市両三柳1400", "url": "https://www.kaigokensaku.mhlw.go.jp/31/index.php?action_kouhyou_detail_004_kani=true&JigyosyoCd=3170201333-00&ServiceCd=150&Type=search", "url2": "http://www.kohoen.jp" }, "geometry": { "type": "Point", "coordinates": [ 133.316214400000035, 35.4498055 ] } },
{ "type": "Feature", "properties": { "内容": "アルクつつじ【通所介護】鳥取県米子市米原6丁目9番23号米子ヘルスケアつつじ", "url": "https://www.kaigokensaku.mhlw.go.jp/31/index.php?action_kouhyou_detail_004_kani=true&JigyosyoCd=3170201457-00&ServiceCd=150&Type=search", "url2": "http://www.nissyoukai.com/" }, "geometry": { "type": "Point", "coordinates": [ 133.334710500000028, 35.4446396 ] } },
{ "type": "Feature", "properties": { "内容": "真誠会セントラルローズガーデン【通所介護】鳥取県米子市西福原8丁目16-66", "url": "https://www.kaigokensaku.mhlw.go.jp/31/index.php?action_kouhyou_detail_004_kani=true&JigyosyoCd=3170202182-00&ServiceCd=150&Type=search", "url2": "http://www.hospitown.or.jp/" }, "geometry": { "type": "Point", "coordinates": [ 133.343048899999985, 35.4533585 ] } },
{ "type": "Feature", "properties": { "内容": "デイサービスセンターおおしのづ【通所介護】鳥取県米子市大篠津町506‐1", "url": "https://www.kaigokensaku.mhlw.go.jp/31/index.php?action_kouhyou_detail_004_kani=true&JigyosyoCd=3170201408-00&ServiceCd=150&Type=search", "url2": "http://carehome475.com" }, "geometry": { "type": "Point", "coordinates": [ 133.259948799999961, 35.4928528 ] } },
{ "type": "Feature", "properties": { "内容": "いずみの苑【通所介護】鳥取県米子市淀江町淀江１０７５番地", "url": "https://www.kaigokensaku.mhlw.go.jp/31/index.php?action_kouhyou_detail_004_kani=true&JigyosyoCd=3171500279-00&ServiceCd=150&Type=search", "url2": "https://www.izuminosono.or.jp" }, "geometry": { "type": "Point", "coordinates": [ 133.433632100000068, 35.4573423 ] } },
{ "type": "Feature", "properties": { "内容": "キャンパスライフ　エルル両三柳【通所介護】鳥取県米子市両三柳206-2", "url": "https://www.kaigokensaku.mhlw.go.jp/31/index.php?action_kouhyou_detail_004_kani=true&JigyosyoCd=3170202356-00&ServiceCd=150&Type=search", "url2": "http://elfith.com/" }, "geometry": { "type": "Point", "coordinates": [ 133.326852499999973, 35.4488779 ] } },
{ "type": "Feature", "properties": { "内容": "リハビリサポートデイサービスユーアイ【通所介護】鳥取県米子市米原5丁目5-1", "url": "https://www.kaigokensaku.mhlw.go.jp/31/index.php?action_kouhyou_detail_004_kani=true&JigyosyoCd=3170202869-00&ServiceCd=150&Type=search", "url2": "https://uplaza-sanin.jp/ui/" }, "geometry": { "type": "Point", "coordinates": [ 133.3292497, 35.4442145 ] } },
{ "type": "Feature", "properties": { "内容": "デイサービスおおたか【通所介護】鳥取県米子市尾高1812メディケアコートにじの里おおたか", "url": "https://www.kaigokensaku.mhlw.go.jp/31/index.php?action_kouhyou_detail_004_kani=true&JigyosyoCd=3170202703-00&ServiceCd=150&Type=search", "url2": "http://www.ymc-net.or.jp/" }, "geometry": { "type": "Point", "coordinates": [ 133.406607951385894, 35.424195681189758 ] } },
{ "type": "Feature", "properties": { "内容": "でいさーびす　　ほうき【通所介護】鳥取県米子市西福原5丁目８－１８", "url": "https://www.kaigokensaku.mhlw.go.jp/31/index.php?action_kouhyou_detail_004_kani=true&JigyosyoCd=3170201499-00&ServiceCd=150&Type=search", "url2": "https://day-service-houki.localinfo.jp/" }, "geometry": { "type": "Point", "coordinates": [ 133.34140739999998, 35.4466674 ] } },
{ "type": "Feature", "properties": { "内容": "ハピネデイサービスセンター両三柳【通所介護】鳥取県米子市両三柳2066-1", "url": "https://www.kaigokensaku.mhlw.go.jp/31/index.php?action_kouhyou_detail_004_kani=true&JigyosyoCd=3170201234-00&ServiceCd=150&Type=search", "url2": "http://www.hapine.com/" }, "geometry": { "type": "Point", "coordinates": [ 133.332155, 35.4517278 ] } },
{ "type": "Feature", "properties": { "内容": "ツクイ米子旗ヶ崎【通所介護】鳥取県米子市旗ヶ崎2-9-8", "url": "https://www.kaigokensaku.mhlw.go.jp/31/index.php?action_kouhyou_detail_004_kani=true&JigyosyoCd=3170203164-00&ServiceCd=150&Type=search", "url2": null }, "geometry": { "type": "Point", "coordinates": [ 133.3174311, 35.4361548 ] } },
{ "type": "Feature", "properties": { "内容": "アクアサロン福守【通所介護】鳥取県倉吉市福守町406-6", "url": "https://www.kaigokensaku.mhlw.go.jp/31/index.php?action_kouhyou_detail_004_kani=true&JigyosyoCd=3170300929-00&ServiceCd=150&Type=search", "url2": null }, "geometry": { "type": "Point", "coordinates": [ 133.8081628, 35.4378363 ] } },
{ "type": "Feature", "properties": { "内容": "関金ラジュームデイサービスセンター【通所介護】鳥取県倉吉市関金町関金宿259-1", "url": "https://www.kaigokensaku.mhlw.go.jp/31/index.php?action_kouhyou_detail_004_kani=true&JigyosyoCd=3170300705-00&ServiceCd=150&Type=search", "url2": "https://www.minorifukusikai.com/" }, "geometry": { "type": "Point", "coordinates": [ 133.7596234, 35.3671673 ] } },
{ "type": "Feature", "properties": { "内容": "デイサービスはるかぜ【通所介護】鳥取県倉吉市福庭町１丁目225番地", "url": "https://www.kaigokensaku.mhlw.go.jp/31/index.php?action_kouhyou_detail_004_kani=true&JigyosyoCd=3170301059-00&ServiceCd=150&Type=search", "url2": null }, "geometry": { "type": "Point", "coordinates": [ 133.8490727, 35.4686204 ] } },
{ "type": "Feature", "properties": { "内容": "デイサービスセンターあずま園【通所介護】鳥取県倉吉市東巌城町４７２番地", "url": "https://www.kaigokensaku.mhlw.go.jp/31/index.php?action_kouhyou_detail_004_kani=true&JigyosyoCd=3170300499-00&ServiceCd=150&Type=search", "url2": "//azumaen.net" }, "geometry": { "type": "Point", "coordinates": [ 133.818395, 35.4332621 ] } },
{ "type": "Feature", "properties": { "内容": "倉吉デイサービスつばき【通所介護】鳥取県倉吉市余戸谷町３０５１番地１", "url": "https://www.kaigokensaku.mhlw.go.jp/31/index.php?action_kouhyou_detail_004_kani=true&JigyosyoCd=3170300549-00&ServiceCd=150&Type=search", "url2": "http://www.nissyoukai.com/" }, "geometry": { "type": "Point", "coordinates": [ 133.811343099999931, 35.4279653 ] } },
{ "type": "Feature", "properties": { "内容": "デイサービスセンターほほえみ【通所介護】鳥取県倉吉市大原634-3", "url": "https://www.kaigokensaku.mhlw.go.jp/31/index.php?action_kouhyou_detail_004_kani=true&JigyosyoCd=3170300812-00&ServiceCd=150&Type=search", "url2": "http:www.nagomikikaku.net" }, "geometry": { "type": "Point", "coordinates": [ 133.855669600000027, 35.4244365 ] } },
{ "type": "Feature", "properties": { "内容": "デイサービスセンターウエハラ【通所介護】鳥取県倉吉市堺町２丁目９６２－２", "url": "https://www.kaigokensaku.mhlw.go.jp/31/index.php?action_kouhyou_detail_004_kani=true&JigyosyoCd=3170300986-00&ServiceCd=150&Type=search", "url2": null }, "geometry": { "type": "Point", "coordinates": [ 133.826380299999983, 35.4334651 ] } },
{ "type": "Feature", "properties": { "内容": "デイサービスだいふく【通所介護】鳥取県倉吉市清谷町1丁目163-3", "url": "https://www.kaigokensaku.mhlw.go.jp/31/index.php?action_kouhyou_detail_004_kani=true&JigyosyoCd=3170301067-00&ServiceCd=150&Type=search", "url2": null }, "geometry": { "type": "Point", "coordinates": [ 133.848811500000011, 35.4739081 ] } },
{ "type": "Feature", "properties": { "内容": "倉吉スターガーデン【通所介護】鳥取県倉吉市福守町491", "url": "https://www.kaigokensaku.mhlw.go.jp/31/index.php?action_kouhyou_detail_004_kani=true&JigyosyoCd=3170300077-00&ServiceCd=150&Type=search", "url2": "https://minorifukusikai.com/" }, "geometry": { "type": "Point", "coordinates": [ 133.805596499999979, 35.4350782 ] } },
{ "type": "Feature", "properties": { "内容": "デイサービスセンターマグノリア【通所介護】鳥取県倉吉市上井町１丁目２番１", "url": "https://www.kaigokensaku.mhlw.go.jp/31/index.php?action_kouhyou_detail_004_kani=true&JigyosyoCd=3170300101-00&ServiceCd=150&Type=search", "url2": "https://www.med-wel.jp/" }, "geometry": { "type": "Point", "coordinates": [ 133.852544500000022, 35.4524498 ] } },
{ "type": "Feature", "properties": { "内容": "デイサービスセンター和【通所介護】鳥取県倉吉市下余戸161-1", "url": "https://www.kaigokensaku.mhlw.go.jp/31/index.php?action_kouhyou_detail_004_kani=true&JigyosyoCd=3170300358-00&ServiceCd=150&Type=search", "url2": "http://www.nagomikikaku.net" }, "geometry": { "type": "Point", "coordinates": [ 133.84950407790987, 35.436402380114913 ] } },
{ "type": "Feature", "properties": { "内容": "社会福祉法人　倉吉市社会福祉協議会通所介護事業所【通所介護】鳥取県倉吉市関金町関金宿１１１５－２倉吉市高齢者生活福祉センター内", "url": "https://www.kaigokensaku.mhlw.go.jp/31/index.php?action_kouhyou_detail_004_kani=true&JigyosyoCd=3170300424-00&ServiceCd=150&Type=search", "url2": "https://kurayoshishakyo.com" }, "geometry": { "type": "Point", "coordinates": [ 133.758923500000037, 35.3644398 ] } },
{ "type": "Feature", "properties": { "内容": "デイサービスそらいろ【通所介護】鳥取県倉吉市幸町532番地1", "url": "https://www.kaigokensaku.mhlw.go.jp/31/index.php?action_kouhyou_detail_004_kani=true&JigyosyoCd=3170301018-00&ServiceCd=150&Type=search", "url2": "http://lightup-ltd.com" }, "geometry": { "type": "Point", "coordinates": [ 133.836467120237813, 35.436147526991135 ] } },
{ "type": "Feature", "properties": { "内容": "デイサービスひまわり【通所介護】東昭和町165ケアハウスひまわり昭和町１階", "url": "https://www.kaigokensaku.mhlw.go.jp/31/index.php?action_kouhyou_detail_004_kani=true&JigyosyoCd=3170301042-00&ServiceCd=150&Type=search", "url2": "http://www.siseikai.com/" }, "geometry": { "type": "Point", "coordinates": [ 133.839814800000028, 35.4369417 ] } },
{ "type": "Feature", "properties": { "内容": "三喜苑西郷通所介護事業所【通所介護】鳥取県倉吉市伊木265-3", "url": "https://www.kaigokensaku.mhlw.go.jp/31/index.php?action_kouhyou_detail_004_kani=true&JigyosyoCd=3170300994-00&ServiceCd=150&Type=search", "url2": "http://www.sankien.jp" }, "geometry": { "type": "Point", "coordinates": [ 133.85074469999995, 35.4467532 ] } },
{ "type": "Feature", "properties": { "内容": "デイサービスセンター健康塾　境港校【通所介護】鳥取県境港市上明治町83", "url": "https://www.kaigokensaku.mhlw.go.jp/31/index.php?action_kouhyou_detail_004_kani=true&JigyosyoCd=3170400406-00&ServiceCd=150&Type=search", "url2": "http://hp.kaipoke.biz/b58/" }, "geometry": { "type": "Point", "coordinates": [ 133.355017800000041, 35.4457374 ] } },
{ "type": "Feature", "properties": { "内容": "中浜ケアパートナーズ　通所介護事業所【通所介護】鳥取県境港市財ノ木町字川尻562番地", "url": "https://www.kaigokensaku.mhlw.go.jp/31/index.php?action_kouhyou_detail_004_kani=true&JigyosyoCd=3170400208-00&ServiceCd=150&Type=search", "url2": null }, "geometry": { "type": "Point", "coordinates": [ 133.24989370000003, 35.5048205 ] } },
{ "type": "Feature", "properties": { "内容": "デイサービスセンター　さかい幸朋苑【通所介護】鳥取県境港市誠道町2083番地", "url": "https://www.kaigokensaku.mhlw.go.jp/31/index.php?action_kouhyou_detail_004_kani=true&JigyosyoCd=3170400018-00&ServiceCd=150&Type=search", "url2": "http://www.kohoen.jp" }, "geometry": { "type": "Point", "coordinates": [ 133.23531980000007, 35.5185576 ] } },
{ "type": "Feature", "properties": { "内容": "デイサービスセンター　新さかい幸朋苑【通所介護】鳥取県境港市上道町２０５３－１", "url": "https://www.kaigokensaku.mhlw.go.jp/31/index.php?action_kouhyou_detail_004_kani=true&JigyosyoCd=3170400281-00&ServiceCd=150&Type=search", "url2": "http://www.kohoen.jp" }, "geometry": { "type": "Point", "coordinates": [ 133.239699500000029, 35.5425775 ] } },
{ "type": "Feature", "properties": { "内容": "岩井あすなろデイサービスセンター【通所介護】鳥取県岩美郡岩美町宇治1034", "url": "https://www.kaigokensaku.mhlw.go.jp/31/index.php?action_kouhyou_detail_004_kani=true&JigyosyoCd=3171100070-00&ServiceCd=150&Type=search", "url2": "https://t-asunaro.jp/" }, "geometry": { "type": "Point", "coordinates": [ 134.3611367, 35.5577122 ] } },
{ "type": "Feature", "properties": { "内容": "デイサービスセンターわかばの家大岩【通所介護】鳥取県岩美郡岩美町大谷３１２番地１", "url": "https://www.kaigokensaku.mhlw.go.jp/31/index.php?action_kouhyou_detail_004_kani=true&JigyosyoCd=3171100146-00&ServiceCd=150&Type=search", "url2": "http://www.jainaba.com/kaigo/wakaba.htm" }, "geometry": { "type": "Point", "coordinates": [ 134.303364399999964, 35.5765558 ] } },
{ "type": "Feature", "properties": { "内容": "幸風デイサービスセンター【通所介護】鳥取県岩美郡岩美町浦富４３４－２５", "url": "https://www.kaigokensaku.mhlw.go.jp/31/index.php?action_kouhyou_detail_004_kani=true&JigyosyoCd=3171100096-00&ServiceCd=150&Type=search", "url2": "www.kouhuu.co.jp" }, "geometry": { "type": "Point", "coordinates": [ 134.325687099999982, 35.5810643 ] } },
{ "type": "Feature", "properties": { "内容": "メディコープとっとり　デイサービスさくら【通所介護】鳥取県八頭郡若桜町若桜933-1", "url": "https://www.kaigokensaku.mhlw.go.jp/31/index.php?action_kouhyou_detail_004_kani=true&JigyosyoCd=3171200656-00&ServiceCd=150&Type=search", "url2": "https://mcp.mcoop-tottori.jp/" }, "geometry": { "type": "Point", "coordinates": [ 134.401402045368997, 35.341642012030505 ] } },
{ "type": "Feature", "properties": { "内容": "智頭デイサービスセンター【通所介護】鳥取県八頭郡智頭町大字智頭1875", "url": "https://www.kaigokensaku.mhlw.go.jp/31/index.php?action_kouhyou_detail_004_kani=true&JigyosyoCd=3171200391-00&ServiceCd=150&Type=search", "url2": "http://chizushakyo.jp" }, "geometry": { "type": "Point", "coordinates": [ 134.224156900000025, 35.2635283 ] } },
{ "type": "Feature", "properties": { "内容": "デイサービスセンターやず友和苑【通所介護】鳥取県八頭郡八頭町宮谷200番地4", "url": "https://www.kaigokensaku.mhlw.go.jp/31/index.php?action_kouhyou_detail_004_kani=true&JigyosyoCd=3171200557-00&ServiceCd=150&Type=search", "url2": null }, "geometry": { "type": "Point", "coordinates": [ 134.255527621937205, 35.415309361833273 ] } },
{ "type": "Feature", "properties": { "内容": "サンサンデイサ－ビス【通所介護】鳥取県八頭郡八頭町万代寺88", "url": "https://www.kaigokensaku.mhlw.go.jp/31/index.php?action_kouhyou_detail_004_kani=true&JigyosyoCd=3171200607-00&ServiceCd=150&Type=search", "url2": null }, "geometry": { "type": "Point", "coordinates": [ 134.2587092, 35.3954008 ] } },
{ "type": "Feature", "properties": { "内容": "通所介護事業所すこやか【通所介護】鳥取県八頭郡八頭町宮谷１２３番地", "url": "https://www.kaigokensaku.mhlw.go.jp/31/index.php?action_kouhyou_detail_004_kani=true&JigyosyoCd=3151280215-00&ServiceCd=150&Type=search", "url2": "https://swc-yazu.studio.site/" }, "geometry": { "type": "Point", "coordinates": [ 134.258492, 35.4138208 ] } },
{ "type": "Feature", "properties": { "内容": "社会福祉法人　　八頭町社会福祉協議会　　本所【通所介護】鳥取県八頭郡八頭町宮谷２５４番地１", "url": "https://www.kaigokensaku.mhlw.go.jp/31/index.php?action_kouhyou_detail_004_kani=true&JigyosyoCd=3171200334-00&ServiceCd=150&Type=search", "url2": "http//yazu-syakyo.or.jp/" }, "geometry": { "type": "Point", "coordinates": [ 134.255311600000027, 35.4182842 ] } },
{ "type": "Feature", "properties": { "内容": "デイサービス　元輝【通所介護】鳥取県八頭郡八頭町池田４３２－２", "url": "https://www.kaigokensaku.mhlw.go.jp/31/index.php?action_kouhyou_detail_004_kani=true&JigyosyoCd=3171200524-00&ServiceCd=150&Type=search", "url2": "https://en-gage.net/genki1/" }, "geometry": { "type": "Point", "coordinates": [ 134.238363400000026, 35.4090098 ] } },
{ "type": "Feature", "properties": { "内容": "社会福祉法人　　八頭町社会福祉協議会　　八東事業所【通所介護】鳥取県八頭郡八頭町東５９３－１", "url": "https://www.kaigokensaku.mhlw.go.jp/31/index.php?action_kouhyou_detail_004_kani=true&JigyosyoCd=3171200375-00&ServiceCd=150&Type=search", "url2": null }, "geometry": { "type": "Point", "coordinates": [ 134.327714199999946, 35.3590507 ] } },
{ "type": "Feature", "properties": { "内容": "社会福祉法人　三朝町社会福祉協議会　指定通所介護事業所【通所介護】鳥取県東伯郡三朝町大字横手５０番地の４", "url": "https://www.kaigokensaku.mhlw.go.jp/31/index.php?action_kouhyou_detail_004_kani=true&JigyosyoCd=3171400082-00&ServiceCd=150&Type=search", "url2": "http://www.misasa-syakyo.or.jp/" }, "geometry": { "type": "Point", "coordinates": [ 133.882448899999986, 35.4116464 ] } },
{ "type": "Feature", "properties": { "内容": "デイサービスセンター三朝みのり【通所介護】鳥取県東伯郡三朝町山田653-1", "url": "https://www.kaigokensaku.mhlw.go.jp/31/index.php?action_kouhyou_detail_004_kani=true&JigyosyoCd=3171400462-00&ServiceCd=150&Type=search", "url2": "https://minorifukusikai.com" }, "geometry": { "type": "Point", "coordinates": [ 133.886084699999969, 35.4135712 ] } },
{ "type": "Feature", "properties": { "内容": "三朝温泉　三喜苑　通所介護事業所【通所介護】鳥取県　東伯郡　三朝町　横手３９６（山田108番地5）", "url": "https://www.kaigokensaku.mhlw.go.jp/31/index.php?action_kouhyou_detail_004_kani=true&JigyosyoCd=3171400025-00&ServiceCd=150&Type=search", "url2": "https://www.sankien.jp" }, "geometry": { "type": "Point", "coordinates": [ 133.877283080091644, 35.410555259038325 ] } },
{ "type": "Feature", "properties": { "内容": "デイサービスセンターハワイ信生荘【通所介護】鳥取県東伯郡湯梨浜町はわい温泉５８番５", "url": "https://www.kaigokensaku.mhlw.go.jp/31/index.php?action_kouhyou_detail_004_kani=true&JigyosyoCd=3171400181-00&ServiceCd=150&Type=search", "url2": "http://sinseiso.tkc.best-hp.jp" }, "geometry": { "type": "Point", "coordinates": [ 133.880298, 35.475892500000015 ] } },
{ "type": "Feature", "properties": { "内容": "社会福祉法人湯梨浜町社会福祉協議会東郷指定通所介護事業所【通所介護】鳥取県東伯郡湯梨浜町旭８６番地", "url": "https://www.kaigokensaku.mhlw.go.jp/31/index.php?action_kouhyou_detail_004_kani=true&JigyosyoCd=3171400579-00&ServiceCd=150&Type=search", "url2": "http://www.yurihama-shakyo.jp" }, "geometry": { "type": "Point", "coordinates": [ 133.899586971163899, 35.468002468253161 ] } },
{ "type": "Feature", "properties": { "内容": "アロハデイサービスセンターあずま園【通所介護】鳥取県東伯郡湯梨浜町水下１６６番地１", "url": "https://www.kaigokensaku.mhlw.go.jp/31/index.php?action_kouhyou_detail_004_kani=true&JigyosyoCd=3171400835-00&ServiceCd=150&Type=search", "url2": "http://azumaen.net/" }, "geometry": { "type": "Point", "coordinates": [ 133.8661452, 35.4878874 ] } },
{ "type": "Feature", "properties": { "内容": "湯梨浜みのりデイサービスセンター【通所介護】鳥取県東伯郡湯梨浜町門田196-2", "url": "https://www.kaigokensaku.mhlw.go.jp/31/index.php?action_kouhyou_detail_004_kani=true&JigyosyoCd=3171400843-00&ServiceCd=150&Type=search", "url2": "https://minorifukusikai.com/" }, "geometry": { "type": "Point", "coordinates": [ 133.876619399999981, 35.4709816 ] } },
{ "type": "Feature", "properties": { "内容": "はわいデイサービスセンターあずま園【通所介護】鳥取県東伯郡湯梨浜町光吉107－35", "url": "https://www.kaigokensaku.mhlw.go.jp/31/index.php?action_kouhyou_detail_004_kani=true&JigyosyoCd=3171400926-00&ServiceCd=150&Type=search", "url2": "http://azumaen.net/" }, "geometry": { "type": "Point", "coordinates": [ 133.878657400000066, 35.4918953 ] } },
{ "type": "Feature", "properties": { "内容": "リハビリテーション強化型デイサービスEsola【通所介護】鳥取県東伯郡湯梨浜町はわい長瀬字三ツ江804番地1", "url": "https://www.kaigokensaku.mhlw.go.jp/31/index.php?action_kouhyou_detail_004_kani=true&JigyosyoCd=3171400991-00&ServiceCd=150&Type=search", "url2": "https://esola.business.site" }, "geometry": { "type": "Point", "coordinates": [ 133.857756, 35.485294 ] } },
{ "type": "Feature", "properties": { "内容": "共生型デイサービスGottcha【通所介護】鳥取県東伯郡湯梨浜町大字長江字東蓼尾310番76多機能共生型施設Esola⁺", "url": "https://www.kaigokensaku.mhlw.go.jp/31/index.php?action_kouhyou_detail_004_kani=true&JigyosyoCd=3171401064-00&ServiceCd=150&Type=search", "url2": "https://esola-nursing-agency.business.site" }, "geometry": { "type": "Point", "coordinates": [ 133.876506497005607, 35.474878373470943 ] } },
{ "type": "Feature", "properties": { "内容": "社会福祉法人　琴浦町社会福祉協議会　通所介護事業所【通所介護】鳥取県東伯郡琴浦町大字浦安１２３番地１琴浦町社会福祉センター", "url": "https://www.kaigokensaku.mhlw.go.jp/31/index.php?action_kouhyou_detail_004_kani=true&JigyosyoCd=3171400512-00&ServiceCd=150&Type=search", "url2": "http://www.kotoura-shakyo.jp" }, "geometry": { "type": "Point", "coordinates": [ 133.693853399999966, 35.4943731 ] } },
{ "type": "Feature", "properties": { "内容": "デイサービス鈴ヶ野【通所介護】鳥取県東伯郡琴浦町大字逢束1213番地1", "url": "https://www.kaigokensaku.mhlw.go.jp/31/index.php?action_kouhyou_detail_004_kani=true&JigyosyoCd=3171400330-00&ServiceCd=150&Type=search", "url2": "https://www.morimoto-med1977.jp" }, "geometry": { "type": "Point", "coordinates": [ 133.697147200000018, 35.5000837 ] } },
{ "type": "Feature", "properties": { "内容": "陽だまりの家　デイサービスセンター【通所介護】鳥取県東伯郡琴浦町徳万70-1", "url": "https://www.kaigokensaku.mhlw.go.jp/31/index.php?action_kouhyou_detail_004_kani=true&JigyosyoCd=3171400421-00&ServiceCd=150&Type=search", "url2": "http://www.solhem.jp/" }, "geometry": { "type": "Point", "coordinates": [ 133.696097300000019, 35.5018558 ] } },
{ "type": "Feature", "properties": { "内容": "陽だまりの家ことうらデイサービスセンター【通所介護】鳥取県東伯郡琴浦町逢束126", "url": "https://www.kaigokensaku.mhlw.go.jp/31/index.php?action_kouhyou_detail_004_kani=true&JigyosyoCd=3171400868-00&ServiceCd=150&Type=search", "url2": "http://www.solhem.jp/" }, "geometry": { "type": "Point", "coordinates": [ 133.70820690000005, 35.5038501 ] } },
{ "type": "Feature", "properties": { "内容": "デイサービスセンターまほろば【通所介護】鳥取県東伯郡琴浦町赤碕1840-7", "url": "https://www.kaigokensaku.mhlw.go.jp/31/index.php?action_kouhyou_detail_004_kani=true&JigyosyoCd=3171400884-00&ServiceCd=150&Type=search", "url2": "https://www.kotoura-mahoroba.life" }, "geometry": { "type": "Point", "coordinates": [ 133.634860500000059, 35.511029 ] } },
{ "type": "Feature", "properties": { "内容": "みどり園通所介護事業所【通所介護】鳥取県東伯郡琴浦町八橋1937番地", "url": "https://www.kaigokensaku.mhlw.go.jp/31/index.php?action_kouhyou_detail_004_kani=true&JigyosyoCd=3171400033-00&ServiceCd=150&Type=search", "url2": "http://hp1.tcbnet.ne.jp/~midori/" }, "geometry": { "type": "Point", "coordinates": [ 133.665303, 35.5029342 ] } },
{ "type": "Feature", "properties": { "内容": "百寿苑デイサービスセンター【通所介護】鳥取県東伯郡琴浦町赤碕１０６１－３", "url": "https://www.kaigokensaku.mhlw.go.jp/31/index.php?action_kouhyou_detail_004_kani=true&JigyosyoCd=3171400041-00&ServiceCd=150&Type=search", "url2": "http://www.hyakujyuen.jp" }, "geometry": { "type": "Point", "coordinates": [ 133.6320078, 35.5174898 ] } },
{ "type": "Feature", "properties": { "内容": "百寿苑きらりデイサービスセンター【通所介護】鳥取県東伯郡琴浦町赤碕２５４０番地５", "url": "https://www.kaigokensaku.mhlw.go.jp/31/index.php?action_kouhyou_detail_004_kani=true&JigyosyoCd=3171400819-00&ServiceCd=150&Type=search", "url2": "http://www.hyakujyuen.jp/service_4_2.html#1" }, "geometry": { "type": "Point", "coordinates": [ 133.635035600000037, 35.504535 ] } },
{ "type": "Feature", "properties": { "内容": "べるびゅー大栄　デイサービス楽園【通所介護】鳥取県東伯郡北栄町六尾2005", "url": "https://www.kaigokensaku.mhlw.go.jp/31/index.php?action_kouhyou_detail_004_kani=true&JigyosyoCd=3171400801-00&ServiceCd=150&Type=search", "url2": null }, "geometry": { "type": "Point", "coordinates": [ 133.760808, 35.4809809 ] } },
{ "type": "Feature", "properties": { "内容": "社会福祉法人北栄町社会福祉協議会　デイサービスセンターほくえい【通所介護】鳥取県東伯郡北栄町瀬戸２９番地９", "url": "https://www.kaigokensaku.mhlw.go.jp/31/index.php?action_kouhyou_detail_004_kani=true&JigyosyoCd=3171400652-00&ServiceCd=150&Type=search", "url2": "http://hokuei-sykyo.or.jp/" }, "geometry": { "type": "Point", "coordinates": [ 133.775565, 35.4814142 ] } },
{ "type": "Feature", "properties": { "内容": "北栄デイサービスセンターあずま園【通所介護】鳥取県東伯郡北栄町東園３２９番地", "url": "https://www.kaigokensaku.mhlw.go.jp/31/index.php?action_kouhyou_detail_004_kani=true&JigyosyoCd=3171400793-00&ServiceCd=150&Type=search", "url2": "http://azumaen.net/index.php" }, "geometry": { "type": "Point", "coordinates": [ 133.783178, 35.4874608 ] } },
{ "type": "Feature", "properties": { "内容": "北栄みのりデイサービスセンター【通所介護】鳥取県東伯郡北栄町東園218-1", "url": "https://www.kaigokensaku.mhlw.go.jp/31/index.php?action_kouhyou_detail_004_kani=true&JigyosyoCd=3171400702-00&ServiceCd=150&Type=search", "url2": "https://minorifukusikai.com/" }, "geometry": { "type": "Point", "coordinates": [ 133.7889692, 35.4866331 ] } },
{ "type": "Feature", "properties": { "内容": "デイサービスセンターくるみの木【通所介護】鳥取県東伯郡北栄町松神145－1", "url": "https://www.kaigokensaku.mhlw.go.jp/31/index.php?action_kouhyou_detail_004_kani=true&JigyosyoCd=3171400983-00&ServiceCd=150&Type=search", "url2": "https://kurumi.hp.peraichi.com/" }, "geometry": { "type": "Point", "coordinates": [ 133.796796299999983, 35.4852391 ] } },
{ "type": "Feature", "properties": { "内容": "デイサービス　レインボゥヴィレッジ【通所介護】鳥取県東伯郡北栄町亀谷1461番地１", "url": "https://www.kaigokensaku.mhlw.go.jp/31/index.php?action_kouhyou_detail_004_kani=true&JigyosyoCd=3171401007-00&ServiceCd=150&Type=search", "url2": "https://sites.google.com/view/weeds-rainbow" }, "geometry": { "type": "Point", "coordinates": [ 133.755156, 35.4698152 ] } },
{ "type": "Feature", "properties": { "内容": "宿泊付デイサービス　レインボゥロード【通所介護】鳥取県東伯郡北栄町亀谷１４６１番地２", "url": "https://www.kaigokensaku.mhlw.go.jp/31/index.php?action_kouhyou_detail_004_kani=true&JigyosyoCd=3171401049-00&ServiceCd=150&Type=search", "url2": "https://sites.google.com/view/weeds-rainbow" }, "geometry": { "type": "Point", "coordinates": [ 133.75114, 35.473068 ] } },
{ "type": "Feature", "properties": { "内容": "大山町社会福祉協議会通所介護だいせん【通所介護】鳥取県西伯郡大山町末長５０３番地保健福祉センターだいせん", "url": "https://www.kaigokensaku.mhlw.go.jp/31/index.php?action_kouhyou_detail_004_kani=true&JigyosyoCd=3171500691-00&ServiceCd=150&Type=search", "url2": "http://daisensyakyo.org" }, "geometry": { "type": "Point", "coordinates": [ 133.459334300000023, 35.4810624 ] } },
{ "type": "Feature", "properties": { "内容": "ディサービスセンタール・ソラリオン名和【通所介護】鳥取県西伯郡大山町西坪５２０番地１", "url": "https://www.kaigokensaku.mhlw.go.jp/31/index.php?action_kouhyou_detail_004_kani=true&JigyosyoCd=3171500261-00&ServiceCd=150&Type=search", "url2": "http://www.med-wel.jp" }, "geometry": { "type": "Point", "coordinates": [ 133.501083599999987, 35.5143925 ] } },
{ "type": "Feature", "properties": { "内容": "デイサービス　大山やすらぎの里【通所介護】鳥取県西伯郡大山町唐王２０８", "url": "https://www.kaigokensaku.mhlw.go.jp/31/index.php?action_kouhyou_detail_004_kani=true&JigyosyoCd=3171500527-00&ServiceCd=150&Type=search", "url2": "https://keiaikai-daisen.com/" }, "geometry": { "type": "Point", "coordinates": [ 133.454268, 35.4807484 ] } },
{ "type": "Feature", "properties": { "内容": "西伯デイサービスセンター　しあわせ【通所介護】鳥取県西伯郡南部町法勝寺３３１－１", "url": "https://www.kaigokensaku.mhlw.go.jp/31/index.php?action_kouhyou_detail_004_kani=true&JigyosyoCd=3171500410-00&ServiceCd=150&Type=search", "url2": "http://yuraku-houki.net/" }, "geometry": { "type": "Point", "coordinates": [ 133.326462799999945, 35.3422246 ] } },
{ "type": "Feature", "properties": { "内容": "デイサービスあゆみ【通所介護】鳥取県西伯郡伯耆町大殿1089-8", "url": "https://www.kaigokensaku.mhlw.go.jp/31/index.php?action_kouhyou_detail_004_kani=true&JigyosyoCd=3171500857-00&ServiceCd=150&Type=search", "url2": "http://www.akari-net.sakura.ne.jp" }, "geometry": { "type": "Point", "coordinates": [ 133.388696699999969, 35.3919765 ] } },
{ "type": "Feature", "properties": { "内容": "伯耆町社会福祉協議会　岸本通所介護事業所【通所介護】鳥取県西伯郡伯耆町大殿1032－1岸本デイサービスセンター", "url": "https://www.kaigokensaku.mhlw.go.jp/31/index.php?action_kouhyou_detail_004_kani=true&JigyosyoCd=3171500584-00&ServiceCd=150&Type=search", "url2": "http://www.houki-shakyo.jp/" }, "geometry": { "type": "Point", "coordinates": [ 133.396386593245694, 35.386210333362982 ] } },
{ "type": "Feature", "properties": { "内容": "伯耆町社会福祉協議会　溝口通所介護事業所【通所介護】鳥取県西伯郡伯耆町溝口２８１－２", "url": "https://www.kaigokensaku.mhlw.go.jp/31/index.php?action_kouhyou_detail_004_kani=true&JigyosyoCd=3171500626-00&ServiceCd=150&Type=search", "url2": "http://www.houki-shakyo.jp" }, "geometry": { "type": "Point", "coordinates": [ 133.4349327, 35.3446543 ] } },
{ "type": "Feature", "properties": { "内容": "デイサービスセンターあかねの郷【通所介護】鳥取県日野郡日南町下石見２３１５番地", "url": "https://www.kaigokensaku.mhlw.go.jp/31/index.php?action_kouhyou_detail_004_kani=true&JigyosyoCd=3171600277-00&ServiceCd=150&Type=search", "url2": "http://www.n-akane.jp/office02.html" }, "geometry": { "type": "Point", "coordinates": [ 133.330239900000038, 35.1521569 ] } },
{ "type": "Feature", "properties": { "内容": "デイサービスセンター江美の郷【通所介護】鳥取県日野郡江府町久連7番地", "url": "https://www.kaigokensaku.mhlw.go.jp/31/index.php?action_kouhyou_detail_004_kani=true&JigyosyoCd=3171600426-00&ServiceCd=150&Type=search", "url2": "http://www.syoujin.or.jp/" }, "geometry": { "type": "Point", "coordinates": [ 133.483059, 35.2818538 ] } }
]
}
