{
"type": "FeatureCollection",
"name": "geo_31_4",
"crs": { "type": "name", "properties": { "name": "urn:ogc:def:crs:OGC:1.3:CRS84" } },
"features": [
{ "type": "Feature", "properties": { "ID": "314ME010001", "正式名称": "ひかり助産所", "機関区分": 4, "都道府県コード": 31, "市区町村コード": 201, "所在地": "鳥取県鳥取市湯所町２丁目３４１番地", "緯度": 35.510761, "経度": 134.230528, "url": "https://www.iryou.teikyouseido.mhlw.go.jp/znk-web/juminkanja/S2430/initialize?prefCd=31&kikanCd=ME010001&kikanKbn=4", "url2": "https://www.instagram.com/hikarijosanjo_tottori/", "内容": "ひかり助産所【4:助産院】鳥取県鳥取市湯所町２丁目３４１番地" }, "geometry": { "type": "Point", "coordinates": [ 134.230528, 35.510761 ] } },
{ "type": "Feature", "properties": { "ID": "314ME010002", "正式名称": "本家助産所", "機関区分": 4, "都道府県コード": 31, "市区町村コード": 201, "所在地": "鳥取県鳥取市津ノ井６１５", "緯度": 35.460897, "経度": 134.251025, "url": "https://www.iryou.teikyouseido.mhlw.go.jp/znk-web/juminkanja/S2430/initialize?prefCd=31&kikanCd=ME010002&kikanKbn=4", "url2": null, "内容": "本家助産所【4:助産院】鳥取県鳥取市津ノ井６１５" }, "geometry": { "type": "Point", "coordinates": [ 134.251025, 35.460897 ] } },
{ "type": "Feature", "properties": { "ID": "314ME010004", "正式名称": "産後ケア　やわらかい風", "機関区分": 4, "都道府県コード": 31, "市区町村コード": 201, "所在地": "鳥取県鳥取市馬場町１３－１", "緯度": 35.478564, "経度": 134.250397, "url": "https://www.iryou.teikyouseido.mhlw.go.jp/znk-web/juminkanja/S2430/initialize?prefCd=31&kikanCd=ME010004&kikanKbn=4", "url2": null, "内容": "産後ケア　やわらかい風【4:助産院】鳥取県鳥取市馬場町１３－１" }, "geometry": { "type": "Point", "coordinates": [ 134.250397, 35.478564 ] } },
{ "type": "Feature", "properties": { "ID": "314ME010005", "正式名称": "自癒楽助産所", "機関区分": 4, "都道府県コード": 31, "市区町村コード": 201, "所在地": "鳥取県鳥取市緑ケ丘３－２－４", "緯度": 35.505986, "経度": 134.204081, "url": "https://www.iryou.teikyouseido.mhlw.go.jp/znk-web/juminkanja/S2430/initialize?prefCd=31&kikanCd=ME010005&kikanKbn=4", "url2": "https://juraku15.com", "内容": "自癒楽助産所【4:助産院】鳥取県鳥取市緑ケ丘３－２－４" }, "geometry": { "type": "Point", "coordinates": [ 134.204081, 35.505986 ] } },
{ "type": "Feature", "properties": { "ID": "314ME010006", "正式名称": "ゆう助産所", "機関区分": 4, "都道府県コード": 31, "市区町村コード": 201, "所在地": "鳥取県鳥取市大覚寺１９０－１０", "緯度": 35.476689, "経度": 134.233194, "url": "https://www.iryou.teikyouseido.mhlw.go.jp/znk-web/juminkanja/S2430/initialize?prefCd=31&kikanCd=ME010006&kikanKbn=4", "url2": null, "内容": "ゆう助産所【4:助産院】鳥取県鳥取市大覚寺１９０－１０" }, "geometry": { "type": "Point", "coordinates": [ 134.233194, 35.476689 ] } },
{ "type": "Feature", "properties": { "ID": "314ME040001", "正式名称": "助産院いのちね", "機関区分": 4, "都道府県コード": 31, "市区町村コード": 328, "所在地": "鳥取県八頭郡智頭町中原３５９", "緯度": 35.232908, "経度": 134.291222, "url": "https://www.iryou.teikyouseido.mhlw.go.jp/znk-web/juminkanja/S2430/initialize?prefCd=31&kikanCd=ME040001&kikanKbn=4", "url2": "http://inochine.com", "内容": "助産院いのちね【4:助産院】鳥取県八頭郡智頭町中原３５９" }, "geometry": { "type": "Point", "coordinates": [ 134.291222, 35.232908 ] } },
{ "type": "Feature", "properties": { "ID": "314MM060002", "正式名称": "はるか助産院", "機関区分": 4, "都道府県コード": 31, "市区町村コード": 203, "所在地": "鳥取県倉吉市清谷町１番地３６グランヴェール２０１", "緯度": 35.470822, "経度": 133.845397, "url": "https://www.iryou.teikyouseido.mhlw.go.jp/znk-web/juminkanja/S2430/initialize?prefCd=31&kikanCd=MM060002&kikanKbn=4", "url2": null, "内容": "はるか助産院【4:助産院】鳥取県倉吉市清谷町１番地３６グランヴェール２０１" }, "geometry": { "type": "Point", "coordinates": [ 133.845397, 35.470822 ] } },
{ "type": "Feature", "properties": { "ID": "314MW110007", "正式名称": "産前産後ケアハウスはぐはぐ助産所", "機関区分": 4, "都道府県コード": 31, "市区町村コード": 202, "所在地": "鳥取県米子市上福原２－９－１８", "緯度": 35.446233, "経度": 133.358172, "url": "https://www.iryou.teikyouseido.mhlw.go.jp/znk-web/juminkanja/S2430/initialize?prefCd=31&kikanCd=MW110007&kikanKbn=4", "url2": null, "内容": "産前産後ケアハウスはぐはぐ助産所【4:助産院】鳥取県米子市上福原２－９－１８" }, "geometry": { "type": "Point", "coordinates": [ 133.358172, 35.446233 ] } },
{ "type": "Feature", "properties": { "ID": "314MW110009", "正式名称": "すくすく助産院", "機関区分": 4, "都道府県コード": 31, "市区町村コード": 202, "所在地": "鳥取県米子市東福原８丁目１４－１", "緯度": 35.450103, "経度": 133.346989, "url": "https://www.iryou.teikyouseido.mhlw.go.jp/znk-web/juminkanja/S2430/initialize?prefCd=31&kikanCd=MW110009&kikanKbn=4", "url2": "https://www.sukusukumw.com/", "内容": "すくすく助産院【4:助産院】鳥取県米子市東福原８丁目１４－１" }, "geometry": { "type": "Point", "coordinates": [ 133.346989, 35.450103 ] } },
{ "type": "Feature", "properties": { "ID": "314MW180001", "正式名称": "出張専門　山根助産院", "機関区分": 4, "都道府県コード": 31, "市区町村コード": 402, "所在地": "鳥取県日野郡日野町野田６６番地", "緯度": 35.239469, "経度": 133.434836, "url": "https://www.iryou.teikyouseido.mhlw.go.jp/znk-web/juminkanja/S2430/initialize?prefCd=31&kikanCd=MW180001&kikanKbn=4", "url2": null, "内容": "出張専門　山根助産院【4:助産院】鳥取県日野郡日野町野田６６番地" }, "geometry": { "type": "Point", "coordinates": [ 133.434836, 35.239469 ] } }
]
}
