{
"type": "FeatureCollection",
"name": "geo_31_小学校",
"crs": { "type": "name", "properties": { "name": "urn:ogc:def:crs:EPSG::6668" } },
"features": [
{ "type": "Feature", "properties": { "P29_001": "31201", "P29_002": "B131110000014", "P29_003": "16001", "P29_004": "鳥取大学附属小学校", "P29_005": "鳥取県鳥取市湖山町南4-101", "P29_006": "1", "P29_007": "1", "P29_008": "00", "P29_009": null }, "geometry": { "type": "Point", "coordinates": [ 134.174408715724041, 35.513048056323456 ] } },
{ "type": "Feature", "properties": { "P29_001": "31201", "P29_002": "B131210000012", "P29_003": "16001", "P29_004": "鳥取市立久松小学校", "P29_005": "鳥取県鳥取市東町2-201", "P29_006": "3", "P29_007": "1", "P29_008": "00", "P29_009": null }, "geometry": { "type": "Point", "coordinates": [ 134.236315389903183, 35.505938369937091 ] } },
{ "type": "Feature", "properties": { "P29_001": "31201", "P29_002": "B131210000021", "P29_003": "16001", "P29_004": "鳥取市立醇風小学校", "P29_005": "鳥取県鳥取市西町5-353", "P29_006": "3", "P29_007": "1", "P29_008": "00", "P29_009": null }, "geometry": { "type": "Point", "coordinates": [ 134.231810142672003, 35.505939489849816 ] } },
{ "type": "Feature", "properties": { "P29_001": "31201", "P29_002": "B131210000030", "P29_003": "16001", "P29_004": "鳥取市立遷喬小学校", "P29_005": "鳥取県鳥取市本町1-108-1", "P29_006": "3", "P29_007": "1", "P29_008": "00", "P29_009": null }, "geometry": { "type": "Point", "coordinates": [ 134.233094846881556, 35.501336872343238 ] } },
{ "type": "Feature", "properties": { "P29_001": "31201", "P29_002": "B131210000049", "P29_003": "16001", "P29_004": "鳥取市立修立小学校", "P29_005": "鳥取県鳥取市立川町5-339", "P29_006": "3", "P29_007": "1", "P29_008": "00", "P29_009": null }, "geometry": { "type": "Point", "coordinates": [ 134.243123347667733, 35.488869453438227 ] } },
{ "type": "Feature", "properties": { "P29_001": "31201", "P29_002": "B131210000058", "P29_003": "16001", "P29_004": "鳥取市立日進小学校", "P29_005": "鳥取県鳥取市吉方温泉1-131", "P29_006": "3", "P29_007": "1", "P29_008": "00", "P29_009": null }, "geometry": { "type": "Point", "coordinates": [ 134.233582926992284, 35.496062344357441 ] } },
{ "type": "Feature", "properties": { "P29_001": "31201", "P29_002": "B131210000067", "P29_003": "16001", "P29_004": "鳥取市立富桑小学校", "P29_005": "鳥取県鳥取市西品治134", "P29_006": "3", "P29_007": "1", "P29_008": "00", "P29_009": null }, "geometry": { "type": "Point", "coordinates": [ 134.219677994243568, 35.504402159829759 ] } },
{ "type": "Feature", "properties": { "P29_001": "31201", "P29_002": "B131210000076", "P29_003": "16001", "P29_004": "鳥取市立稲葉山小学校", "P29_005": "鳥取県鳥取市卯垣2-657", "P29_006": "3", "P29_007": "1", "P29_008": "00", "P29_009": null }, "geometry": { "type": "Point", "coordinates": [ 134.251143448326275, 35.490971474591198 ] } },
{ "type": "Feature", "properties": { "P29_001": "31201", "P29_002": "B131210000085", "P29_003": "16001", "P29_004": "鳥取市立城北小学校", "P29_005": "鳥取県鳥取市田園町4-324", "P29_006": "3", "P29_007": "1", "P29_008": "00", "P29_009": null }, "geometry": { "type": "Point", "coordinates": [ 134.221696024394078, 35.515147708956214 ] } },
{ "type": "Feature", "properties": { "P29_001": "31201", "P29_002": "B131210000094", "P29_003": "16001", "P29_004": "鳥取市立美保小学校", "P29_005": "鳥取県鳥取市吉成1-10-25", "P29_006": "3", "P29_007": "1", "P29_008": "00", "P29_009": null }, "geometry": { "type": "Point", "coordinates": [ 134.223833260307003, 35.484007245679479 ] } },
{ "type": "Feature", "properties": { "P29_001": "31201", "P29_002": "B131210000101", "P29_003": "16001", "P29_004": "鳥取市立賀露小学校", "P29_005": "鳥取県鳥取市賀露町4150", "P29_006": "3", "P29_007": "1", "P29_008": "00", "P29_009": null }, "geometry": { "type": "Point", "coordinates": [ 134.196200527227603, 35.530584954346708 ] } },
{ "type": "Feature", "properties": { "P29_001": "31201", "P29_002": "B131210000110", "P29_003": "16001", "P29_004": "鳥取市立明徳小学校", "P29_005": "鳥取県鳥取市行徳1-201-3", "P29_006": "3", "P29_007": "1", "P29_008": "00", "P29_009": null }, "geometry": { "type": "Point", "coordinates": [ 134.222418712660556, 35.496690209840523 ] } },
{ "type": "Feature", "properties": { "P29_001": "31201", "P29_002": "B131210000129", "P29_003": "16001", "P29_004": "鳥取市立倉田小学校", "P29_005": "鳥取県鳥取市八坂54-1", "P29_006": "3", "P29_007": "1", "P29_008": "00", "P29_009": null }, "geometry": { "type": "Point", "coordinates": [ 134.215687524160785, 35.450443255392159 ] } },
{ "type": "Feature", "properties": { "P29_001": "31201", "P29_002": "B131210000138", "P29_003": "16001", "P29_004": "鳥取市立米里小学校", "P29_005": "鳥取県鳥取市古郡家75-1", "P29_006": "3", "P29_007": "1", "P29_008": "00", "P29_009": null }, "geometry": { "type": "Point", "coordinates": [ 134.238511274798753, 35.459866263377378 ] } },
{ "type": "Feature", "properties": { "P29_001": "31201", "P29_002": "B131210000147", "P29_003": "16001", "P29_004": "鳥取市立面影小学校", "P29_005": "鳥取県鳥取市雲山42", "P29_006": "3", "P29_007": "1", "P29_008": "00", "P29_009": null }, "geometry": { "type": "Point", "coordinates": [ 134.240495351882771, 35.481212752398328 ] } },
{ "type": "Feature", "properties": { "P29_001": "31201", "P29_002": "B131210000156", "P29_003": "16001", "P29_004": "鳥取市立大正小学校", "P29_005": "鳥取県鳥取市古海291-3", "P29_006": "3", "P29_007": "1", "P29_008": "00", "P29_009": null }, "geometry": { "type": "Point", "coordinates": [ 134.20819050817687, 35.494507075705748 ] } },
{ "type": "Feature", "properties": { "P29_001": "31201", "P29_002": "B131210000165", "P29_003": "16001", "P29_004": "鳥取市立東郷小学校", "P29_005": "鳥取県鳥取市篠坂6-1", "P29_006": "3", "P29_007": "1", "P29_008": "00", "P29_009": null }, "geometry": { "type": "Point", "coordinates": [ 134.184765499563383, 35.469622054337044 ] } },
{ "type": "Feature", "properties": { "P29_001": "31201", "P29_002": "B131210000174", "P29_003": "16001", "P29_004": "鳥取市立明治小学校", "P29_005": "鳥取県鳥取市松上159", "P29_006": "3", "P29_007": "1", "P29_008": "00", "P29_009": null }, "geometry": { "type": "Point", "coordinates": [ 134.134908648985999, 35.442312094674882 ] } },
{ "type": "Feature", "properties": { "P29_001": "31201", "P29_002": "B131210000183", "P29_003": "16001", "P29_004": "鳥取市立世紀小学校", "P29_005": "鳥取県鳥取市徳尾407", "P29_006": "3", "P29_007": "1", "P29_008": "00", "P29_009": null }, "geometry": { "type": "Point", "coordinates": [ 134.198086643305999, 35.502493726013483 ] } },
{ "type": "Feature", "properties": { "P29_001": "31201", "P29_002": "B131210000192", "P29_003": "16001", "P29_004": "鳥取市立湖山小学校", "P29_005": "鳥取県鳥取市湖山町南1-656", "P29_006": "3", "P29_007": "1", "P29_008": "00", "P29_009": null }, "geometry": { "type": "Point", "coordinates": [ 134.177697072262077, 35.516214059461056 ] } },
{ "type": "Feature", "properties": { "P29_001": "31201", "P29_002": "B131210000209", "P29_003": "16001", "P29_004": "鳥取市立末恒小学校", "P29_005": "鳥取県鳥取市伏野2256-61", "P29_006": "3", "P29_007": "1", "P29_008": "00", "P29_009": null }, "geometry": { "type": "Point", "coordinates": [ 134.135477119183548, 35.525979265118202 ] } },
{ "type": "Feature", "properties": { "P29_001": "31201", "P29_002": "B131210000218", "P29_003": "16001", "P29_004": "鳥取市立津ノ井小学校", "P29_005": "鳥取県鳥取市桂木238-1", "P29_006": "3", "P29_007": "1", "P29_008": "00", "P29_009": null }, "geometry": { "type": "Point", "coordinates": [ 134.250647000332719, 35.459293002200248 ] } },
{ "type": "Feature", "properties": { "P29_001": "31201", "P29_002": "B131210000227", "P29_003": "16001", "P29_004": "鳥取市立浜坂小学校", "P29_005": "鳥取県鳥取市浜坂1-14-1", "P29_006": "3", "P29_007": "1", "P29_008": "00", "P29_009": null }, "geometry": { "type": "Point", "coordinates": [ 134.217458261958825, 35.529479715520516 ] } },
{ "type": "Feature", "properties": { "P29_001": "31201", "P29_002": "B131210000236", "P29_003": "16001", "P29_004": "鳥取市立岩倉小学校", "P29_005": "鳥取県鳥取市立川町7-110", "P29_006": "3", "P29_007": "1", "P29_008": "00", "P29_009": null }, "geometry": { "type": "Point", "coordinates": [ 134.255042974662132, 35.483133383383972 ] } },
{ "type": "Feature", "properties": { "P29_001": "31201", "P29_002": "B131210000245", "P29_003": "16001", "P29_004": "鳥取市立美保南小学校", "P29_005": "鳥取県鳥取市宮長200-1", "P29_006": "3", "P29_007": "1", "P29_008": "00", "P29_009": null }, "geometry": { "type": "Point", "coordinates": [ 134.22229880165051, 35.478966114918919 ] } },
{ "type": "Feature", "properties": { "P29_001": "31202", "P29_002": "B131210000254", "P29_003": "16001", "P29_004": "米子市立明道小学校", "P29_005": "鳥取県米子市陽田町74-2", "P29_006": "3", "P29_007": "1", "P29_008": "00", "P29_009": null }, "geometry": { "type": "Point", "coordinates": [ 133.34828200588899, 35.426835002601145 ] } },
{ "type": "Feature", "properties": { "P29_001": "31202", "P29_002": "B131210000263", "P29_003": "16001", "P29_004": "米子市立義方小学校", "P29_005": "鳥取県米子市義方町9-20", "P29_006": "3", "P29_007": "1", "P29_008": "00", "P29_009": null }, "geometry": { "type": "Point", "coordinates": [ 133.323285567360927, 35.438711095257922 ] } },
{ "type": "Feature", "properties": { "P29_001": "31202", "P29_002": "B131210000272", "P29_003": "16001", "P29_004": "米子市立啓成小学校", "P29_005": "鳥取県米子市博労町4-290", "P29_006": "3", "P29_007": "1", "P29_008": "00", "P29_009": null }, "geometry": { "type": "Point", "coordinates": [ 133.341071970387304, 35.436795809157296 ] } },
{ "type": "Feature", "properties": { "P29_001": "31202", "P29_002": "B131210000281", "P29_003": "16001", "P29_004": "米子市立就将小学校", "P29_005": "鳥取県米子市愛宕町94", "P29_006": "3", "P29_007": "1", "P29_008": "00", "P29_009": null }, "geometry": { "type": "Point", "coordinates": [ 133.330850434995995, 35.421152081312435 ] } },
{ "type": "Feature", "properties": { "P29_001": "31202", "P29_002": "B131210000290", "P29_003": "16001", "P29_004": "米子市立車尾小学校", "P29_005": "鳥取県米子市車尾2-27-1", "P29_006": "3", "P29_007": "1", "P29_008": "00", "P29_009": null }, "geometry": { "type": "Point", "coordinates": [ 133.357067426243816, 35.431953525360839 ] } },
{ "type": "Feature", "properties": { "P29_001": "31202", "P29_002": "B131210000307", "P29_003": "16001", "P29_004": "米子市立福生東小学校", "P29_005": "鳥取県米子市皆生5-18-32", "P29_006": "3", "P29_007": "1", "P29_008": "00", "P29_009": null }, "geometry": { "type": "Point", "coordinates": [ 133.360198003322694, 35.447777996474933 ] } },
{ "type": "Feature", "properties": { "P29_001": "31202", "P29_002": "B131210000316", "P29_003": "16001", "P29_004": "米子市立福米東小学校", "P29_005": "鳥取県米子市東福原5-7-1", "P29_006": "3", "P29_007": "1", "P29_008": "00", "P29_009": null }, "geometry": { "type": "Point", "coordinates": [ 133.344138794147597, 35.445214363761863 ] } },
{ "type": "Feature", "properties": { "P29_001": "31202", "P29_002": "B131210000325", "P29_003": "16001", "P29_004": "米子市立加茂小学校", "P29_005": "鳥取県米子市両三柳4610", "P29_006": "3", "P29_007": "1", "P29_008": "00", "P29_009": null }, "geometry": { "type": "Point", "coordinates": [ 133.319115232616127, 35.45986028995798 ] } },
{ "type": "Feature", "properties": { "P29_001": "31202", "P29_002": "B131210000334", "P29_003": "16001", "P29_004": "米子市立住吉小学校", "P29_005": "鳥取県米子市旗ヶ崎5-17-1", "P29_006": "3", "P29_007": "1", "P29_008": "00", "P29_009": null }, "geometry": { "type": "Point", "coordinates": [ 133.313099309763231, 35.444666678480139 ] } },
{ "type": "Feature", "properties": { "P29_001": "31202", "P29_002": "B131210000343", "P29_003": "16001", "P29_004": "米子市立彦名小学校", "P29_005": "鳥取県米子市彦名町4500-2", "P29_006": "3", "P29_007": "1", "P29_008": "00", "P29_009": null }, "geometry": { "type": "Point", "coordinates": [ 133.291255969495126, 35.456162683648415 ] } },
{ "type": "Feature", "properties": { "P29_001": "31202", "P29_002": "B131210000352", "P29_003": "16001", "P29_004": "米子市立崎津小学校", "P29_005": "鳥取県米子市大崎3244", "P29_006": "3", "P29_007": "1", "P29_008": "00", "P29_009": null }, "geometry": { "type": "Point", "coordinates": [ 133.258472187937997, 35.476765236209573 ] } },
{ "type": "Feature", "properties": { "P29_001": "31202", "P29_002": "B131210000361", "P29_003": "16001", "P29_004": "米子市立大篠津小学校", "P29_005": "鳥取県米子市大篠津町190", "P29_006": "3", "P29_007": "1", "P29_008": "00", "P29_009": null }, "geometry": { "type": "Point", "coordinates": [ 133.260782333160535, 35.490624020042574 ] } },
{ "type": "Feature", "properties": { "P29_001": "31202", "P29_002": "B131210000370", "P29_003": "16001", "P29_004": "米子市立和田小学校", "P29_005": "鳥取県米子市和田町3271", "P29_006": "3", "P29_007": "1", "P29_008": "00", "P29_009": null }, "geometry": { "type": "Point", "coordinates": [ 133.271885099081231, 35.48819461143615 ] } },
{ "type": "Feature", "properties": { "P29_001": "31202", "P29_002": "B131210000389", "P29_003": "16001", "P29_004": "米子市立弓ヶ浜小学校", "P29_005": "鳥取県米子市富益町1194", "P29_006": "3", "P29_007": "1", "P29_008": "00", "P29_009": null }, "geometry": { "type": "Point", "coordinates": [ 133.293038760403874, 35.471931010613162 ] } },
{ "type": "Feature", "properties": { "P29_001": "31202", "P29_002": "B131210000398", "P29_003": "16001", "P29_004": "米子市立箕蚊屋小学校", "P29_005": "鳥取県米子市下新印204-2", "P29_006": "3", "P29_007": "1", "P29_008": "00", "P29_009": null }, "geometry": { "type": "Point", "coordinates": [ 133.385141290035307, 35.422218671194251 ] } },
{ "type": "Feature", "properties": { "P29_001": "31202", "P29_002": "B131210000405", "P29_003": "16001", "P29_004": "米子市立尚徳小学校", "P29_005": "鳥取県米子市榎原1897", "P29_006": "3", "P29_007": "1", "P29_008": "00", "P29_009": null }, "geometry": { "type": "Point", "coordinates": [ 133.361005204505801, 35.398163596009766 ] } },
{ "type": "Feature", "properties": { "P29_001": "31202", "P29_002": "B131210000414", "P29_003": "16001", "P29_004": "米子市立成実小学校", "P29_005": "鳥取県米子市奈喜良81", "P29_006": "3", "P29_007": "1", "P29_008": "00", "P29_009": null }, "geometry": { "type": "Point", "coordinates": [ 133.347509774616867, 35.401936275053266 ] } },
{ "type": "Feature", "properties": { "P29_001": "31202", "P29_002": "B131210000423", "P29_003": "16001", "P29_004": "米子市立伯仙小学校", "P29_005": "鳥取県米子市尾高418-1", "P29_006": "3", "P29_007": "1", "P29_008": "00", "P29_009": null }, "geometry": { "type": "Point", "coordinates": [ 133.407329484443039, 35.413747910036008 ] } },
{ "type": "Feature", "properties": { "P29_001": "31202", "P29_002": "B131210000432", "P29_003": "16001", "P29_004": "米子市立福米西小学校", "P29_005": "鳥取県米子市西福原8-16-62", "P29_006": "3", "P29_007": "1", "P29_008": "00", "P29_009": null }, "geometry": { "type": "Point", "coordinates": [ 133.342475997707595, 35.453887997989646 ] } },
{ "type": "Feature", "properties": { "P29_001": "31202", "P29_002": "B131210000441", "P29_003": "16001", "P29_004": "米子市立河崎小学校", "P29_005": "鳥取県米子市河崎2677", "P29_006": "3", "P29_007": "1", "P29_008": "00", "P29_009": null }, "geometry": { "type": "Point", "coordinates": [ 133.303689024805493, 35.455934343542602 ] } },
{ "type": "Feature", "properties": { "P29_001": "31202", "P29_002": "B131210000450", "P29_003": "16001", "P29_004": "米子市立五千石小学校", "P29_005": "鳥取県米子市諏訪1695", "P29_006": "3", "P29_007": "1", "P29_008": "00", "P29_009": null }, "geometry": { "type": "Point", "coordinates": [ 133.377191406574894, 35.396851957243321 ] } },
{ "type": "Feature", "properties": { "P29_001": "31203", "P29_002": "B131210000469", "P29_003": "16001", "P29_004": "倉吉市立西郷小学校", "P29_005": "鳥取県倉吉市下余戸114", "P29_006": "3", "P29_007": "1", "P29_008": "00", "P29_009": null }, "geometry": { "type": "Point", "coordinates": [ 133.852589240936283, 35.43574840407797 ] } },
{ "type": "Feature", "properties": { "P29_001": "31203", "P29_002": "B131210000478", "P29_003": "16001", "P29_004": "倉吉市立河北小学校", "P29_005": "鳥取県倉吉市海田西町1-130", "P29_006": "3", "P29_007": "1", "P29_008": "00", "P29_009": null }, "geometry": { "type": "Point", "coordinates": [ 133.843266995803759, 35.463061001553278 ] } },
{ "type": "Feature", "properties": { "P29_001": "31203", "P29_002": "B131210000487", "P29_003": "16001", "P29_004": "倉吉市立明倫小学校", "P29_005": "鳥取県倉吉市余戸谷町3059", "P29_006": "3", "P29_007": "1", "P29_008": "00", "P29_009": null }, "geometry": { "type": "Point", "coordinates": [ 133.813282979473229, 35.427722290579567 ] } },
{ "type": "Feature", "properties": { "P29_001": "31203", "P29_002": "B131210000502", "P29_003": "16001", "P29_004": "倉吉市立上灘小学校", "P29_005": "鳥取県倉吉市上灘町136", "P29_006": "3", "P29_007": "1", "P29_008": "00", "P29_009": null }, "geometry": { "type": "Point", "coordinates": [ 133.840801185722654, 35.42923126767267 ] } },
{ "type": "Feature", "properties": { "P29_001": "31203", "P29_002": "B131210000511", "P29_003": "16001", "P29_004": "倉吉市立小鴨小学校", "P29_005": "鳥取県倉吉市中河原775-1", "P29_006": "3", "P29_007": "1", "P29_008": "00", "P29_009": null }, "geometry": { "type": "Point", "coordinates": [ 133.802262308494448, 35.414861652703863 ] } },
{ "type": "Feature", "properties": { "P29_001": "31203", "P29_002": "B131210000520", "P29_003": "16001", "P29_004": "倉吉市立上小鴨小学校", "P29_005": "鳥取県倉吉市福山30", "P29_006": "3", "P29_007": "1", "P29_008": "00", "P29_009": null }, "geometry": { "type": "Point", "coordinates": [ 133.782214961945215, 35.392276869970217 ] } },
{ "type": "Feature", "properties": { "P29_001": "31203", "P29_002": "B131210000539", "P29_003": "16001", "P29_004": "倉吉市立北谷小学校", "P29_005": "鳥取県倉吉市沢谷204", "P29_006": "3", "P29_007": "1", "P29_008": "00", "P29_009": null }, "geometry": { "type": "Point", "coordinates": [ 133.750745064920466, 35.407034659654876 ] } },
{ "type": "Feature", "properties": { "P29_001": "31203", "P29_002": "B131210000548", "P29_003": "16001", "P29_004": "倉吉市立高城小学校", "P29_005": "鳥取県倉吉市上福田722-2", "P29_006": "3", "P29_007": "1", "P29_008": "00", "P29_009": null }, "geometry": { "type": "Point", "coordinates": [ 133.746209503591018, 35.429518348713891 ] } },
{ "type": "Feature", "properties": { "P29_001": "31203", "P29_002": "B131210000557", "P29_003": "16001", "P29_004": "倉吉市立社小学校", "P29_005": "鳥取県倉吉市国分寺88", "P29_006": "3", "P29_007": "1", "P29_008": "00", "P29_009": null }, "geometry": { "type": "Point", "coordinates": [ 133.792661003078166, 35.431842003426638 ] } },
{ "type": "Feature", "properties": { "P29_001": "31204", "P29_002": "B131210000575", "P29_003": "16001", "P29_004": "境港市立渡小学校", "P29_005": "鳥取県境港市渡町901", "P29_006": "3", "P29_007": "1", "P29_008": "00", "P29_009": null }, "geometry": { "type": "Point", "coordinates": [ 133.218844050861065, 35.516812035505325 ] } },
{ "type": "Feature", "properties": { "P29_001": "31204", "P29_002": "B131210000584", "P29_003": "16001", "P29_004": "境港市立外江小学校", "P29_005": "鳥取県境港市外江町2105", "P29_006": "3", "P29_007": "1", "P29_008": "00", "P29_009": null }, "geometry": { "type": "Point", "coordinates": [ 133.209907118565781, 35.534664149304106 ] } },
{ "type": "Feature", "properties": { "P29_001": "31204", "P29_002": "B131210000593", "P29_003": "16001", "P29_004": "境港市立境小学校", "P29_005": "鳥取県境港市湊町27", "P29_006": "3", "P29_007": "1", "P29_008": "00", "P29_009": null }, "geometry": { "type": "Point", "coordinates": [ 133.231519271493994, 35.542922578836219 ] } },
{ "type": "Feature", "properties": { "P29_001": "31204", "P29_002": "B131210000600", "P29_003": "16001", "P29_004": "境港市立上道小学校", "P29_005": "鳥取県境港市上道町3026", "P29_006": "3", "P29_007": "1", "P29_008": "00", "P29_009": null }, "geometry": { "type": "Point", "coordinates": [ 133.235859777318637, 35.537207059832411 ] } },
{ "type": "Feature", "properties": { "P29_001": "31204", "P29_002": "B131210000619", "P29_003": "16001", "P29_004": "境港市立余子小学校", "P29_005": "鳥取県境港市竹内町3117", "P29_006": "3", "P29_007": "1", "P29_008": "00", "P29_009": null }, "geometry": { "type": "Point", "coordinates": [ 133.239921141579856, 35.52543960110733 ] } },
{ "type": "Feature", "properties": { "P29_001": "31204", "P29_002": "B131210000628", "P29_003": "16001", "P29_004": "境港市立中浜小学校", "P29_005": "鳥取県境港市麦垣町432", "P29_006": "3", "P29_007": "1", "P29_008": "00", "P29_009": null }, "geometry": { "type": "Point", "coordinates": [ 133.249596281092721, 35.509135219678328 ] } },
{ "type": "Feature", "properties": { "P29_001": "31201", "P29_002": "B131210000637", "P29_003": "16001", "P29_004": "鳥取市立宮ノ下小学校", "P29_005": "鳥取県鳥取市国府町宮下26", "P29_006": "3", "P29_007": "1", "P29_008": "00", "P29_009": null }, "geometry": { "type": "Point", "coordinates": [ 134.271926268671535, 35.478935554851319 ] } },
{ "type": "Feature", "properties": { "P29_001": "31329", "P29_002": "B131210000646", "P29_003": "16001", "P29_004": "八頭町立郡家東小学校", "P29_005": "鳥取県八頭郡八頭町稲荷310", "P29_006": "3", "P29_007": "1", "P29_008": "00", "P29_009": null }, "geometry": { "type": "Point", "coordinates": [ 134.263902710775028, 35.42945875311608 ] } },
{ "type": "Feature", "properties": { "P29_001": "31329", "P29_002": "B131210000655", "P29_003": "16001", "P29_004": "八頭町立郡家西小学校", "P29_005": "鳥取県八頭郡八頭町郡家541", "P29_006": "3", "P29_007": "1", "P29_008": "00", "P29_009": null }, "geometry": { "type": "Point", "coordinates": [ 134.249879901655476, 35.405956009402935 ] } },
{ "type": "Feature", "properties": { "P29_001": "31201", "P29_002": "B131210000664", "P29_003": "16001", "P29_004": "鳥取市立河原第一小学校", "P29_005": "鳥取県鳥取市河原町渡一木179-1", "P29_006": "3", "P29_007": "1", "P29_008": "00", "P29_009": null }, "geometry": { "type": "Point", "coordinates": [ 134.200507089503276, 35.400914191959544 ] } },
{ "type": "Feature", "properties": { "P29_001": "31201", "P29_002": "B131210000673", "P29_003": "16001", "P29_004": "鳥取市立西郷小学校", "P29_005": "鳥取県鳥取市河原町牛戸14-1", "P29_006": "3", "P29_007": "1", "P29_008": "00", "P29_009": null }, "geometry": { "type": "Point", "coordinates": [ 134.164733003399135, 35.379965824137045 ] } },
{ "type": "Feature", "properties": { "P29_001": "31201", "P29_002": "B131210000682", "P29_003": "16001", "P29_004": "鳥取市立散岐小学校", "P29_005": "鳥取県鳥取市河原町佐貫761-5", "P29_006": "3", "P29_007": "1", "P29_008": "00", "P29_009": null }, "geometry": { "type": "Point", "coordinates": [ 134.19813776216742, 35.376353860395085 ] } },
{ "type": "Feature", "properties": { "P29_001": "31325", "P29_002": "B131210000691", "P29_003": "16001", "P29_004": "若桜町立若桜学園小学校", "P29_005": "鳥取県八頭郡若桜町浅井289", "P29_006": "3", "P29_007": "1", "P29_008": "00", "P29_009": null }, "geometry": { "type": "Point", "coordinates": [ 134.405107488899603, 35.335656227427471 ] } },
{ "type": "Feature", "properties": { "P29_001": "31201", "P29_002": "B131210000708", "P29_003": "16001", "P29_004": "鳥取市立用瀬小学校", "P29_005": "鳥取県鳥取市用瀬町用瀬75-1", "P29_006": "3", "P29_007": "1", "P29_008": "00", "P29_009": null }, "geometry": { "type": "Point", "coordinates": [ 134.201813228555011, 35.336447082701021 ] } },
{ "type": "Feature", "properties": { "P29_001": "31201", "P29_002": "B131210000717", "P29_003": "16001", "P29_004": "鳥取市立佐治小学校", "P29_005": "鳥取県鳥取市佐治町福園41", "P29_006": "3", "P29_007": "1", "P29_008": "00", "P29_009": null }, "geometry": { "type": "Point", "coordinates": [ 134.110905555745319, 35.330476536596827 ] } },
{ "type": "Feature", "properties": { "P29_001": "31201", "P29_002": "B131210000726", "P29_003": "16001", "P29_004": "鳥取市立宝木小学校", "P29_005": "鳥取県鳥取市気高町宝木989", "P29_006": "3", "P29_007": "1", "P29_008": "00", "P29_009": null }, "geometry": { "type": "Point", "coordinates": [ 134.081078017592574, 35.512648855497595 ] } },
{ "type": "Feature", "properties": { "P29_001": "31201", "P29_002": "B131210000735", "P29_003": "16001", "P29_004": "鳥取市立瑞穂小学校", "P29_005": "鳥取県鳥取市気高町下坂本48", "P29_006": "3", "P29_007": "1", "P29_008": "00", "P29_009": null }, "geometry": { "type": "Point", "coordinates": [ 134.069164687701146, 35.492945450883788 ] } },
{ "type": "Feature", "properties": { "P29_001": "31201", "P29_002": "B131210000744", "P29_003": "16001", "P29_004": "鳥取市立浜村小学校", "P29_005": "鳥取県鳥取市気高町八幡382-3", "P29_006": "3", "P29_007": "1", "P29_008": "00", "P29_009": null }, "geometry": { "type": "Point", "coordinates": [ 134.044010235381705, 35.510081604202583 ] } },
{ "type": "Feature", "properties": { "P29_001": "31201", "P29_002": "B131210000753", "P29_003": "16001", "P29_004": "鳥取市立逢坂小学校", "P29_005": "鳥取県鳥取市気高町山宮369-2", "P29_006": "3", "P29_007": "1", "P29_008": "00", "P29_009": null }, "geometry": { "type": "Point", "coordinates": [ 134.038592559582412, 35.481053313486605 ] } },
{ "type": "Feature", "properties": { "P29_001": "31201", "P29_002": "B131210000762", "P29_003": "16001", "P29_004": "鳥取市立青谷小学校", "P29_005": "鳥取県鳥取市青谷町青谷3459", "P29_006": "3", "P29_007": "1", "P29_008": "00", "P29_009": null }, "geometry": { "type": "Point", "coordinates": [ 134.000667128629345, 35.523350148655567 ] } },
{ "type": "Feature", "properties": { "P29_001": "31370", "P29_002": "B131210000771", "P29_003": "16001", "P29_004": "湯梨浜町立泊小学校", "P29_005": "鳥取県東伯郡湯梨浜町泊280", "P29_006": "3", "P29_007": "1", "P29_008": "00", "P29_009": null }, "geometry": { "type": "Point", "coordinates": [ 133.94540531747117, 35.512480867813778 ] } },
{ "type": "Feature", "properties": { "P29_001": "31372", "P29_002": "B131210000780", "P29_003": "16001", "P29_004": "北栄町立北条小学校", "P29_005": "鳥取県東伯郡北栄町国坂680", "P29_006": "3", "P29_007": "1", "P29_008": "00", "P29_009": null }, "geometry": { "type": "Point", "coordinates": [ 133.826508821914558, 35.481251277587852 ] } },
{ "type": "Feature", "properties": { "P29_001": "31372", "P29_002": "B131210000799", "P29_003": "16001", "P29_004": "北栄町立大栄小学校", "P29_005": "鳥取県東伯郡北栄町由良宿213", "P29_006": "3", "P29_007": "1", "P29_008": "00", "P29_009": null }, "geometry": { "type": "Point", "coordinates": [ 133.753188844158927, 35.486109890793649 ] } },
{ "type": "Feature", "properties": { "P29_001": "31371", "P29_002": "B131210000806", "P29_003": "16001", "P29_004": "琴浦町立浦安小学校", "P29_005": "鳥取県東伯郡琴浦町下伊勢504-1", "P29_006": "3", "P29_007": "1", "P29_008": "00", "P29_009": null }, "geometry": { "type": "Point", "coordinates": [ 133.698493839866217, 35.490930988974846 ] } },
{ "type": "Feature", "properties": { "P29_001": "31371", "P29_002": "B131210000815", "P29_003": "16001", "P29_004": "琴浦町立八橋小学校", "P29_005": "鳥取県東伯郡琴浦町八橋705", "P29_006": "3", "P29_007": "1", "P29_008": "00", "P29_009": null }, "geometry": { "type": "Point", "coordinates": [ 133.675978173475414, 35.500960742813575 ] } },
{ "type": "Feature", "properties": { "P29_001": "31371", "P29_002": "B131210000824", "P29_003": "16001", "P29_004": "琴浦町立赤碕小学校", "P29_005": "鳥取県東伯郡琴浦町赤碕264", "P29_006": "3", "P29_007": "1", "P29_008": "00", "P29_009": null }, "geometry": { "type": "Point", "coordinates": [ 133.649030300077669, 35.512744625888701 ] } },
{ "type": "Feature", "properties": { "P29_001": "31389", "P29_002": "B131210000833", "P29_003": "16001", "P29_004": "南部町立西伯小学校", "P29_005": "鳥取県西伯郡南部町法勝寺336", "P29_006": "3", "P29_007": "1", "P29_008": "00", "P29_009": null }, "geometry": { "type": "Point", "coordinates": [ 133.32783359837066, 35.342672238595192 ] } },
{ "type": "Feature", "properties": { "P29_001": "31389", "P29_002": "B131210000842", "P29_003": "16001", "P29_004": "南部町立会見小学校", "P29_005": "鳥取県西伯郡南部町宮前568", "P29_006": "3", "P29_007": "1", "P29_008": "00", "P29_009": null }, "geometry": { "type": "Point", "coordinates": [ 133.369598394485052, 35.363943934997522 ] } },
{ "type": "Feature", "properties": { "P29_001": "31389", "P29_002": "B131210000851", "P29_003": "16001", "P29_004": "南部町立会見第二小学校", "P29_005": "鳥取県西伯郡南部町池野451-1", "P29_006": "3", "P29_007": "1", "P29_008": "00", "P29_009": null }, "geometry": { "type": "Point", "coordinates": [ 133.414190258270168, 35.343685040531966 ] } },
{ "type": "Feature", "properties": { "P29_001": "31390", "P29_002": "B131210000860", "P29_003": "16001", "P29_004": "伯耆町立岸本小学校", "P29_005": "鳥取県西伯郡伯耆町吉長78-2", "P29_006": "3", "P29_007": "1", "P29_008": "00", "P29_009": null }, "geometry": { "type": "Point", "coordinates": [ 133.407018105261301, 35.387290117269281 ] } },
{ "type": "Feature", "properties": { "P29_001": "31390", "P29_002": "B131210000879", "P29_003": "16001", "P29_004": "伯耆町立八郷小学校", "P29_005": "鳥取県西伯郡伯耆町真野971", "P29_006": "3", "P29_007": "1", "P29_008": "00", "P29_009": null }, "geometry": { "type": "Point", "coordinates": [ 133.441400054625433, 35.380641383416375 ] } },
{ "type": "Feature", "properties": { "P29_001": "31384", "P29_002": "B131210000888", "P29_003": "16001", "P29_004": "日吉津村立日吉津小学校", "P29_005": "鳥取県西伯郡日吉津村日吉津872-12", "P29_006": "3", "P29_007": "1", "P29_008": "00", "P29_009": null }, "geometry": { "type": "Point", "coordinates": [ 133.3811956493183, 35.441616388432948 ] } },
{ "type": "Feature", "properties": { "P29_001": "31202", "P29_002": "B131210000897", "P29_003": "16001", "P29_004": "米子市立淀江小学校", "P29_005": "鳥取県米子市淀江町西原244-2", "P29_006": "3", "P29_007": "1", "P29_008": "00", "P29_009": null }, "geometry": { "type": "Point", "coordinates": [ 133.42250817149673, 35.450860914023679 ] } },
{ "type": "Feature", "properties": { "P29_001": "31386", "P29_002": "B131210000904", "P29_003": "16001", "P29_004": "大山町立大山西小学校", "P29_005": "鳥取県西伯郡大山町末長81-1", "P29_006": "3", "P29_007": "1", "P29_008": "00", "P29_009": null }, "geometry": { "type": "Point", "coordinates": [ 133.451659998113684, 35.48177599940086 ] } },
{ "type": "Feature", "properties": { "P29_001": "31386", "P29_002": "B131210000913", "P29_003": "16001", "P29_004": "大山町立大山小学校", "P29_005": "鳥取県西伯郡大山町佐摩340", "P29_006": "3", "P29_007": "1", "P29_008": "00", "P29_009": null }, "geometry": { "type": "Point", "coordinates": [ 133.497373557066908, 35.445432448147564 ] } },
{ "type": "Feature", "properties": { "P29_001": "31386", "P29_002": "B131210000922", "P29_003": "16001", "P29_004": "大山町立名和小学校", "P29_005": "鳥取県西伯郡大山町名和610", "P29_006": "3", "P29_007": "1", "P29_008": "00", "P29_009": null }, "geometry": { "type": "Point", "coordinates": [ 133.499283519852156, 35.503203745698428 ] } },
{ "type": "Feature", "properties": { "P29_001": "31390", "P29_002": "B131210000959", "P29_003": "16001", "P29_004": "伯耆町立二部小学校", "P29_005": "鳥取県西伯郡伯耆町二部1617", "P29_006": "3", "P29_007": "1", "P29_008": "00", "P29_009": null }, "geometry": { "type": "Point", "coordinates": [ 133.415604912629618, 35.298035483039648 ] } },
{ "type": "Feature", "properties": { "P29_001": "31386", "P29_002": "B131210000968", "P29_003": "16001", "P29_004": "大山町立中山小学校", "P29_005": "鳥取県西伯郡大山町下甲1022", "P29_006": "3", "P29_007": "1", "P29_008": "00", "P29_009": null }, "geometry": { "type": "Point", "coordinates": [ 133.573286400628433, 35.519477905888742 ] } },
{ "type": "Feature", "properties": { "P29_001": "31201", "P29_002": "B131210000977", "P29_003": "16001", "P29_004": "鳥取市立湖山西小学校", "P29_005": "鳥取県鳥取市湖山町西1-541", "P29_006": "3", "P29_007": "1", "P29_008": "00", "P29_009": null }, "geometry": { "type": "Point", "coordinates": [ 134.170659296053458, 35.522182326514944 ] } },
{ "type": "Feature", "properties": { "P29_001": "31202", "P29_002": "B131210000986", "P29_003": "16001", "P29_004": "米子市立福生西小学校", "P29_005": "鳥取県米子市上福原5-4-1", "P29_006": "3", "P29_007": "1", "P29_008": "00", "P29_009": null }, "geometry": { "type": "Point", "coordinates": [ 133.352241678385468, 35.448839829608112 ] } },
{ "type": "Feature", "properties": { "P29_001": "31203", "P29_002": "B131210000995", "P29_003": "16001", "P29_004": "倉吉市立上北条小学校", "P29_005": "鳥取県倉吉市新田405-1", "P29_006": "3", "P29_007": "1", "P29_008": "00", "P29_009": null }, "geometry": { "type": "Point", "coordinates": [ 133.835630100190656, 35.464884266007175 ] } },
{ "type": "Feature", "properties": { "P29_001": "31302", "P29_002": "B131210001002", "P29_003": "16001", "P29_004": "岩美町立岩美西小学校", "P29_005": "鳥取県岩美郡岩美町大谷2343", "P29_006": "3", "P29_007": "1", "P29_008": "00", "P29_009": null }, "geometry": { "type": "Point", "coordinates": [ 134.299102684367028, 35.578326100840115 ] } },
{ "type": "Feature", "properties": { "P29_001": "31201", "P29_002": "B131210001011", "P29_003": "16001", "P29_004": "鳥取市立中ノ郷小学校", "P29_005": "鳥取県鳥取市円護寺268", "P29_006": "3", "P29_007": "1", "P29_008": "00", "P29_009": null }, "geometry": { "type": "Point", "coordinates": [ 134.236715000468337, 35.519058120560196 ] } },
{ "type": "Feature", "properties": { "P29_001": "31302", "P29_002": "B131210001020", "P29_003": "16001", "P29_004": "岩美町立岩美北小学校", "P29_005": "鳥取県岩美郡岩美町浦富2128", "P29_006": "3", "P29_007": "1", "P29_008": "00", "P29_009": null }, "geometry": { "type": "Point", "coordinates": [ 134.331383658004739, 35.587926434290566 ] } },
{ "type": "Feature", "properties": { "P29_001": "31201", "P29_002": "B131210001039", "P29_003": "16001", "P29_004": "鳥取市立若葉台小学校", "P29_005": "鳥取県鳥取市若葉台南2-17-1", "P29_006": "3", "P29_007": "1", "P29_008": "00", "P29_009": null }, "geometry": { "type": "Point", "coordinates": [ 134.261400862695439, 35.447430522319884 ] } },
{ "type": "Feature", "properties": { "P29_001": "31302", "P29_002": "B131210001048", "P29_003": "16001", "P29_004": "岩美町立岩美南小学校", "P29_005": "鳥取県岩美郡岩美町新井419-2", "P29_006": "3", "P29_007": "1", "P29_008": "00", "P29_009": null }, "geometry": { "type": "Point", "coordinates": [ 134.33652499628036, 35.562560003371814 ] } },
{ "type": "Feature", "properties": { "P29_001": "31201", "P29_002": "B131210001057", "P29_003": "16001", "P29_004": "鳥取市立国府東小学校", "P29_005": "鳥取県鳥取市国府町谷3", "P29_006": "3", "P29_007": "1", "P29_008": "00", "P29_009": null }, "geometry": { "type": "Point", "coordinates": [ 134.29687785357919, 35.460797314614055 ] } },
{ "type": "Feature", "properties": { "P29_001": "31370", "P29_002": "B131210001066", "P29_003": "16001", "P29_004": "湯梨浜町立東郷小学校", "P29_005": "鳥取県東伯郡湯梨浜町小鹿谷820", "P29_006": "3", "P29_007": "1", "P29_008": "00", "P29_009": null }, "geometry": { "type": "Point", "coordinates": [ 133.902502633705609, 35.462391629456604 ] } },
{ "type": "Feature", "properties": { "P29_001": "31370", "P29_002": "B131210001075", "P29_003": "16001", "P29_004": "湯梨浜町立羽合小学校", "P29_005": "鳥取県東伯郡湯梨浜町はわい長瀬535", "P29_006": "3", "P29_007": "1", "P29_008": "00", "P29_009": null }, "geometry": { "type": "Point", "coordinates": [ 133.867540621325048, 35.486805111814775 ] } },
{ "type": "Feature", "properties": { "P29_001": "31401", "P29_002": "B131210001084", "P29_003": "16001", "P29_004": "日南町立日南小学校", "P29_005": "鳥取県日野郡日南町生山450-2", "P29_006": "3", "P29_007": "1", "P29_008": "00", "P29_009": null }, "geometry": { "type": "Point", "coordinates": [ 133.309699592142664, 35.167632674980489 ] } },
{ "type": "Feature", "properties": { "P29_001": "31328", "P29_002": "B131210001100", "P29_003": "16001", "P29_004": "智頭町立智頭小学校", "P29_005": "鳥取県八頭郡智頭町智頭320", "P29_006": "3", "P29_007": "1", "P29_008": "00", "P29_009": null }, "geometry": { "type": "Point", "coordinates": [ 134.232898876113012, 35.269061449949895 ] } },
{ "type": "Feature", "properties": { "P29_001": "31371", "P29_002": "B131210001119", "P29_003": "16001", "P29_004": "琴浦町立聖郷小学校", "P29_005": "鳥取県東伯郡琴浦町釛529", "P29_006": "3", "P29_007": "1", "P29_008": "00", "P29_009": null }, "geometry": { "type": "Point", "coordinates": [ 133.696594904856767, 35.470957934663481 ] } },
{ "type": "Feature", "properties": { "P29_001": "31371", "P29_002": "B131210001128", "P29_003": "16001", "P29_004": "琴浦町立船上小学校", "P29_005": "鳥取県東伯郡琴浦町佐崎16", "P29_006": "3", "P29_007": "1", "P29_008": "00", "P29_009": null }, "geometry": { "type": "Point", "coordinates": [ 133.626586399105776, 35.497142816964825 ] } },
{ "type": "Feature", "properties": { "P29_001": "31203", "P29_002": "B131210001137", "P29_003": "16001", "P29_004": "倉吉市立関金小学校", "P29_005": "鳥取県倉吉市関金町関金宿666", "P29_006": "3", "P29_007": "1", "P29_008": "00", "P29_009": null }, "geometry": { "type": "Point", "coordinates": [ 133.749011429607918, 35.365768342077857 ] } },
{ "type": "Feature", "properties": { "P29_001": "31390", "P29_002": "B131210001146", "P29_003": "16001", "P29_004": "伯耆町立溝口小学校", "P29_005": "鳥取県西伯郡伯耆町溝口309", "P29_006": "3", "P29_007": "1", "P29_008": "00", "P29_009": null }, "geometry": { "type": "Point", "coordinates": [ 133.435908745747213, 35.343687466834062 ] } },
{ "type": "Feature", "properties": { "P29_001": "31329", "P29_002": "B131210001155", "P29_003": "16001", "P29_004": "八頭町立船岡小学校", "P29_005": "鳥取県八頭郡八頭町坂田11", "P29_006": "3", "P29_007": "1", "P29_008": "00", "P29_009": null }, "geometry": { "type": "Point", "coordinates": [ 134.249273014372875, 35.390515595153303 ] } },
{ "type": "Feature", "properties": { "P29_001": "31329", "P29_002": "B131210001164", "P29_003": "16001", "P29_004": "八頭町立八東小学校", "P29_005": "鳥取県八頭郡八頭町富枝6-1", "P29_006": "3", "P29_007": "1", "P29_008": "00", "P29_009": null }, "geometry": { "type": "Point", "coordinates": [ 134.358203756159014, 35.362290504114327 ] } },
{ "type": "Feature", "properties": { "P29_001": "31364", "P29_002": "B131210001173", "P29_003": "16001", "P29_004": "三朝町立三朝小学校", "P29_005": "鳥取県東伯郡三朝町大瀬1170-1", "P29_006": "3", "P29_007": "1", "P29_008": "00", "P29_009": null }, "geometry": { "type": "Point", "coordinates": [ 133.861476974169591, 35.406880480118858 ] } },
{ "type": "Feature", "properties": { "P29_001": "31203", "P29_002": "B131210001182", "P29_003": "16001", "P29_004": "倉吉市立成徳小学校", "P29_005": "鳥取県倉吉市仲ノ町733", "P29_006": "3", "P29_007": "1", "P29_008": "00", "P29_009": null }, "geometry": { "type": "Point", "coordinates": [ 133.824142633021921, 35.430734594217945 ] } }
]
}
