{
"type": "FeatureCollection",
"name": "geo_31_短期入所生活介護",
"crs": { "type": "name", "properties": { "name": "urn:ogc:def:crs:OGC:1.3:CRS84" } },
"features": [
{ "type": "Feature", "properties": { "内容": "特別養護老人ホーム若葉台【短期入所生活介護】鳥取県鳥取市若葉台南4丁目2番27号", "url": "https://www.kaigokensaku.mhlw.go.jp/31/index.php?action_kouhyou_detail_004_kani=true&JigyosyoCd=3170102945-00&ServiceCd=210&Type=search", "url2": "http://www.tottorifukushikai.jp" }, "geometry": { "type": "Point", "coordinates": [ 134.269434600000068, 35.4448699 ] } },
{ "type": "Feature", "properties": { "内容": "短期入所生活介護施設　のでらはまゆう【短期入所生活介護】鳥取県鳥取市野寺67番地", "url": "https://www.kaigokensaku.mhlw.go.jp/31/index.php?action_kouhyou_detail_004_kani=true&JigyosyoCd=3170103141-00&ServiceCd=210&Type=search", "url2": "http:/www.hamayu.or.jp/" }, "geometry": { "type": "Point", "coordinates": [ 134.204531699999961, 35.4720744 ] } },
{ "type": "Feature", "properties": { "内容": "気高あすなろ【短期入所生活介護】鳥取県鳥取市気高町八幡２６８", "url": "https://www.kaigokensaku.mhlw.go.jp/31/index.php?action_kouhyou_detail_004_kani=true&JigyosyoCd=3171300035-00&ServiceCd=210&Type=search", "url2": "http://t-asunaro.or.jp/" }, "geometry": { "type": "Point", "coordinates": [ 134.040356, 35.5105715 ] } },
{ "type": "Feature", "properties": { "内容": "白兎あすなろ【短期入所生活介護】鳥取県鳥取市白兎８番地", "url": "https://www.kaigokensaku.mhlw.go.jp/31/index.php?action_kouhyou_detail_004_kani=true&JigyosyoCd=3170100030-00&ServiceCd=210&Type=search", "url2": "http://www.t-asunaro.or.jp/" }, "geometry": { "type": "Point", "coordinates": [ 134.1195123, 35.5251082 ] } },
{ "type": "Feature", "properties": { "内容": "美和あすなろ【短期入所生活介護】鳥取県鳥取市赤子田４５１", "url": "https://www.kaigokensaku.mhlw.go.jp/31/index.php?action_kouhyou_detail_004_kani=true&JigyosyoCd=3170100063-00&ServiceCd=210&Type=search", "url2": "http://t-asunaro.or.jp/index.shtml" }, "geometry": { "type": "Point", "coordinates": [ 134.200614, 35.4316337 ] } },
{ "type": "Feature", "properties": { "内容": "短期入所生活介護事業所新いなば幸朋苑【短期入所生活介護】鳥取県鳥取市浜坂222-1", "url": "https://www.kaigokensaku.mhlw.go.jp/31/index.php?action_kouhyou_detail_004_kani=true&JigyosyoCd=3170100550-00&ServiceCd=210&Type=search", "url2": "http://www.kohoen.jp" }, "geometry": { "type": "Point", "coordinates": [ 134.226897, 35.524602 ] } },
{ "type": "Feature", "properties": { "内容": "短期入所生活介護　にしまち幸朋苑【短期入所生活介護】鳥取県鳥取市西町5丁目108", "url": "https://www.kaigokensaku.mhlw.go.jp/31/index.php?action_kouhyou_detail_004_kani=true&JigyosyoCd=3170102531-00&ServiceCd=210&Type=search", "url2": "http://www.kohoen.jp" }, "geometry": { "type": "Point", "coordinates": [ 134.232991500000026, 35.5068124 ] } },
{ "type": "Feature", "properties": { "内容": "特別養護老人ホーム若葉台【短期入所生活介護】鳥取県鳥取市若葉台南４丁目２番２７号", "url": "https://www.kaigokensaku.mhlw.go.jp/31/index.php?action_kouhyou_detail_004_kani=true&JigyosyoCd=3170100220-00&ServiceCd=210&Type=search", "url2": "http://www.tottorifukushikai.jp" }, "geometry": { "type": "Point", "coordinates": [ 134.269154100000037, 35.4451282 ] } },
{ "type": "Feature", "properties": { "内容": "健推庵こくふ【短期入所生活介護】鳥取県鳥取市国府町新通り2丁目202", "url": "https://www.kaigokensaku.mhlw.go.jp/31/index.php?action_kouhyou_detail_004_kani=true&JigyosyoCd=3170103216-00&ServiceCd=210&Type=search", "url2": "http://kensuikai.net/tokuyo_info.html" }, "geometry": { "type": "Point", "coordinates": [ 134.253915300000017, 35.4816821 ] } },
{ "type": "Feature", "properties": { "内容": "河原あすなろ指定短期入所生活介護事業所【短期入所生活介護】鳥取県鳥取市河原町今在家842番地", "url": "https://www.kaigokensaku.mhlw.go.jp/31/index.php?action_kouhyou_detail_004_kani=true&JigyosyoCd=3171200037-00&ServiceCd=210&Type=search", "url2": "http://t-asunaro.or.jp/" }, "geometry": { "type": "Point", "coordinates": [ 134.217035099999947, 35.4009157 ] } },
{ "type": "Feature", "properties": { "内容": "短期入所生活介護施設　はまゆう【短期入所生活介護】鳥取市服部204-1", "url": "https://www.kaigokensaku.mhlw.go.jp/31/index.php?action_kouhyou_detail_004_kani=true&JigyosyoCd=3170101228-00&ServiceCd=210&Type=search", "url2": "http://www.hamayu.or.jp/" }, "geometry": { "type": "Point", "coordinates": [ 134.205284300000017, 35.4748852 ] } },
{ "type": "Feature", "properties": { "内容": "高草あすなろ【短期入所生活介護】鳥取県鳥取市大桷３３０番地", "url": "https://www.kaigokensaku.mhlw.go.jp/31/index.php?action_kouhyou_detail_004_kani=true&JigyosyoCd=3170100071-00&ServiceCd=210&Type=search", "url2": "http://www.t-asunaro.or.jp/" }, "geometry": { "type": "Point", "coordinates": [ 134.181483500000013, 35.4909798 ] } },
{ "type": "Feature", "properties": { "内容": "ふしの白寿苑【短期入所生活介護】鳥取県鳥取市伏野１７７１番地３６", "url": "https://www.kaigokensaku.mhlw.go.jp/31/index.php?action_kouhyou_detail_004_kani=true&JigyosyoCd=3170101301-00&ServiceCd=210&Type=search", "url2": "http://www.tottori-kousei.jp/" }, "geometry": { "type": "Point", "coordinates": [ 134.14782475327047, 35.522963230208823 ] } },
{ "type": "Feature", "properties": { "内容": "短期入所生活介護事業所なりすな【短期入所生活介護】鳥取県鳥取市青谷町善田２７－１", "url": "https://www.kaigokensaku.mhlw.go.jp/31/index.php?action_kouhyou_detail_004_kani=true&JigyosyoCd=3171300100-00&ServiceCd=210&Type=search", "url2": "https://www.tottori-aofuku.jp" }, "geometry": { "type": "Point", "coordinates": [ 133.99746810000002, 35.511625800000026 ] } },
{ "type": "Feature", "properties": { "内容": "鳥取松並ケアセンターそよ風【短期入所生活介護】鳥取県鳥取市松並町2丁目134", "url": "https://www.kaigokensaku.mhlw.go.jp/31/index.php?action_kouhyou_detail_004_kani=true&JigyosyoCd=3170104016-00&ServiceCd=210&Type=search", "url2": "https://www.sykz.co.jp" }, "geometry": { "type": "Point", "coordinates": [ 134.219801, 35.5162239 ] } },
{ "type": "Feature", "properties": { "内容": "短期入所生活介護事業所　よなご幸朋苑【短期入所生活介護】鳥取県米子市上後藤　３丁目７番１号", "url": "https://www.kaigokensaku.mhlw.go.jp/31/index.php?action_kouhyou_detail_004_kani=true&JigyosyoCd=3170200046-00&ServiceCd=210&Type=search", "url2": "http://www.kohoen.jp" }, "geometry": { "type": "Point", "coordinates": [ 133.319128099999944, 35.4475612 ] } },
{ "type": "Feature", "properties": { "内容": "短期入所生活介護　ﾋﾟｰｽﾎﾟｰﾄ【短期入所生活介護】鳥取県米子市大崎1511番地1", "url": "https://www.kaigokensaku.mhlw.go.jp/31/index.php?action_kouhyou_detail_004_kani=true&JigyosyoCd=3170200301-00&ServiceCd=210&Type=search", "url2": "http://www.hospitown.or.jp/" }, "geometry": { "type": "Point", "coordinates": [ 133.2530832, 35.4736494 ] } },
{ "type": "Feature", "properties": { "内容": "ケアホーム　はあとピア【短期入所生活介護】鳥取県米子市久米町２００番地", "url": "https://www.kaigokensaku.mhlw.go.jp/31/index.php?action_kouhyou_detail_004_kani=true&JigyosyoCd=3170200491-00&ServiceCd=210&Type=search", "url2": "http://www.hapine.com" }, "geometry": { "type": "Point", "coordinates": [ 133.3264646, 35.425241400000012 ] } },
{ "type": "Feature", "properties": { "内容": "皆生みどり苑【短期入所生活介護】鳥取県米子市皆生新田2丁目3-1", "url": "https://www.kaigokensaku.mhlw.go.jp/31/index.php?action_kouhyou_detail_004_kani=true&JigyosyoCd=3170201374-00&ServiceCd=210&Type=search", "url2": "https://www.tottori-kousei.jp/k-midori.html" }, "geometry": { "type": "Point", "coordinates": [ 133.367633599999976, 35.4514591 ] } },
{ "type": "Feature", "properties": { "内容": "短期入所生活介護事業所　きんかい幸朋苑【短期入所生活介護】鳥取県米子市錦海町3丁目5番15号", "url": "https://www.kaigokensaku.mhlw.go.jp/31/index.php?action_kouhyou_detail_004_kani=true&JigyosyoCd=3170201580-00&ServiceCd=210&Type=search", "url2": "http://www.kohoen.jp" }, "geometry": { "type": "Point", "coordinates": [ 133.3193933, 35.4183366 ] } },
{ "type": "Feature", "properties": { "内容": "短期入所生活介護　皆生ピースポート【短期入所生活介護】鳥取県米子市新開3-3-10", "url": "https://www.kaigokensaku.mhlw.go.jp/31/index.php?action_kouhyou_detail_004_kani=true&JigyosyoCd=3170202893-00&ServiceCd=210&Type=search", "url2": "http://www.hospitown.or.jp/" }, "geometry": { "type": "Point", "coordinates": [ 133.351584600000024, 35.4582361 ] } },
{ "type": "Feature", "properties": { "内容": "短期入所生活介護なんぶ幸朋苑【短期入所生活介護】鳥取県米子市石井1238番地", "url": "https://www.kaigokensaku.mhlw.go.jp/31/index.php?action_kouhyou_detail_004_kani=true&JigyosyoCd=3170203370-00&ServiceCd=210&Type=search", "url2": "http://www.kohoen.jp" }, "geometry": { "type": "Point", "coordinates": [ 133.3514888, 35.4022804 ] } },
{ "type": "Feature", "properties": { "内容": "ショートステイ　博愛苑【短期入所生活介護】鳥取県米子市一部555番地", "url": "https://www.kaigokensaku.mhlw.go.jp/31/index.php?action_kouhyou_detail_004_kani=true&JigyosyoCd=3170200178-00&ServiceCd=210&Type=search", "url2": "http://www.hakuaikai-smile.jp/" }, "geometry": { "type": "Point", "coordinates": [ 133.396926099999973, 35.4068362 ] } },
{ "type": "Feature", "properties": { "内容": "いずみの苑【短期入所生活介護】鳥取県米子市淀江町淀江1075番地", "url": "https://www.kaigokensaku.mhlw.go.jp/31/index.php?action_kouhyou_detail_004_kani=true&JigyosyoCd=3171500279-00&ServiceCd=210&Type=search", "url2": "https://www.izuminosono.or.jp" }, "geometry": { "type": "Point", "coordinates": [ 133.433632100000068, 35.4573423 ] } },
{ "type": "Feature", "properties": { "内容": "倉吉スターロイヤル【短期入所生活介護】鳥取県倉吉市福守町433", "url": "https://www.kaigokensaku.mhlw.go.jp/31/index.php?action_kouhyou_detail_004_kani=true&JigyosyoCd=3170300044-00&ServiceCd=210&Type=search", "url2": "https://minorifukusikai.com/" }, "geometry": { "type": "Point", "coordinates": [ 133.8052298, 35.4358725 ] } },
{ "type": "Feature", "properties": { "内容": "ショートステイ　ル・ソラリオン【短期入所生活介護】鳥取県倉吉市山根55番地3", "url": "https://www.kaigokensaku.mhlw.go.jp/31/index.php?action_kouhyou_detail_004_kani=true&JigyosyoCd=3170300036-00&ServiceCd=210&Type=search", "url2": "https://www.med‐wel.jp/" }, "geometry": { "type": "Point", "coordinates": [ 133.858574500000032, 35.4525693 ] } },
{ "type": "Feature", "properties": { "内容": "（施設）地域ケアセンターマグノリア　　（事業所）ショートステイマグノリア【短期入所生活介護】鳥取県倉吉市上井町１丁目２番１", "url": "https://www.kaigokensaku.mhlw.go.jp/31/index.php?action_kouhyou_detail_004_kani=true&JigyosyoCd=3170300416-00&ServiceCd=210&Type=search", "url2": "https://www.med-wel.jp/" }, "geometry": { "type": "Point", "coordinates": [ 133.852544500000022, 35.4524498 ] } },
{ "type": "Feature", "properties": { "内容": "短期入所施設ひまわりの家【短期入所生活介護】鳥取県倉吉市東昭和町131番地1", "url": "https://www.kaigokensaku.mhlw.go.jp/31/index.php?action_kouhyou_detail_004_kani=true&JigyosyoCd=3170300887-00&ServiceCd=210&Type=search", "url2": "http://www.siseikai.com/" }, "geometry": { "type": "Point", "coordinates": [ 133.840776099999971, 35.4369818 ] } },
{ "type": "Feature", "properties": { "内容": "ユニット型　ショートステイ　ル・ソラリオン【短期入所生活介護】鳥取県倉吉市山根55番地3", "url": "https://www.kaigokensaku.mhlw.go.jp/31/index.php?action_kouhyou_detail_004_kani=true&JigyosyoCd=3170300903-00&ServiceCd=210&Type=search", "url2": "https://www.med‐wel.jp" }, "geometry": { "type": "Point", "coordinates": [ 133.858574500000032, 35.4525693 ] } },
{ "type": "Feature", "properties": { "内容": "短期入所生活介護施設みなと幸朋苑【短期入所生活介護】鳥取県境港市上道町２０５３－６", "url": "https://www.kaigokensaku.mhlw.go.jp/31/index.php?action_kouhyou_detail_004_kani=true&JigyosyoCd=3170400356-00&ServiceCd=210&Type=search", "url2": "http://www.kohoen.jp" }, "geometry": { "type": "Point", "coordinates": [ 133.23959990555727, 35.542245871328447 ] } },
{ "type": "Feature", "properties": { "内容": "短期入所生活介護事業所　花の里【短期入所生活介護】鳥取県境港市上道町１９５９－１", "url": "https://www.kaigokensaku.mhlw.go.jp/31/index.php?action_kouhyou_detail_004_kani=true&JigyosyoCd=3150480261-00&ServiceCd=210&Type=search", "url2": "http://www.motomachi-hp.jp/" }, "geometry": { "type": "Point", "coordinates": [ 133.236385899999959, 35.5418304 ] } },
{ "type": "Feature", "properties": { "内容": "短期入所生活介護事業所新さかい幸朋苑【短期入所生活介護】鳥取県境港市上道町2053番地１", "url": "https://www.kaigokensaku.mhlw.go.jp/31/index.php?action_kouhyou_detail_004_kani=true&JigyosyoCd=3170400281-00&ServiceCd=210&Type=search", "url2": "http://www.kohoen.jp" }, "geometry": { "type": "Point", "coordinates": [ 133.239699500000029, 35.5425775 ] } },
{ "type": "Feature", "properties": { "内容": "中浜ケアパートナーズ　短期入所生活介護事業所【短期入所生活介護】鳥取県境港市財ノ木町字川尻562番地", "url": "https://www.kaigokensaku.mhlw.go.jp/31/index.php?action_kouhyou_detail_004_kani=true&JigyosyoCd=3170400208-00&ServiceCd=210&Type=search", "url2": null }, "geometry": { "type": "Point", "coordinates": [ 133.249298249598723, 35.505859837814235 ] } },
{ "type": "Feature", "properties": { "内容": "岩井あすなろ【短期入所生活介護】鳥取県岩美郡岩美町宇治１０３４", "url": "https://www.kaigokensaku.mhlw.go.jp/31/index.php?action_kouhyou_detail_004_kani=true&JigyosyoCd=3171100039-00&ServiceCd=210&Type=search", "url2": "http://www.t-asunaro.or.jp" }, "geometry": { "type": "Point", "coordinates": [ 134.360779500000035, 35.557615 ] } },
{ "type": "Feature", "properties": { "内容": "わかさ・あすなろ【短期入所生活介護】鳥取県八頭郡若桜町若桜１２３８", "url": "https://www.kaigokensaku.mhlw.go.jp/31/index.php?action_kouhyou_detail_004_kani=true&JigyosyoCd=3171200128-00&ServiceCd=210&Type=search", "url2": "http://t-asunaro.or.jp/" }, "geometry": { "type": "Point", "coordinates": [ 134.3933336, 35.3476801 ] } },
{ "type": "Feature", "properties": { "内容": "智頭町立智頭心和苑【短期入所生活介護】鳥取県八頭郡智頭町大字智頭１８７５番地", "url": "https://www.kaigokensaku.mhlw.go.jp/31/index.php?action_kouhyou_detail_004_kani=true&JigyosyoCd=3171200391-00&ServiceCd=210&Type=search", "url2": null }, "geometry": { "type": "Point", "coordinates": [ 134.224106900000038, 35.2635228 ] } },
{ "type": "Feature", "properties": { "内容": "小規模特別養護老人ホームきたやま（サテライト型居宅施設）【短期入所生活介護】鳥取県八頭群八頭町北山159-1", "url": "https://www.kaigokensaku.mhlw.go.jp/31/index.php?action_kouhyou_detail_004_kani=true&JigyosyoCd=3171200540-00&ServiceCd=210&Type=search", "url2": "http://yazu-sukoyaka.or.jp" }, "geometry": { "type": "Point", "coordinates": [ 134.352359, 35.3639063 ] } },
{ "type": "Feature", "properties": { "内容": "ホワイトガーデンゆず【短期入所生活介護】鳥取県八頭郡八頭町船岡1952ホワイトガーデンゆず", "url": "https://www.kaigokensaku.mhlw.go.jp/31/index.php?action_kouhyou_detail_004_kani=true&JigyosyoCd=3171200623-00&ServiceCd=210&Type=search", "url2": "http://resibupeace.web.fc2.com/" }, "geometry": { "type": "Point", "coordinates": [ 134.248360199999979, 35.3919732 ] } },
{ "type": "Feature", "properties": { "内容": "特別養護老人ホームすこやか【短期入所生活介護】鳥取県八頭郡八頭町宮谷１７４番地１", "url": "https://www.kaigokensaku.mhlw.go.jp/31/index.php?action_kouhyou_detail_004_kani=true&JigyosyoCd=3171200284-00&ServiceCd=210&Type=search", "url2": "http://yazu-sukoyaka.or.jp" }, "geometry": { "type": "Point", "coordinates": [ 134.256464400000027, 35.4130265 ] } },
{ "type": "Feature", "properties": { "内容": "三朝温泉三喜苑　短期入所生活介護事業所【短期入所生活介護】鳥取県東伯郡三朝町横手３９６番地", "url": "https://www.kaigokensaku.mhlw.go.jp/31/index.php?action_kouhyou_detail_004_kani=true&JigyosyoCd=3171400025-00&ServiceCd=210&Type=search", "url2": "http://www.sankien.jp" }, "geometry": { "type": "Point", "coordinates": [ 133.877104799999984, 35.4105021 ] } },
{ "type": "Feature", "properties": { "内容": "湯梨浜はごろも苑【短期入所生活介護】鳥取県東伯郡湯梨浜町上浅津４０７", "url": "https://www.kaigokensaku.mhlw.go.jp/31/index.php?action_kouhyou_detail_004_kani=true&JigyosyoCd=3171401056-00&ServiceCd=210&Type=search", "url2": "http://www.tottori-kousei.jp/hagoromo.html" }, "geometry": { "type": "Point", "coordinates": [ 133.8786955, 35.4785246 ] } },
{ "type": "Feature", "properties": { "内容": "介護老人保健施設ハワイ信生苑　短期入所生活介護事業所【短期入所生活介護】鳥取県東伯郡湯梨浜町はわい温泉５８－５", "url": "https://www.kaigokensaku.mhlw.go.jp/31/index.php?action_kouhyou_detail_004_kani=true&JigyosyoCd=3151480146-00&ServiceCd=210&Type=search", "url2": "http://www3.torichu.ne.jp/~sinseien" }, "geometry": { "type": "Point", "coordinates": [ 133.880213300000037, 35.4757477 ] } },
{ "type": "Feature", "properties": { "内容": "みどり園短期入所生活介護事業所【短期入所生活介護】鳥取県東伯郡琴浦町八橋1937番地", "url": "https://www.kaigokensaku.mhlw.go.jp/31/index.php?action_kouhyou_detail_004_kani=true&JigyosyoCd=3171400033-00&ServiceCd=210&Type=search", "url2": "http://hp1.tcbnet.ne.jp/~midori/" }, "geometry": { "type": "Point", "coordinates": [ 133.664686091926598, 35.50243198234098 ] } },
{ "type": "Feature", "properties": { "内容": "百寿苑短期入所生活介護事業所【短期入所生活介護】鳥取県東伯郡琴浦町赤碕１０６１－３", "url": "https://www.kaigokensaku.mhlw.go.jp/31/index.php?action_kouhyou_detail_004_kani=true&JigyosyoCd=3171400041-00&ServiceCd=210&Type=search", "url2": "www.hyakujyuen.jp" }, "geometry": { "type": "Point", "coordinates": [ 133.6320078, 35.5174898 ] } },
{ "type": "Feature", "properties": { "内容": "ショートステイ　ル・ソラリオン名和【短期入所生活介護】鳥取県西伯郡大山町西坪５２０番地１", "url": "https://www.kaigokensaku.mhlw.go.jp/31/index.php?action_kouhyou_detail_004_kani=true&JigyosyoCd=3171500170-00&ServiceCd=210&Type=search", "url2": "http://www.med-wel.jp" }, "geometry": { "type": "Point", "coordinates": [ 133.501083599999987, 35.5143925 ] } },
{ "type": "Feature", "properties": { "内容": "ショートステイ大山やすらぎの里【短期入所生活介護】鳥取県西伯郡大山町唐王２０８", "url": "https://www.kaigokensaku.mhlw.go.jp/31/index.php?action_kouhyou_detail_004_kani=true&JigyosyoCd=3171500527-00&ServiceCd=210&Type=search", "url2": "https://keiaikai-daisen.com" }, "geometry": { "type": "Point", "coordinates": [ 133.454268, 35.4807484 ] } },
{ "type": "Feature", "properties": { "内容": "特別養護老人ホーム　ゆうらく【短期入所生活介護】鳥取県西伯郡南部町落合480", "url": "https://www.kaigokensaku.mhlw.go.jp/31/index.php?action_kouhyou_detail_004_kani=true&JigyosyoCd=3171500477-00&ServiceCd=210&Type=search", "url2": "http://yuraku-houki.net/" }, "geometry": { "type": "Point", "coordinates": [ 133.332187500000032, 35.3354671 ] } },
{ "type": "Feature", "properties": { "内容": "ショートステイ　ことぶき【短期入所生活介護】鳥取県西伯郡伯耆町長山１６１番地１", "url": "https://www.kaigokensaku.mhlw.go.jp/31/index.php?action_kouhyou_detail_004_kani=true&JigyosyoCd=3171600202-00&ServiceCd=210&Type=search", "url2": null }, "geometry": { "type": "Point", "coordinates": [ 133.434921300000042, 35.3509842 ] } },
{ "type": "Feature", "properties": { "内容": "特別養護老人ホームあかねの郷【短期入所生活介護】鳥取県日野郡日南町下石見２３１５番地", "url": "https://www.kaigokensaku.mhlw.go.jp/31/index.php?action_kouhyou_detail_004_kani=true&JigyosyoCd=3171600277-00&ServiceCd=210&Type=search", "url2": "http://www.n-akane.jp" }, "geometry": { "type": "Point", "coordinates": [ 133.330239900000038, 35.1521569 ] } },
{ "type": "Feature", "properties": { "内容": "特別養護老人ホームあいご【短期入所生活介護】鳥取県日野郡日野町根雨７３０番地", "url": "https://www.kaigokensaku.mhlw.go.jp/31/index.php?action_kouhyou_detail_004_kani=true&JigyosyoCd=3171600319-00&ServiceCd=210&Type=search", "url2": "http://www.nissyoukai.net/" }, "geometry": { "type": "Point", "coordinates": [ 133.440494899999976, 35.2355724 ] } },
{ "type": "Feature", "properties": { "内容": "ショートステイサービスセンター江美の郷【短期入所生活介護】鳥取県日野郡江府町大字久連７番地", "url": "https://www.kaigokensaku.mhlw.go.jp/31/index.php?action_kouhyou_detail_004_kani=true&JigyosyoCd=3171600046-00&ServiceCd=210&Type=search", "url2": "http://www.syoujin.or.jp" }, "geometry": { "type": "Point", "coordinates": [ 133.483059, 35.281851 ] } }
]
}
